{"type":"FeatureCollection","features":[{"type":"Feature","properties":{"cislo":36001,"kod":27997,"mestskaCast":"praha-kreslice"},"geometry":{"type":"Polygon","coordinates":[[[14.579374,50.032486],[14.57937,50.032484],[14.579356,50.032477],[14.579331,50.032462],[14.579292,50.03243],[14.579266,50.032408],[14.57921,50.032361],[14.579067,50.032266],[14.578913,50.032174],[14.578605,50.032011],[14.578232,50.031834],[14.578007,50.031736],[14.577743,50.031635],[14.577743,50.031636],[14.577679,50.031762],[14.577603,50.03197],[14.57755,50.03216],[14.57752,50.03217],[14.577517,50.03217],[14.577474,50.032184],[14.57742,50.032201],[14.577393,50.03221],[14.577051,50.032025],[14.576759,50.031895],[14.576649,50.031846],[14.57651,50.031817],[14.576464,50.031766],[14.576333,50.031693],[14.576162,50.03156],[14.576141,50.031542],[14.575845,50.031284],[14.575648,50.03109],[14.575353,50.030801],[14.575153,50.030638],[14.57292,50.029788],[14.572881,50.029773],[14.572847,50.029755],[14.572688,50.029925],[14.57164,50.02964],[14.570461,50.029364],[14.570083,50.029275],[14.570272,50.028869],[14.570445,50.028499],[14.570601,50.028167],[14.570628,50.028093],[14.570854,50.027472],[14.570868,50.027406],[14.57087,50.027393],[14.570877,50.02736],[14.570944,50.027034],[14.570946,50.027004],[14.570948,50.026968],[14.570961,50.02688],[14.570971,50.026814],[14.570979,50.026722],[14.570974,50.026321],[14.57104,50.026121],[14.571056,50.026075],[14.57108,50.026002],[14.571162,50.026064],[14.571339,50.026061],[14.571648,50.026032],[14.571716,50.025977],[14.571866,50.026007],[14.5721,50.026001],[14.572157,50.025922],[14.572209,50.025938],[14.572249,50.025999],[14.572302,50.026035],[14.572326,50.026052],[14.572551,50.026013],[14.572699,50.025911],[14.572584,50.025779],[14.572555,50.02572],[14.572702,50.025629],[14.572815,50.025542],[14.572838,50.025482],[14.572731,50.025373],[14.572769,50.025298],[14.572743,50.025184],[14.572647,50.02512],[14.572613,50.025141],[14.572588,50.025157],[14.572506,50.025209],[14.572497,50.025207],[14.572287,50.02516],[14.572268,50.025156],[14.57224,50.025117],[14.572338,50.025067],[14.572419,50.024963],[14.572338,50.024861],[14.572178,50.024847],[14.572141,50.024737],[14.572111,50.024639],[14.572038,50.024553],[14.571999,50.024562],[14.571985,50.024566],[14.571958,50.024572],[14.571954,50.024573],[14.571945,50.024575],[14.571914,50.024582],[14.571911,50.024583],[14.57189,50.024588],[14.571756,50.02462],[14.571668,50.024561],[14.571475,50.024577],[14.571437,50.02467],[14.571327,50.024622],[14.571266,50.024548],[14.571439,50.024446],[14.571061,50.024305],[14.570966,50.024197],[14.570731,50.023931],[14.57077,50.023862],[14.571089,50.023289],[14.571228,50.023229],[14.571453,50.023132],[14.571497,50.023113],[14.571903,50.023038],[14.572367,50.023048],[14.57282,50.023017],[14.573215,50.022979],[14.573629,50.022939],[14.573384,50.022198],[14.573522,50.022132],[14.57349,50.022109],[14.573489,50.022109],[14.573462,50.022089],[14.57344,50.022073],[14.573413,50.022054],[14.572982,50.022212],[14.572646,50.022323],[14.572148,50.0225],[14.572033,50.022324],[14.57197,50.022215],[14.571872,50.02186],[14.571756,50.021304],[14.571692,50.020938],[14.57166,50.020732],[14.571555,50.020158],[14.571412,50.019271],[14.571411,50.019266],[14.571368,50.018346],[14.571328,50.018349],[14.57134,50.018105],[14.571312,50.018104],[14.571332,50.017861],[14.571476,50.017843],[14.572449,50.017724],[14.572752,50.017689],[14.573884,50.017571],[14.573893,50.017308],[14.573902,50.017022],[14.57389,50.016656],[14.57389,50.016639],[14.573883,50.016447],[14.573883,50.016429],[14.573881,50.016356],[14.57388,50.016304],[14.574164,50.016285],[14.574148,50.016104],[14.574101,50.015861],[14.574084,50.015827],[14.573991,50.015661],[14.573885,50.015251],[14.573758,50.015043],[14.573691,50.014973],[14.573655,50.014943],[14.573422,50.014754],[14.573094,50.014702],[14.573202,50.014458],[14.573248,50.014353],[14.573397,50.014023],[14.573443,50.013922],[14.573494,50.013718],[14.573311,50.013699],[14.573308,50.013353],[14.573308,50.013329],[14.573307,50.013189],[14.573371,50.013078],[14.573438,50.01293],[14.57359,50.012696],[14.573728,50.01256],[14.573916,50.012374],[14.574175,50.012431],[14.574863,50.012527],[14.574941,50.012546],[14.574961,50.012551],[14.574985,50.012557],[14.575093,50.012583],[14.575095,50.012584],[14.575177,50.012604],[14.575009,50.01245],[14.574709,50.012227],[14.574544,50.012051],[14.574459,50.011886],[14.574419,50.011689],[14.574411,50.011647],[14.574397,50.011629],[14.574386,50.011617],[14.574348,50.011569],[14.574288,50.011496],[14.574167,50.011407],[14.574114,50.011368],[14.574085,50.011346],[14.57382,50.01118],[14.573367,50.01088],[14.573015,50.010613],[14.572758,50.01038],[14.57249,50.010136],[14.572461,50.010109],[14.57241,50.010062],[14.572407,50.010059],[14.572371,50.010025],[14.572323,50.00998],[14.572208,50.009855],[14.572086,50.009618],[14.572049,50.009547],[14.571945,50.00941],[14.571915,50.0093],[14.571775,50.009088],[14.571648,50.008968],[14.57146,50.008881],[14.571128,50.008746],[14.570885,50.008652],[14.570422,50.008486],[14.570037,50.008332],[14.570002,50.008317],[14.569675,50.00818],[14.569177,50.007949],[14.568938,50.00784],[14.568856,50.007806],[14.56862,50.007632],[14.568542,50.007575],[14.568472,50.007505],[14.568426,50.007459],[14.568319,50.007351],[14.568284,50.00738],[14.568246,50.007412],[14.568239,50.007417],[14.568198,50.007451],[14.568188,50.00746],[14.568152,50.00749],[14.568063,50.007564],[14.568044,50.007579],[14.568021,50.007598],[14.567988,50.007787],[14.567988,50.00779],[14.567954,50.007912],[14.567956,50.007933],[14.567959,50.007974],[14.567975,50.008225],[14.56798,50.00831],[14.567939,50.008517],[14.567831,50.008779],[14.567818,50.008809],[14.567772,50.008911],[14.567743,50.008977],[14.567687,50.009082],[14.567628,50.009193],[14.567528,50.009489],[14.567242,50.009466],[14.566875,50.009437],[14.56686,50.009435],[14.566848,50.009435],[14.56677,50.009438],[14.56647,50.009452],[14.566443,50.009455],[14.566407,50.009457],[14.566373,50.009461],[14.566085,50.009489],[14.565897,50.009507],[14.565592,50.009536],[14.565181,50.009575],[14.564621,50.009629],[14.5646,50.009631],[14.5644,50.009653],[14.564239,50.009683],[14.564162,50.009714],[14.564081,50.009736],[14.564111,50.009764],[14.564143,50.009778],[14.564157,50.009808],[14.564165,50.009859],[14.563956,50.010212],[14.563948,50.010241],[14.563943,50.010259],[14.563882,50.010345],[14.563745,50.010586],[14.563698,50.010698],[14.56365,50.010907],[14.563603,50.011094],[14.56359,50.011176],[14.563559,50.011228],[14.563263,50.011451],[14.562969,50.011552],[14.562753,50.011586],[14.56138,50.01168],[14.560437,50.011734],[14.55944,50.011819],[14.559394,50.011823],[14.559092,50.011848],[14.558193,50.011792],[14.557809,50.011781],[14.557494,50.011793],[14.55677,50.011914],[14.556373,50.011905],[14.556077,50.01192],[14.555744,50.011976],[14.555332,50.012031],[14.555052,50.011978],[14.554777,50.011954],[14.554602,50.011988],[14.554343,50.012083],[14.554324,50.01209],[14.554233,50.012156],[14.554187,50.012205],[14.55417,50.012272],[14.554086,50.012588],[14.554015,50.012747],[14.553974,50.012858],[14.554008,50.013067],[14.554081,50.013295],[14.554133,50.01343],[14.554188,50.013522],[14.554441,50.013819],[14.554629,50.013929],[14.554782,50.014056],[14.554945,50.014221],[14.555006,50.014373],[14.555055,50.0145],[14.555216,50.014705],[14.555312,50.015004],[14.555283,50.0152],[14.555244,50.015436],[14.555127,50.01572],[14.554907,50.016065],[14.554857,50.016202],[14.554857,50.016334],[14.554911,50.016562],[14.554984,50.01681],[14.555128,50.016954],[14.55529,50.01702],[14.555504,50.017072],[14.555592,50.017091],[14.555596,50.017112],[14.555625,50.017278],[14.555613,50.017537],[14.555605,50.017721],[14.555541,50.017888],[14.555468,50.018072],[14.555331,50.018283],[14.555239,50.018449],[14.555119,50.018617],[14.554949,50.018794],[14.554715,50.018975],[14.554307,50.019099],[14.554031,50.019287],[14.553848,50.019376],[14.553799,50.019342],[14.553796,50.019339],[14.553781,50.019329],[14.553743,50.019302],[14.553714,50.019281],[14.55357,50.019211],[14.553111,50.019168],[14.552969,50.019069],[14.552903,50.019023],[14.552794,50.018948],[14.552716,50.018878],[14.552712,50.018911],[14.552678,50.018932],[14.552656,50.018939],[14.55261,50.018953],[14.552567,50.018966],[14.552492,50.018904],[14.552465,50.018881],[14.552269,50.018797],[14.552183,50.018759],[14.552009,50.018726],[14.55188,50.018701],[14.55169,50.018714],[14.551451,50.018797],[14.551401,50.018814],[14.551122,50.018914],[14.550708,50.019115],[14.550613,50.01923],[14.550537,50.019323],[14.550372,50.019522],[14.550142,50.019748],[14.550065,50.019881],[14.550015,50.019965],[14.549774,50.020262],[14.549933,50.020383],[14.550066,50.020484],[14.550252,50.020617],[14.550486,50.020812],[14.550463,50.020852],[14.550504,50.020889],[14.55055,50.020932],[14.550513,50.020967],[14.550566,50.02098],[14.550785,50.021036],[14.550952,50.021106],[14.551055,50.021196],[14.551123,50.021255],[14.551197,50.021473],[14.551299,50.021569],[14.551214,50.021676],[14.551089,50.021763],[14.551095,50.021777],[14.551101,50.02179],[14.551107,50.021804],[14.55112,50.021835],[14.551122,50.02184],[14.551138,50.021876],[14.551147,50.021896],[14.550989,50.022081],[14.550958,50.022117],[14.550813,50.022237],[14.550766,50.022275],[14.550565,50.022442],[14.550517,50.022481],[14.550307,50.022654],[14.550273,50.022682],[14.550265,50.022689],[14.550239,50.02271],[14.550081,50.022834],[14.550007,50.022905],[14.549799,50.023104],[14.549778,50.023124],[14.549763,50.023138],[14.549607,50.023288],[14.549549,50.023337],[14.549526,50.023356],[14.549512,50.023368],[14.549375,50.023485],[14.54937,50.023488],[14.549231,50.023606],[14.549226,50.023611],[14.549147,50.023677],[14.549023,50.023791],[14.54889,50.023908],[14.548889,50.023909],[14.548564,50.024195],[14.54856,50.024199],[14.548442,50.024302],[14.548235,50.024543],[14.548219,50.024562],[14.548206,50.024574],[14.548174,50.024601],[14.54805,50.024708],[14.547773,50.024916],[14.546975,50.025467],[14.546844,50.025584],[14.546664,50.025854],[14.546646,50.02589],[14.548258,50.026218],[14.54853,50.026312],[14.548897,50.026468],[14.549153,50.026617],[14.549159,50.026669],[14.549206,50.02671],[14.5492,50.026874],[14.549132,50.027036],[14.549205,50.02738],[14.549281,50.027521],[14.549287,50.027446],[14.549381,50.027621],[14.54944,50.027681],[14.549589,50.027836],[14.549755,50.028007],[14.550231,50.028478],[14.550587,50.028889],[14.550903,50.029249],[14.550971,50.029326],[14.551081,50.029452],[14.551213,50.029602],[14.551222,50.029612],[14.551322,50.029781],[14.551371,50.029864],[14.55138,50.029878],[14.551391,50.029909],[14.551405,50.029947],[14.551518,50.030253],[14.551667,50.030098],[14.551823,50.029994],[14.55196,50.029936],[14.551976,50.029929],[14.552105,50.029926],[14.552371,50.029919],[14.552438,50.029917],[14.554362,50.029504],[14.55537,50.029298],[14.555564,50.029261],[14.556144,50.028977],[14.556323,50.029357],[14.556344,50.029403],[14.556399,50.029402],[14.556515,50.029399],[14.556681,50.029336],[14.556858,50.02939],[14.557126,50.029409],[14.557573,50.029441],[14.557997,50.029449],[14.558352,50.02942],[14.558615,50.02947],[14.558762,50.029499],[14.558959,50.029603],[14.558986,50.029617],[14.559008,50.029638],[14.55917,50.029787],[14.559447,50.029907],[14.559545,50.02995],[14.559785,50.030011],[14.559911,50.030043],[14.560333,50.030151],[14.56067,50.030237],[14.56063,50.030308],[14.560689,50.030422],[14.560334,50.030558],[14.56022,50.030633],[14.560083,50.030588],[14.55991,50.030629],[14.559842,50.030707],[14.559877,50.03074],[14.559963,50.030818],[14.559981,50.030835],[14.560401,50.03099],[14.560704,50.030954],[14.560968,50.031018],[14.561458,50.031077],[14.561956,50.031074],[14.562026,50.031073],[14.562057,50.031071],[14.562229,50.031061],[14.562419,50.03105],[14.562646,50.031037],[14.562865,50.031025],[14.563102,50.030997],[14.563108,50.030996],[14.563136,50.030993],[14.56341,50.030961],[14.563414,50.030962],[14.563611,50.031041],[14.563833,50.031129],[14.563909,50.03116],[14.564812,50.031302],[14.564874,50.031312],[14.565006,50.031314],[14.565059,50.031315],[14.565066,50.031315],[14.565118,50.031317],[14.565131,50.031317],[14.565171,50.031318],[14.5653,50.031318],[14.565739,50.03148],[14.565838,50.031514],[14.565955,50.031554],[14.566076,50.031596],[14.566459,50.031668],[14.566932,50.031805],[14.567176,50.031887],[14.567428,50.031976],[14.567788,50.032103],[14.568121,50.032202],[14.568143,50.032209],[14.5684,50.03226],[14.568452,50.03227],[14.56851,50.032279],[14.568551,50.032285],[14.568692,50.032307],[14.568942,50.032345],[14.568997,50.032354],[14.569813,50.032479],[14.570287,50.032136],[14.570311,50.032118],[14.570326,50.032063],[14.570349,50.032062],[14.570959,50.032046],[14.571556,50.032029],[14.571901,50.032162],[14.572291,50.032305],[14.572621,50.032426],[14.572688,50.032446],[14.572843,50.032494],[14.572945,50.032524],[14.573508,50.032808],[14.573812,50.032912],[14.574806,50.033253],[14.574835,50.033363],[14.574874,50.033513],[14.574883,50.033547],[14.574888,50.03357],[14.574902,50.033621],[14.575193,50.033801],[14.575699,50.034112],[14.575713,50.034103],[14.575723,50.034096],[14.575737,50.034087],[14.57575,50.034079],[14.576109,50.033911],[14.576117,50.033917],[14.576136,50.033931],[14.576193,50.033972],[14.576216,50.033989],[14.576896,50.033579],[14.577267,50.033378],[14.577327,50.033334],[14.57738,50.033297],[14.577436,50.033266],[14.577643,50.033155],[14.577659,50.033147],[14.577687,50.033132],[14.578179,50.032943],[14.578593,50.032785],[14.578631,50.03277],[14.57934,50.032499],[14.579374,50.032486]]]}}]}
