{"type":"FeatureCollection","features":[{"type":"Feature","properties":{"cislo":29001,"kod":27995,"mestskaCast":"praha-dolni-mecholupy"},"geometry":{"type":"Polygon","coordinates":[[[14.54918,50.056986],[14.552156,50.057718],[14.554196,50.058213],[14.555159,50.058301],[14.556472,50.058352],[14.556776,50.058382],[14.557132,50.058465],[14.557626,50.058629],[14.559071,50.059023],[14.559396,50.059075],[14.560371,50.059317],[14.561145,50.059508],[14.562524,50.059865],[14.562992,50.060266],[14.563258,50.060537],[14.56372,50.060826],[14.564317,50.060942],[14.565108,50.060963],[14.565706,50.060983],[14.565916,50.060993],[14.566965,50.061029],[14.56819,50.061084],[14.569397,50.061077],[14.569916,50.061062],[14.571589,50.061016],[14.571589,50.060962],[14.571592,50.060946],[14.571684,50.060934],[14.572052,50.060886],[14.572261,50.06088],[14.572349,50.060877],[14.572516,50.060889],[14.572704,50.060903],[14.573142,50.060947],[14.573453,50.060995],[14.574111,50.06115],[14.574799,50.061313],[14.575361,50.061445],[14.576866,50.061787],[14.576885,50.061776],[14.57691,50.061762],[14.576924,50.06173],[14.577114,50.060986],[14.577213,50.060639],[14.57816,50.060743],[14.57821,50.060693],[14.578266,50.060396],[14.578468,50.059317],[14.578726,50.057941],[14.578783,50.0577],[14.578869,50.05736],[14.57889,50.05728],[14.578896,50.057254],[14.578904,50.057223],[14.578703,50.057207],[14.578565,50.057197],[14.57852,50.057193],[14.578511,50.057196],[14.578447,50.057218],[14.578382,50.05724],[14.578313,50.057264],[14.578227,50.057293],[14.578216,50.057309],[14.578138,50.057416],[14.578129,50.057429],[14.57811,50.057455],[14.578092,50.05748],[14.578071,50.05751],[14.577969,50.057651],[14.577968,50.057652],[14.577925,50.057711],[14.577924,50.057713],[14.577818,50.058003],[14.577812,50.058019],[14.577578,50.057991],[14.577563,50.05799],[14.577505,50.05798],[14.577207,50.057932],[14.577149,50.057922],[14.576866,50.057876],[14.576525,50.057821],[14.576485,50.057814],[14.576164,50.057762],[14.575839,50.057709],[14.575868,50.057307],[14.575909,50.057308],[14.5759,50.057093],[14.575898,50.057047],[14.575893,50.057016],[14.575886,50.056974],[14.575849,50.056748],[14.575839,50.056723],[14.57582,50.056672],[14.575811,50.056652],[14.57605,50.056589],[14.576607,50.056391],[14.577304,50.056168],[14.577483,50.056076],[14.577512,50.056061],[14.5778,50.055743],[14.577807,50.055708],[14.577833,50.055585],[14.577838,50.055563],[14.577842,50.055544],[14.577791,50.055354],[14.577426,50.054926],[14.5774,50.054875],[14.577132,50.054353],[14.576895,50.054223],[14.576563,50.054185],[14.576626,50.054158],[14.576648,50.054148],[14.576731,50.054112],[14.576902,50.054038],[14.577051,50.053973],[14.577259,50.053905],[14.577415,50.053854],[14.577571,50.053715],[14.577588,50.053673],[14.577632,50.053564],[14.577647,50.053426],[14.577599,50.053325],[14.57734,50.053209],[14.57727,50.053181],[14.576615,50.052975],[14.576546,50.052953],[14.57622,50.05285],[14.576207,50.052837],[14.576078,50.052697],[14.575949,50.052556],[14.575898,50.052501],[14.575841,50.052439],[14.575714,50.052269],[14.575623,50.052147],[14.575592,50.052105],[14.575558,50.052037],[14.575482,50.051878],[14.575477,50.051868],[14.575455,50.051806],[14.575447,50.051758],[14.575456,50.05172],[14.575567,50.051539],[14.575577,50.051521],[14.575752,50.051253],[14.575901,50.051022],[14.575911,50.051008],[14.576364,50.050871],[14.576635,50.050789],[14.57699,50.050682],[14.577315,50.050584],[14.577673,50.050475],[14.57951,50.049921],[14.579851,50.049536],[14.580114,50.049315],[14.580127,50.049219],[14.580058,50.049076],[14.580073,50.048811],[14.580379,50.048563],[14.580433,50.04852],[14.580544,50.048411],[14.580922,50.048196],[14.580846,50.048109],[14.580719,50.048044],[14.58068,50.048023],[14.580653,50.048008],[14.58062,50.047991],[14.580662,50.047872],[14.580789,50.047785],[14.580517,50.047485],[14.580486,50.047454],[14.580143,50.047078],[14.579978,50.04692],[14.579469,50.046448],[14.579305,50.046305],[14.579107,50.046086],[14.579028,50.045999],[14.57867,50.045693],[14.578324,50.045441],[14.578283,50.045403],[14.578279,50.045399],[14.578214,50.045347],[14.578172,50.045313],[14.578136,50.045286],[14.578021,50.045201],[14.577907,50.045116],[14.577814,50.045048],[14.577757,50.045003],[14.577686,50.044948],[14.577448,50.044761],[14.577367,50.044698],[14.577166,50.044541],[14.576839,50.044268],[14.576622,50.044087],[14.576603,50.044071],[14.575781,50.043505],[14.575763,50.043493],[14.575898,50.043402],[14.576271,50.04315],[14.576666,50.04279],[14.576828,50.042662],[14.57679,50.042646],[14.576835,50.042573],[14.576553,50.042398],[14.576079,50.042174],[14.575879,50.042095],[14.575679,50.041992],[14.575565,50.041934],[14.575542,50.041946],[14.5755,50.041972],[14.573897,50.042843],[14.572941,50.043365],[14.57246,50.043618],[14.571931,50.043911],[14.571547,50.044137],[14.570645,50.044705],[14.570598,50.044698],[14.570038,50.04504],[14.569667,50.045267],[14.569303,50.045474],[14.56892,50.045703],[14.568854,50.045743],[14.568791,50.045795],[14.568504,50.046297],[14.568537,50.046312],[14.568551,50.046317],[14.568842,50.046441],[14.569026,50.04652],[14.569068,50.046538],[14.56936,50.046662],[14.569556,50.046746],[14.569714,50.046814],[14.570176,50.04698],[14.570213,50.046993],[14.570339,50.047038],[14.570737,50.047259],[14.570743,50.047262],[14.570774,50.047288],[14.570821,50.047326],[14.570977,50.047455],[14.570611,50.047793],[14.570548,50.047852],[14.570499,50.047896],[14.570351,50.048034],[14.570194,50.048179],[14.570176,50.048195],[14.570151,50.048218],[14.570048,50.048313],[14.570036,50.048325],[14.570016,50.048343],[14.569954,50.0484],[14.569941,50.048412],[14.569412,50.048901],[14.569268,50.049035],[14.569183,50.049113],[14.569119,50.049172],[14.568924,50.049353],[14.568834,50.049435],[14.5687,50.04956],[14.568274,50.049951],[14.568072,50.050136],[14.567772,50.050375],[14.567575,50.050533],[14.567566,50.05054],[14.567561,50.050546],[14.567537,50.050573],[14.567371,50.050762],[14.567192,50.050966],[14.567155,50.05102],[14.567124,50.051064],[14.567106,50.051091],[14.567025,50.051207],[14.566858,50.051447],[14.566735,50.05151],[14.566689,50.051499],[14.565811,50.051284],[14.56567,50.05125],[14.565027,50.051093],[14.56449,50.050961],[14.563899,50.050865],[14.563633,50.050822],[14.563564,50.051044],[14.56341,50.051539],[14.563201,50.0519],[14.562855,50.051881],[14.562903,50.051691],[14.562297,50.051658],[14.562294,50.051658],[14.562266,50.051656],[14.561849,50.051552],[14.561216,50.051404],[14.561042,50.051363],[14.56072,50.051289],[14.56071,50.051286],[14.560526,50.051068],[14.56055,50.051024],[14.560836,50.050474],[14.560838,50.050471],[14.560788,50.050463],[14.560193,50.050363],[14.558469,50.050073],[14.557118,50.049846],[14.556948,50.050152],[14.556569,50.050835],[14.556559,50.050851],[14.556374,50.051135],[14.556255,50.051315],[14.55624,50.051339],[14.556189,50.051459],[14.556171,50.051597],[14.556202,50.051785],[14.556327,50.052107],[14.55582,50.052103],[14.555655,50.052102],[14.555567,50.052102],[14.555235,50.052079],[14.555094,50.052069],[14.55501,50.052063],[14.554927,50.052058],[14.554844,50.052052],[14.554801,50.052049],[14.554761,50.052044],[14.554678,50.052035],[14.554596,50.052025],[14.554513,50.052015],[14.554431,50.052006],[14.554348,50.051996],[14.554187,50.051977],[14.554077,50.051964],[14.553486,50.051895],[14.553221,50.051864],[14.553213,50.051863],[14.553123,50.051853],[14.552833,50.051819],[14.552753,50.051973],[14.552733,50.052012],[14.552727,50.052024],[14.552697,50.052081],[14.552686,50.052103],[14.552591,50.052289],[14.552542,50.052382],[14.552536,50.052393],[14.552449,50.052562],[14.552338,50.052742],[14.552141,50.053059],[14.552034,50.053234],[14.552018,50.05326],[14.552013,50.053268],[14.551821,50.053519],[14.551714,50.053642],[14.551575,50.053802],[14.551568,50.053808],[14.551027,50.054327],[14.550966,50.054383],[14.550873,50.054468],[14.549798,50.05449],[14.549736,50.054468],[14.548848,50.054162],[14.548846,50.054161],[14.548491,50.05451],[14.548351,50.054492],[14.548092,50.054382],[14.547634,50.054156],[14.547547,50.054116],[14.547327,50.054015],[14.547263,50.053986],[14.546901,50.053882],[14.546745,50.053838],[14.546454,50.053764],[14.546226,50.053706],[14.546121,50.053687],[14.546076,50.053679],[14.546074,50.053678],[14.546062,50.053676],[14.546035,50.053671],[14.545973,50.05366],[14.545945,50.053655],[14.545142,50.053509],[14.545077,50.053649],[14.545064,50.053677],[14.545051,50.053704],[14.545032,50.053745],[14.545031,50.053747],[14.544942,50.053935],[14.544925,50.053972],[14.544915,50.053996],[14.544868,50.054118],[14.544861,50.054136],[14.544892,50.054147],[14.545586,50.054277],[14.545602,50.05428],[14.54576,50.05431],[14.545866,50.054329],[14.545933,50.054342],[14.546117,50.054376],[14.546246,50.054401],[14.546232,50.054425],[14.546215,50.054455],[14.546201,50.05448],[14.546199,50.054483],[14.546184,50.05451],[14.546152,50.054568],[14.54591,50.054943],[14.546341,50.054953],[14.546476,50.054957],[14.546552,50.054974],[14.546629,50.054991],[14.546933,50.055085],[14.546968,50.055099],[14.547072,50.055141],[14.547164,50.055181],[14.547204,50.055204],[14.547276,50.055248],[14.547329,50.055291],[14.54734,50.055299],[14.547479,50.05541],[14.547525,50.055446],[14.547361,50.055705],[14.547319,50.055771],[14.546877,50.056469],[14.546875,50.056472],[14.546861,50.056494],[14.546928,50.056497],[14.5471,50.056527],[14.547124,50.056508],[14.547286,50.056375],[14.547451,50.05624],[14.547509,50.056201],[14.547667,50.056095],[14.547717,50.056114],[14.547731,50.05612],[14.547753,50.056129],[14.5478,50.056147],[14.547826,50.056157],[14.547842,50.056164],[14.547922,50.056195],[14.548144,50.056283],[14.54818,50.056294],[14.548395,50.056363],[14.54865,50.056435],[14.548952,50.056066],[14.549164,50.055774],[14.549627,50.055885],[14.549802,50.055927],[14.54974,50.056077],[14.549726,50.056109],[14.549484,50.056472],[14.549483,50.056473],[14.549478,50.05648],[14.549475,50.056486],[14.549413,50.056579],[14.549404,50.056592],[14.549757,50.05665],[14.549761,50.05665],[14.549857,50.056666],[14.549868,50.056668],[14.550385,50.056752],[14.550676,50.056804],[14.550511,50.057125],[14.550507,50.057133],[14.550456,50.057233],[14.549802,50.057071],[14.549621,50.057034],[14.549563,50.057022],[14.549512,50.057012],[14.549453,50.057],[14.549196,50.056947],[14.54918,50.056986]]]}},{"type":"Feature","properties":{"cislo":29002,"kod":72550,"mestskaCast":"praha-dolni-mecholupy"},"geometry":{"type":"Polygon","coordinates":[[[14.568078,50.071062],[14.568006,50.070781],[14.567896,50.070521],[14.567881,50.070489],[14.567807,50.070341],[14.567657,50.0697],[14.568017,50.068874],[14.568081,50.068729],[14.568161,50.068545],[14.56823,50.068388],[14.568367,50.068072],[14.568539,50.067678],[14.568646,50.067432],[14.568755,50.067181],[14.568784,50.067151],[14.568821,50.067082],[14.568842,50.067043],[14.568862,50.067006],[14.568895,50.066945],[14.568928,50.066882],[14.568952,50.066836],[14.569035,50.066681],[14.569067,50.066621],[14.569283,50.066215],[14.569619,50.065585],[14.569652,50.065545],[14.56994,50.065192],[14.570006,50.06511],[14.570086,50.06497],[14.570168,50.064825],[14.570181,50.064747],[14.570231,50.064443],[14.570395,50.063952],[14.570583,50.063573],[14.570763,50.06321],[14.570899,50.062934],[14.571003,50.062828],[14.571152,50.062656],[14.57148,50.061588],[14.57159,50.061039],[14.571589,50.061016],[14.569916,50.061062],[14.569397,50.061077],[14.56819,50.061084],[14.566965,50.061029],[14.565916,50.060993],[14.565706,50.060983],[14.565108,50.060963],[14.564317,50.060942],[14.56372,50.060826],[14.563258,50.060537],[14.562992,50.060266],[14.562524,50.059865],[14.561145,50.059508],[14.560371,50.059317],[14.559396,50.059075],[14.559071,50.059023],[14.557626,50.058629],[14.557132,50.058465],[14.556776,50.058382],[14.556472,50.058352],[14.555159,50.058301],[14.554196,50.058213],[14.552156,50.057718],[14.54918,50.056986],[14.549161,50.057035],[14.548661,50.056955],[14.548418,50.056916],[14.548148,50.056864],[14.548096,50.056946],[14.548031,50.057051],[14.547982,50.05713],[14.547965,50.057157],[14.547861,50.057322],[14.547753,50.057479],[14.547642,50.057641],[14.547512,50.057855],[14.547438,50.057975],[14.547373,50.057956],[14.547122,50.057882],[14.547056,50.057862],[14.546924,50.057823],[14.546734,50.057767],[14.546331,50.057634],[14.546042,50.057867],[14.545962,50.057968],[14.54564,50.058532],[14.545571,50.058666],[14.54555,50.058706],[14.545521,50.058762],[14.545514,50.058775],[14.545495,50.058817],[14.545482,50.058847],[14.54548,50.05885],[14.5454,50.059027],[14.545331,50.059178],[14.544927,50.05914],[14.54491,50.059139],[14.544689,50.059124],[14.544547,50.059115],[14.544526,50.059114],[14.544501,50.059112],[14.544378,50.059104],[14.544222,50.059094],[14.543578,50.059051],[14.543486,50.059045],[14.543457,50.059044],[14.543132,50.059032],[14.542846,50.059021],[14.542571,50.059034],[14.542462,50.059039],[14.54245,50.059082],[14.542435,50.059138],[14.542415,50.059212],[14.542395,50.059287],[14.542389,50.05931],[14.54232,50.059486],[14.542306,50.059517],[14.542257,50.059622],[14.542246,50.059644],[14.542157,50.059836],[14.542085,50.059974],[14.542085,50.059975],[14.542049,50.060042],[14.542019,50.060101],[14.541857,50.060457],[14.541769,50.06065],[14.541636,50.060943],[14.541516,50.061173],[14.541452,50.061355],[14.541433,50.061409],[14.541421,50.061446],[14.541376,50.061584],[14.541369,50.061629],[14.541333,50.061832],[14.541327,50.061869],[14.540965,50.061947],[14.540932,50.062414],[14.54093,50.062454],[14.540924,50.062528],[14.541479,50.06253],[14.541462,50.062564],[14.541452,50.062581],[14.541441,50.062598],[14.54142,50.06263],[14.541397,50.062662],[14.541373,50.062695],[14.541362,50.062708],[14.541322,50.06276],[14.541295,50.062791],[14.541268,50.062823],[14.541239,50.062855],[14.541211,50.062885],[14.541181,50.062916],[14.541152,50.062946],[14.541122,50.062976],[14.541091,50.063006],[14.541059,50.063036],[14.541036,50.063056],[14.541027,50.063064],[14.541017,50.063072],[14.541013,50.063075],[14.540992,50.063093],[14.540958,50.063121],[14.540923,50.063149],[14.540888,50.063176],[14.540851,50.063204],[14.540814,50.06323],[14.540776,50.063259],[14.540739,50.063283],[14.540701,50.06331],[14.540687,50.063319],[14.540663,50.063336],[14.540624,50.063362],[14.540583,50.063386],[14.540564,50.063397],[14.540545,50.06341],[14.54053,50.063418],[14.540503,50.063433],[14.540463,50.063457],[14.540419,50.063481],[14.540376,50.063504],[14.540332,50.063527],[14.540289,50.06355],[14.540246,50.063573],[14.540202,50.063594],[14.540155,50.063614],[14.540108,50.063634],[14.540061,50.063654],[14.540049,50.063657],[14.540063,50.064045],[14.540066,50.064294],[14.540064,50.064383],[14.540063,50.064403],[14.540061,50.064475],[14.540061,50.064477],[14.54006,50.064513],[14.540043,50.064641],[14.540025,50.064733],[14.539974,50.064895],[14.539923,50.065029],[14.539897,50.065128],[14.540013,50.065146],[14.540128,50.065183],[14.540254,50.06522],[14.540597,50.065319],[14.540607,50.065322],[14.540641,50.065332],[14.541111,50.065468],[14.541235,50.065504],[14.541665,50.065629],[14.541888,50.065694],[14.542167,50.065776],[14.542481,50.065868],[14.542574,50.065884],[14.542823,50.065927],[14.543049,50.065966],[14.543696,50.066094],[14.543841,50.066123],[14.543956,50.066145],[14.544117,50.066173],[14.544277,50.066203],[14.544423,50.06623],[14.54452,50.066247],[14.54454,50.066251],[14.544545,50.066252],[14.544549,50.066253],[14.545297,50.066427],[14.545591,50.066496],[14.545964,50.066594],[14.546362,50.066699],[14.546951,50.066854],[14.547264,50.066963],[14.547664,50.066931],[14.547804,50.066937],[14.548744,50.067094],[14.549213,50.067182],[14.55075,50.06746],[14.550774,50.067463],[14.55226,50.067701],[14.55269,50.06777],[14.552747,50.06778],[14.553502,50.067902],[14.55398,50.068001],[14.554053,50.067956],[14.554416,50.068047],[14.554793,50.068143],[14.554851,50.068158],[14.555238,50.068257],[14.555636,50.068346],[14.556091,50.068431],[14.556245,50.068451],[14.557042,50.068554],[14.55713,50.068637],[14.557564,50.068773],[14.557822,50.068853],[14.558247,50.068986],[14.558599,50.069096],[14.558489,50.069287],[14.558344,50.069558],[14.55805,50.070346],[14.558025,50.070412],[14.557982,50.070528],[14.558236,50.070627],[14.558539,50.070744],[14.558747,50.070828],[14.558849,50.070871],[14.558956,50.070922],[14.558959,50.070924],[14.559054,50.07098],[14.559149,50.071043],[14.559216,50.071098],[14.559236,50.071115],[14.559319,50.071198],[14.559389,50.071283],[14.559399,50.071294],[14.559492,50.071257],[14.559602,50.071214],[14.559615,50.071209],[14.559806,50.07114],[14.559946,50.071109],[14.56011,50.071073],[14.560299,50.071037],[14.560387,50.071023],[14.56212,50.070741],[14.562424,50.070701],[14.562488,50.070699],[14.562593,50.070695],[14.562627,50.070694],[14.56266,50.070692],[14.562733,50.07069],[14.563184,50.070685],[14.564998,50.070664],[14.565205,50.070682],[14.56593,50.070779],[14.566614,50.07087],[14.567298,50.070961],[14.567982,50.071053],[14.568034,50.071057],[14.568078,50.071062]]]}}]}
