{"type":"FeatureCollection","features":[{"type":"Feature","properties":{"cislo":46001,"kod":38480,"mestskaCast":"praha-reporyje"},"geometry":{"type":"MultiPolygon","coordinates":[[[[14.316224,50.032727],[14.316324,50.032854],[14.316411,50.032971],[14.316487,50.033077],[14.316555,50.033156],[14.316648,50.033246],[14.316656,50.033338],[14.316752,50.033419],[14.316888,50.033504],[14.317063,50.03361],[14.315658,50.035091],[14.315834,50.035125],[14.315663,50.035327],[14.315455,50.035245],[14.314433,50.036652],[14.314479,50.036701],[14.314625,50.036805],[14.314732,50.036896],[14.314806,50.036948],[14.315212,50.037221],[14.315224,50.037231],[14.315456,50.037397],[14.315482,50.037408],[14.315797,50.037582],[14.31586,50.037615],[14.316163,50.037778],[14.316514,50.037982],[14.316928,50.038219],[14.317203,50.038379],[14.317516,50.038625],[14.317576,50.038676],[14.317727,50.038826],[14.317862,50.038983],[14.317896,50.039022],[14.318023,50.039215],[14.318105,50.039359],[14.318121,50.039415],[14.318159,50.0395],[14.318235,50.039734],[14.318245,50.039753],[14.318278,50.039864],[14.318288,50.039884],[14.31829,50.039938],[14.318313,50.040158],[14.318324,50.040368],[14.318323,50.04044],[14.318382,50.040754],[14.318394,50.040764],[14.318443,50.04086],[14.318485,50.040916],[14.318599,50.040838],[14.318646,50.040802],[14.318772,50.040735],[14.31887,50.040685],[14.319027,50.040606],[14.319136,50.040555],[14.319386,50.040435],[14.31974,50.040315],[14.320134,50.040195],[14.320504,50.04011],[14.320622,50.040107],[14.32066,50.040098],[14.320766,50.040074],[14.321386,50.039984],[14.321611,50.039962],[14.322292,50.039902],[14.323324,50.039853],[14.323739,50.039835],[14.323745,50.039835],[14.324079,50.039582],[14.325648,50.038403],[14.325655,50.038397],[14.325662,50.038393],[14.325684,50.038377],[14.325753,50.038327],[14.325753,50.038326],[14.325758,50.038319],[14.32577,50.038297],[14.325789,50.038265],[14.325925,50.038022],[14.326244,50.037455],[14.326305,50.037346],[14.326366,50.037236],[14.326442,50.0371],[14.326507,50.036981],[14.326626,50.036768],[14.326673,50.036685],[14.327327,50.035514],[14.327599,50.035027],[14.327615,50.034999],[14.327619,50.034992],[14.327643,50.034948],[14.327667,50.034905],[14.326515,50.034738],[14.324718,50.034577],[14.324398,50.034557],[14.324092,50.034539],[14.323632,50.034516],[14.32334,50.034499],[14.323061,50.034483],[14.322907,50.034478],[14.322714,50.034461],[14.322587,50.034459],[14.322378,50.034449],[14.322099,50.034433],[14.322003,50.034425],[14.321908,50.034407],[14.321852,50.034402],[14.321596,50.034352],[14.321554,50.034348],[14.321416,50.034336],[14.321333,50.034328],[14.321105,50.034272],[14.320999,50.034244],[14.320852,50.034204],[14.320599,50.034136],[14.320479,50.034107],[14.320372,50.034079],[14.320206,50.034],[14.320194,50.03399],[14.320156,50.033969],[14.320075,50.033952],[14.320024,50.03393],[14.319788,50.033845],[14.319774,50.033844],[14.319683,50.033808],[14.319539,50.033759],[14.319355,50.033697],[14.319054,50.033589],[14.318936,50.033551],[14.318775,50.033509],[14.318736,50.033497],[14.318465,50.033445],[14.318174,50.033356],[14.31804,50.033325],[14.317947,50.033299],[14.317868,50.033274],[14.317759,50.033255],[14.317654,50.033218],[14.317522,50.033179],[14.317229,50.033098],[14.316978,50.033022],[14.316913,50.032998],[14.316656,50.032884],[14.316537,50.032846],[14.316383,50.032778],[14.316278,50.032741],[14.316224,50.032727]]],[[[14.31193,50.033296],[14.311841,50.033315],[14.311729,50.033314],[14.311611,50.03334],[14.311645,50.033442],[14.311822,50.033467],[14.31166,50.033762],[14.311513,50.033921],[14.311506,50.034084],[14.311913,50.034029],[14.312252,50.034023],[14.312308,50.034092],[14.312345,50.034113],[14.312765,50.03426],[14.312551,50.034531],[14.313871,50.035013],[14.314027,50.034682],[14.314752,50.03491],[14.314921,50.034716],[14.314662,50.034611],[14.314524,50.034599],[14.314144,50.034465],[14.314679,50.033878],[14.314356,50.033676],[14.314095,50.03358],[14.313134,50.033204],[14.313095,50.033382],[14.313076,50.033534],[14.312773,50.033961],[14.312579,50.03388],[14.312387,50.03379],[14.312207,50.033711],[14.312092,50.033655],[14.311973,50.033617],[14.311943,50.03356],[14.311933,50.033477],[14.311925,50.033386],[14.31193,50.033296]]]]}},{"type":"Feature","properties":{"cislo":46002,"kod":38482,"mestskaCast":"praha-reporyje"},"geometry":{"type":"Polygon","coordinates":[[[14.314869,50.043697],[14.314876,50.043695],[14.314887,50.043691],[14.315138,50.043596],[14.315385,50.043497],[14.315597,50.043403],[14.315857,50.043261],[14.315927,50.043222],[14.316078,50.043115],[14.316212,50.043023],[14.316448,50.042841],[14.31658,50.042725],[14.316712,50.042594],[14.316829,50.042469],[14.317068,50.042198],[14.317183,50.042064],[14.317318,50.041908],[14.31746,50.041752],[14.317557,50.041652],[14.317647,50.041565],[14.317696,50.041519],[14.317705,50.041508],[14.317926,50.041281],[14.318181,50.041119],[14.318271,50.041068],[14.318308,50.041044],[14.318352,50.041008],[14.318485,50.040916],[14.318443,50.04086],[14.318394,50.040764],[14.318382,50.040754],[14.318323,50.04044],[14.318324,50.040368],[14.318313,50.040158],[14.31829,50.039938],[14.318288,50.039884],[14.318278,50.039864],[14.318245,50.039753],[14.318235,50.039734],[14.318159,50.0395],[14.318121,50.039415],[14.318105,50.039359],[14.318023,50.039215],[14.317896,50.039022],[14.317862,50.038983],[14.317727,50.038826],[14.317576,50.038676],[14.317516,50.038625],[14.317203,50.038379],[14.316928,50.038219],[14.316514,50.037982],[14.316163,50.037778],[14.31586,50.037615],[14.315797,50.037582],[14.315482,50.037408],[14.315456,50.037397],[14.315224,50.037231],[14.315212,50.037221],[14.314806,50.036948],[14.314732,50.036896],[14.314625,50.036805],[14.314479,50.036701],[14.314433,50.036652],[14.315455,50.035245],[14.315663,50.035327],[14.315834,50.035125],[14.315658,50.035091],[14.317063,50.03361],[14.316888,50.033504],[14.316752,50.033419],[14.316656,50.033338],[14.316648,50.033246],[14.316555,50.033156],[14.316487,50.033077],[14.316411,50.032971],[14.316324,50.032854],[14.316224,50.032727],[14.315394,50.032526],[14.315238,50.032466],[14.315096,50.032535],[14.314903,50.032645],[14.314632,50.032793],[14.314434,50.032794],[14.314213,50.032774],[14.314,50.032718],[14.313808,50.032756],[14.313548,50.03285],[14.313286,50.032891],[14.313006,50.032947],[14.312603,50.032984],[14.312596,50.033019],[14.312658,50.033188],[14.312121,50.033258],[14.31193,50.033296],[14.311925,50.033386],[14.311933,50.033477],[14.311943,50.03356],[14.311973,50.033617],[14.312092,50.033655],[14.312207,50.033711],[14.312387,50.03379],[14.312579,50.03388],[14.312773,50.033961],[14.313076,50.033534],[14.313095,50.033382],[14.313134,50.033204],[14.314095,50.03358],[14.314356,50.033676],[14.314679,50.033878],[14.314144,50.034465],[14.314524,50.034599],[14.314662,50.034611],[14.314921,50.034716],[14.314752,50.03491],[14.314027,50.034682],[14.313871,50.035013],[14.312551,50.034531],[14.312765,50.03426],[14.312345,50.034113],[14.312308,50.034092],[14.312252,50.034023],[14.311913,50.034029],[14.311506,50.034084],[14.311513,50.033921],[14.31166,50.033762],[14.311822,50.033467],[14.311645,50.033442],[14.311611,50.03334],[14.311729,50.033314],[14.311725,50.033268],[14.311699,50.033193],[14.31159,50.033174],[14.311315,50.033141],[14.311315,50.033077],[14.311393,50.032848],[14.311376,50.032728],[14.311233,50.032543],[14.311029,50.032116],[14.309834,50.0323],[14.309108,50.032462],[14.308418,50.03259],[14.307239,50.032766],[14.306325,50.032884],[14.305532,50.032967],[14.304737,50.032996],[14.303907,50.032921],[14.302981,50.032775],[14.302132,50.032526],[14.300956,50.032103],[14.299713,50.031592],[14.298389,50.031001],[14.294945,50.02953],[14.293823,50.029048],[14.292461,50.028436],[14.291458,50.027992],[14.290655,50.027665],[14.290105,50.027471],[14.289275,50.027269],[14.289008,50.02719],[14.288999,50.027196],[14.288872,50.02728],[14.288747,50.027292],[14.288305,50.02752],[14.288089,50.027628],[14.288082,50.027632],[14.288068,50.027639],[14.288063,50.027641],[14.287609,50.027849],[14.287311,50.027988],[14.287222,50.02796],[14.286991,50.028105],[14.286751,50.028241],[14.286509,50.028422],[14.286454,50.02846],[14.286045,50.028737],[14.285899,50.028824],[14.285865,50.028833],[14.285849,50.028837],[14.285848,50.028842],[14.285845,50.028856],[14.28584,50.028873],[14.285812,50.028878],[14.285799,50.028881],[14.285335,50.029208],[14.285303,50.02923],[14.285089,50.029387],[14.284658,50.029731],[14.28434,50.029985],[14.283291,50.030824],[14.2831,50.030974],[14.283012,50.031038],[14.282382,50.031497],[14.2823,50.031599],[14.282246,50.031667],[14.282209,50.031714],[14.282154,50.031782],[14.282122,50.031822],[14.282112,50.031835],[14.2821,50.031849],[14.282065,50.031892],[14.282127,50.031893],[14.282242,50.031893],[14.28255,50.032091],[14.282678,50.032179],[14.28267,50.032189],[14.282778,50.032263],[14.282822,50.032292],[14.282974,50.032396],[14.2832,50.032551],[14.283252,50.032591],[14.283443,50.032756],[14.283797,50.033],[14.284031,50.03316],[14.284237,50.033302],[14.284469,50.033463],[14.284707,50.033629],[14.284942,50.033794],[14.285134,50.033925],[14.28519,50.033963],[14.285234,50.033993],[14.285423,50.034122],[14.285666,50.034286],[14.285905,50.034444],[14.286151,50.034608],[14.28639,50.034767],[14.28663,50.034935],[14.286787,50.035047],[14.286964,50.035167],[14.287105,50.035262],[14.287345,50.035423],[14.287603,50.035585],[14.287778,50.035698],[14.288135,50.035899],[14.288417,50.036044],[14.288589,50.036128],[14.288636,50.036151],[14.288642,50.036154],[14.288774,50.036218],[14.288849,50.036254],[14.289219,50.03639],[14.289658,50.03654],[14.290045,50.036651],[14.290426,50.036752],[14.290628,50.036795],[14.290818,50.036838],[14.291204,50.036912],[14.291589,50.036983],[14.291904,50.037032],[14.292309,50.037098],[14.292643,50.037155],[14.293027,50.037217],[14.293326,50.037266],[14.29359,50.03731],[14.293438,50.037343],[14.2946,50.037554],[14.295375,50.037694],[14.297513,50.038082],[14.297868,50.038147],[14.29794,50.03816],[14.298166,50.03814],[14.298299,50.038131],[14.298491,50.038178],[14.298833,50.038267],[14.299658,50.038495],[14.300076,50.038655],[14.300101,50.038664],[14.300311,50.038754],[14.300662,50.038903],[14.300681,50.038914],[14.301179,50.039177],[14.301191,50.039183],[14.301318,50.039251],[14.301364,50.039275],[14.301946,50.039795],[14.302083,50.039892],[14.302237,50.040013],[14.302459,50.040211],[14.302577,50.040304],[14.303126,50.040735],[14.303373,50.04094],[14.303586,50.041103],[14.303586,50.041112],[14.303777,50.04126],[14.304169,50.041563],[14.304349,50.041708],[14.30447,50.041796],[14.305715,50.0427],[14.30604,50.042964],[14.306343,50.043225],[14.306848,50.043712],[14.307154,50.044052],[14.307249,50.044157],[14.307499,50.044515],[14.307765,50.045152],[14.307834,50.045206],[14.307906,50.045253],[14.307955,50.045278],[14.308113,50.045142],[14.308185,50.045091],[14.308442,50.044925],[14.308447,50.04492],[14.308722,50.044733],[14.308887,50.044651],[14.309064,50.044571],[14.309286,50.04448],[14.309547,50.04438],[14.309815,50.044298],[14.310078,50.044228],[14.310351,50.044171],[14.310496,50.044144],[14.310773,50.044109],[14.311046,50.044091],[14.311331,50.044071],[14.311942,50.04406],[14.312331,50.044053],[14.312783,50.04404],[14.313033,50.044034],[14.313278,50.044015],[14.313509,50.043994],[14.313625,50.043979],[14.313829,50.04395],[14.314067,50.04391],[14.314334,50.043851],[14.314546,50.043797],[14.314869,50.043697]]]}},{"type":"Feature","properties":{"cislo":46003,"kod":38484,"mestskaCast":"praha-reporyje"},"geometry":{"type":"Polygon","coordinates":[[[14.289008,50.02719],[14.289275,50.027269],[14.290105,50.027471],[14.290655,50.027665],[14.291458,50.027992],[14.292461,50.028436],[14.293823,50.029048],[14.294945,50.02953],[14.298389,50.031001],[14.299713,50.031592],[14.300956,50.032103],[14.302132,50.032526],[14.302981,50.032775],[14.303907,50.032921],[14.304737,50.032996],[14.305532,50.032967],[14.306325,50.032884],[14.307239,50.032766],[14.308418,50.03259],[14.309108,50.032462],[14.309834,50.0323],[14.311029,50.032116],[14.311233,50.032543],[14.311376,50.032728],[14.311393,50.032848],[14.311315,50.033077],[14.311315,50.033141],[14.31159,50.033174],[14.311699,50.033193],[14.311725,50.033268],[14.311729,50.033314],[14.311841,50.033315],[14.31193,50.033296],[14.312121,50.033258],[14.312658,50.033188],[14.312596,50.033019],[14.312603,50.032984],[14.313006,50.032947],[14.313286,50.032891],[14.313548,50.03285],[14.313808,50.032756],[14.314,50.032718],[14.314213,50.032774],[14.314434,50.032794],[14.314632,50.032793],[14.314903,50.032645],[14.315096,50.032535],[14.315238,50.032466],[14.315394,50.032526],[14.316224,50.032727],[14.316278,50.032741],[14.316383,50.032778],[14.316537,50.032846],[14.316656,50.032884],[14.316913,50.032998],[14.316978,50.033022],[14.317229,50.033098],[14.317522,50.033179],[14.317654,50.033218],[14.317759,50.033255],[14.317868,50.033274],[14.317947,50.033299],[14.31804,50.033325],[14.318174,50.033356],[14.318465,50.033445],[14.318736,50.033497],[14.318775,50.033509],[14.318936,50.033551],[14.319054,50.033589],[14.319355,50.033697],[14.319539,50.033759],[14.319683,50.033808],[14.319774,50.033844],[14.319788,50.033845],[14.320024,50.03393],[14.320075,50.033952],[14.320156,50.033969],[14.320194,50.03399],[14.320206,50.034],[14.320372,50.034079],[14.320479,50.034107],[14.320599,50.034136],[14.320852,50.034204],[14.320999,50.034244],[14.321105,50.034272],[14.321333,50.034328],[14.321416,50.034336],[14.321554,50.034348],[14.321596,50.034352],[14.321852,50.034402],[14.321908,50.034407],[14.322003,50.034425],[14.322099,50.034433],[14.322378,50.034449],[14.322587,50.034459],[14.322714,50.034461],[14.322907,50.034478],[14.323061,50.034483],[14.32334,50.034499],[14.323632,50.034516],[14.324092,50.034539],[14.324398,50.034557],[14.324718,50.034577],[14.326515,50.034738],[14.327667,50.034905],[14.327722,50.034878],[14.327725,50.034877],[14.329539,50.033999],[14.330597,50.033487],[14.330683,50.033221],[14.330918,50.032725],[14.330926,50.032708],[14.330964,50.032736],[14.330975,50.032744],[14.331108,50.032842],[14.331375,50.033038],[14.331521,50.033096],[14.331969,50.033174],[14.332411,50.033276],[14.332721,50.033438],[14.332949,50.033505],[14.3331,50.033547],[14.333616,50.033674],[14.33394,50.033859],[14.334054,50.033893],[14.334148,50.033921],[14.334244,50.033949],[14.334452,50.03401],[14.334637,50.034044],[14.334792,50.034073],[14.334837,50.034097],[14.334902,50.034134],[14.334853,50.034274],[14.334964,50.034189],[14.334984,50.034179],[14.335033,50.034165],[14.335246,50.0337],[14.335272,50.03361],[14.33532,50.033437],[14.335321,50.033434],[14.335345,50.033345],[14.335403,50.03317],[14.335542,50.032909],[14.33564,50.032755],[14.335898,50.032448],[14.335821,50.032399],[14.335373,50.032205],[14.335115,50.032068],[14.335616,50.031651],[14.335638,50.031634],[14.335707,50.031665],[14.335778,50.031679],[14.335618,50.031545],[14.334852,50.031201],[14.333765,50.030783],[14.333836,50.030289],[14.333841,50.030258],[14.333842,50.030254],[14.333844,50.030243],[14.333844,50.030239],[14.333854,50.030178],[14.333907,50.030052],[14.333937,50.029985],[14.333964,50.029923],[14.334012,50.02982],[14.334021,50.029547],[14.334012,50.029336],[14.334311,50.029205],[14.334719,50.029158],[14.334928,50.02907],[14.334805,50.028939],[14.334777,50.028783],[14.334536,50.028573],[14.334529,50.028546],[14.334251,50.027987],[14.334202,50.02789],[14.333952,50.027706],[14.3339,50.027669],[14.332738,50.027268],[14.33229,50.026843],[14.332246,50.026627],[14.33275,50.025922],[14.332592,50.02578],[14.33224,50.024667],[14.33211,50.024471],[14.331984,50.023979],[14.331748,50.023687],[14.331658,50.023455],[14.330948,50.023399],[14.330903,50.022983],[14.330866,50.022906],[14.330827,50.022824],[14.330777,50.022767],[14.330563,50.022532],[14.330546,50.022514],[14.330218,50.022189],[14.330192,50.022163],[14.330111,50.022083],[14.330104,50.022083],[14.330088,50.022083],[14.330002,50.022085],[14.329979,50.022085],[14.329634,50.02209],[14.329373,50.022094],[14.329314,50.022093],[14.328795,50.02208],[14.328447,50.021322],[14.328445,50.021318],[14.326359,50.021549],[14.326351,50.021521],[14.32635,50.021518],[14.326346,50.021501],[14.326038,50.021533],[14.325765,50.021556],[14.324247,50.021583],[14.323995,50.021603],[14.32399,50.021589],[14.323987,50.02158],[14.32398,50.02156],[14.323944,50.021566],[14.323946,50.021564],[14.324177,50.021375],[14.324446,50.021121],[14.324753,50.020809],[14.324762,50.020798],[14.325056,50.020435],[14.325355,50.020067],[14.325509,50.019878],[14.325761,50.019605],[14.326221,50.019186],[14.326451,50.018944],[14.326612,50.018744],[14.32688,50.018431],[14.327152,50.018096],[14.327265,50.017993],[14.327605,50.017764],[14.327665,50.017723],[14.327748,50.017655],[14.327781,50.017629],[14.327901,50.017534],[14.327987,50.017465],[14.327992,50.017462],[14.328037,50.01739],[14.327835,50.017391],[14.327749,50.017391],[14.327747,50.017391],[14.327709,50.017391],[14.327166,50.017392],[14.327161,50.016637],[14.327161,50.016393],[14.32716,50.016339],[14.327159,50.016324],[14.327161,50.016324],[14.327163,50.016324],[14.328096,50.016322],[14.328096,50.01589],[14.328096,50.015856],[14.328096,50.015822],[14.328096,50.015817],[14.328096,50.015534],[14.328095,50.015534],[14.328095,50.015437],[14.328096,50.015437],[14.328094,50.015184],[14.328094,50.014862],[14.328094,50.014847],[14.328094,50.01468],[14.328094,50.014372],[14.328094,50.014124],[14.328094,50.014043],[14.328094,50.014007],[14.328094,50.013977],[14.328094,50.013974],[14.328094,50.013969],[14.329066,50.013965],[14.329104,50.013965],[14.32958,50.013963],[14.329524,50.013936],[14.329088,50.013752],[14.329047,50.013727],[14.328825,50.013594],[14.328798,50.013578],[14.328543,50.013341],[14.328325,50.013083],[14.327973,50.012668],[14.327287,50.011785],[14.326894,50.011279],[14.326714,50.011047],[14.326598,50.01084],[14.326553,50.01076],[14.326493,50.010653],[14.326463,50.010601],[14.32643,50.010545],[14.326201,50.010257],[14.326072,50.010094],[14.325858,50.009826],[14.325269,50.009088],[14.324456,50.009055],[14.323898,50.009005],[14.323611,50.008999],[14.323361,50.008971],[14.323019,50.008945],[14.323019,50.008889],[14.323026,50.008855],[14.323051,50.00872],[14.323059,50.008676],[14.323153,50.008169],[14.323102,50.007608],[14.323109,50.007191],[14.32311,50.007137],[14.32311,50.007101],[14.323111,50.007085],[14.323112,50.007062],[14.323131,50.006671],[14.323056,50.006448],[14.322346,50.005605],[14.321672,50.005093],[14.320332,50.004854],[14.319245,50.004714],[14.318995,50.004682],[14.319011,50.004653],[14.319414,50.003902],[14.319458,50.003583],[14.319459,50.003573],[14.319336,50.00246],[14.319323,50.002344],[14.319365,50.001575],[14.319367,50.000996],[14.319288,50.000742],[14.319183,50.000531],[14.319035,50.000237],[14.318931,49.999973],[14.318858,49.999661],[14.318853,49.999638],[14.318853,49.999636],[14.318727,49.998964],[14.318724,49.998947],[14.31872,49.998928],[14.318709,49.99888],[14.318704,49.998858],[14.318703,49.998811],[14.318706,49.998769],[14.318708,49.998754],[14.318708,49.998746],[14.318703,49.998701],[14.318701,49.998687],[14.318696,49.998652],[14.318694,49.998635],[14.318698,49.998516],[14.318474,49.998212],[14.318334,49.997859],[14.318409,49.99767],[14.318411,49.997378],[14.318478,49.996892],[14.318237,49.996111],[14.318005,49.995769],[14.317837,49.995436],[14.317871,49.995435],[14.317951,49.995434],[14.318899,49.995424],[14.319673,49.995299],[14.31995,49.995247],[14.32001,49.995264],[14.320316,49.995353],[14.320486,49.995403],[14.32051,49.99541],[14.320681,49.995459],[14.320834,49.995514],[14.321321,49.995622],[14.321538,49.99567],[14.321726,49.995745],[14.322072,49.995842],[14.322676,49.995877],[14.322889,49.995891],[14.323254,49.99566],[14.32348,49.995392],[14.323527,49.995335],[14.323572,49.995291],[14.323605,49.995259],[14.32392,49.995365],[14.324203,49.995407],[14.324541,49.995345],[14.324961,49.995112],[14.32574,49.994681],[14.325763,49.99466],[14.326028,49.99442],[14.326302,49.994175],[14.326611,49.993561],[14.326623,49.993538],[14.326643,49.993498],[14.326843,49.993555],[14.327242,49.993669],[14.328034,49.993951],[14.328104,49.993882],[14.32863,49.993968],[14.328957,49.994021],[14.328979,49.994025],[14.329121,49.994048],[14.329456,49.994238],[14.329483,49.994253],[14.329619,49.994329],[14.329999,49.994544],[14.330092,49.994596],[14.330673,49.994919],[14.330783,49.994912],[14.330884,49.994906],[14.330887,49.994905],[14.331049,49.994895],[14.331168,49.994888],[14.331215,49.994885],[14.331181,49.994785],[14.331168,49.994748],[14.331125,49.994585],[14.331256,49.994482],[14.331321,49.994449],[14.331398,49.99442],[14.331443,49.994408],[14.331549,49.994324],[14.331614,49.994223],[14.331623,49.99421],[14.331637,49.994188],[14.331915,49.994208],[14.332362,49.994361],[14.332416,49.994379],[14.332416,49.99438],[14.332535,49.994458],[14.332561,49.99441],[14.3326,49.994337],[14.332821,49.994381],[14.332828,49.994358],[14.332847,49.994295],[14.332876,49.994194],[14.332879,49.994183],[14.332889,49.99415],[14.33292,49.994043],[14.332933,49.994],[14.332977,49.993851],[14.332981,49.993836],[14.332995,49.993788],[14.333033,49.993657],[14.333036,49.993647],[14.333055,49.993585],[14.333121,49.993357],[14.333141,49.993292],[14.332959,49.993255],[14.332301,49.993061],[14.332282,49.993054],[14.332071,49.992978],[14.331955,49.992938],[14.331843,49.992904],[14.331709,49.992859],[14.331547,49.992813],[14.3315,49.992799],[14.331432,49.99278],[14.331388,49.992769],[14.331339,49.992755],[14.331041,49.992675],[14.330468,49.992471],[14.33046,49.992468],[14.330334,49.992431],[14.329708,49.992219],[14.329383,49.992114],[14.328898,49.991958],[14.328305,49.991765],[14.328246,49.991746],[14.327672,49.991547],[14.327464,49.99145],[14.327135,49.991295],[14.32701,49.991212],[14.326983,49.991195],[14.326854,49.9911],[14.326765,49.991006],[14.326743,49.991014],[14.326671,49.991041],[14.326483,49.991587],[14.326473,49.991617],[14.324757,49.991017],[14.324723,49.991005],[14.324559,49.990947],[14.321953,49.990035],[14.321603,49.989912],[14.321587,49.989907],[14.321545,49.989892],[14.32154,49.98989],[14.321529,49.989887],[14.318235,49.988931],[14.318102,49.988893],[14.317995,49.98921],[14.317905,49.989477],[14.317772,49.989711],[14.317701,49.989732],[14.317636,49.989775],[14.317498,49.989868],[14.317436,49.989894],[14.317389,49.989913],[14.317254,49.990042],[14.317236,49.990057],[14.317276,49.990123],[14.317323,49.9902],[14.317317,49.990225],[14.317337,49.990362],[14.317213,49.990546],[14.316977,49.990752],[14.316732,49.990951],[14.316606,49.991055],[14.316475,49.991163],[14.316162,49.991388],[14.315875,49.991619],[14.315588,49.991832],[14.315377,49.991976],[14.31512,49.992227],[14.31504,49.992343],[14.314864,49.992603],[14.314716,49.992809],[14.31463,49.993019],[14.314579,49.9932],[14.314496,49.993455],[14.314304,49.99379],[14.314182,49.994046],[14.314109,49.994227],[14.314001,49.994543],[14.313962,49.994783],[14.313892,49.994771],[14.313439,49.994694],[14.312728,49.994578],[14.312317,49.994501],[14.311835,49.994392],[14.311564,49.994315],[14.31103,49.994139],[14.310345,49.993911],[14.310104,49.993838],[14.309977,49.99407],[14.309872,49.994183],[14.309746,49.994313],[14.309707,49.994339],[14.30952,49.994465],[14.309036,49.994595],[14.308495,49.994744],[14.308293,49.994818],[14.307983,49.994969],[14.307884,49.995031],[14.307811,49.995096],[14.307644,49.995224],[14.307228,49.995468],[14.307599,49.996188],[14.307616,49.996196],[14.307688,49.996232],[14.307702,49.996239],[14.307608,49.996245],[14.307475,49.996233],[14.307389,49.996258],[14.307326,49.996324],[14.307259,49.996419],[14.307105,49.996608],[14.306982,49.996814],[14.306789,49.997017],[14.306637,49.997115],[14.30639,49.997199],[14.306392,49.997226],[14.306402,49.997456],[14.306372,49.997476],[14.306244,49.997556],[14.3061,49.997604],[14.306025,49.997621],[14.305924,49.997646],[14.305755,49.997659],[14.305449,49.997678],[14.30519,49.99765],[14.305068,49.997617],[14.304897,49.997619],[14.30481,49.997619],[14.304569,49.997613],[14.304408,49.997602],[14.304186,49.997583],[14.303992,49.997544],[14.303899,49.997569],[14.303794,49.997576],[14.303704,49.997574],[14.303597,49.997561],[14.303494,49.997546],[14.303441,49.99753],[14.303405,49.99752],[14.303256,49.997531],[14.303181,49.997548],[14.303098,49.997563],[14.303027,49.997567],[14.302955,49.997565],[14.302854,49.997533],[14.30281,49.997521],[14.302749,49.997513],[14.302559,49.997506],[14.302292,49.997538],[14.30222,49.997561],[14.302136,49.997569],[14.302052,49.997579],[14.301808,49.997603],[14.301591,49.997653],[14.301528,49.997669],[14.301311,49.997765],[14.301288,49.997744],[14.301211,49.997756],[14.301143,49.997762],[14.301037,49.997789],[14.300998,49.997821],[14.300882,49.998025],[14.300824,49.998084],[14.300725,49.998102],[14.300565,49.998205],[14.300565,49.998321],[14.300525,49.998376],[14.300525,49.998398],[14.300523,49.998507],[14.300526,49.998583],[14.300599,49.998685],[14.300692,49.998771],[14.300759,49.998862],[14.300848,49.998933],[14.300993,49.999058],[14.301066,49.999101],[14.30119,49.999166],[14.301278,49.999184],[14.301347,49.999227],[14.301435,49.999289],[14.301441,49.999319],[14.301642,49.999652],[14.301759,49.99973],[14.301795,49.999796],[14.301847,49.999893],[14.301839,49.999948],[14.301804,49.999954],[14.30159,49.999987],[14.301515,49.999999],[14.301492,50.000003],[14.301431,50.000033],[14.301209,50.000061],[14.301196,50.000062],[14.301002,50.000012],[14.30067,49.999955],[14.300348,49.999959],[14.299771,49.999991],[14.299662,50.000037],[14.299551,50.000222],[14.299376,50.000351],[14.299239,50.000368],[14.299107,50.000342],[14.298971,50.00036],[14.298768,50.000442],[14.298668,50.000457],[14.298451,50.000496],[14.298383,50.000504],[14.297802,50.000577],[14.297451,50.000622],[14.297342,50.000722],[14.297272,50.000765],[14.296897,50.000998],[14.296891,50.001001],[14.296688,50.001098],[14.296544,50.001166],[14.296344,50.001338],[14.296172,50.00145],[14.295922,50.001723],[14.295792,50.001817],[14.295535,50.001965],[14.295402,50.002092],[14.295118,50.00224],[14.294839,50.00221],[14.29484,50.002217],[14.294849,50.002265],[14.295732,50.002416],[14.295941,50.002472],[14.296359,50.002698],[14.296508,50.002756],[14.296684,50.002792],[14.297186,50.002838],[14.297781,50.00294],[14.297908,50.002961],[14.297926,50.002964],[14.297987,50.002975],[14.298044,50.002985],[14.298401,50.003185],[14.2985,50.003241],[14.298744,50.003481],[14.298776,50.003512],[14.298801,50.003575],[14.298888,50.003792],[14.298933,50.003906],[14.298997,50.003955],[14.299031,50.003982],[14.299106,50.00404],[14.299396,50.004143],[14.299475,50.004158],[14.299923,50.004247],[14.300095,50.004281],[14.300303,50.004323],[14.300531,50.00438],[14.30052,50.004435],[14.30045,50.0048],[14.300401,50.005179],[14.300323,50.005637],[14.300243,50.006105],[14.300181,50.006566],[14.300165,50.006846],[14.300163,50.006898],[14.300132,50.007661],[14.300134,50.00784],[14.300135,50.007941],[14.300135,50.007954],[14.300138,50.008171],[14.300184,50.009036],[14.300185,50.009046],[14.3002,50.009195],[14.300223,50.009436],[14.300253,50.009737],[14.300261,50.0098],[14.300261,50.009803],[14.300332,50.010405],[14.300383,50.01074],[14.300385,50.010753],[14.300411,50.01093],[14.300511,50.011157],[14.300542,50.011227],[14.300587,50.011332],[14.300673,50.011532],[14.300721,50.011644],[14.300794,50.011814],[14.302451,50.011393],[14.302649,50.011328],[14.30294,50.011216],[14.303066,50.011128],[14.303316,50.010896],[14.304728,50.009393],[14.305172,50.008901],[14.305397,50.008667],[14.305573,50.008525],[14.306044,50.008206],[14.306429,50.007953],[14.306826,50.007841],[14.307381,50.007636],[14.308791,50.007114],[14.309142,50.007046],[14.309646,50.007022],[14.309872,50.007002],[14.31026,50.007002],[14.310342,50.007001],[14.310774,50.006999],[14.310892,50.006995],[14.310999,50.006992],[14.311146,50.006988],[14.311153,50.006988],[14.311459,50.006978],[14.311452,50.006991],[14.31142,50.007059],[14.311405,50.00709],[14.311378,50.007147],[14.311316,50.007389],[14.311358,50.007734],[14.311381,50.008011],[14.311426,50.008249],[14.311724,50.00921],[14.311799,50.009364],[14.311936,50.009649],[14.31204,50.009864],[14.312066,50.009912],[14.312072,50.009923],[14.312251,50.010252],[14.312288,50.010321],[14.3123,50.010342],[14.312314,50.010367],[14.312579,50.0109],[14.312598,50.010939],[14.312614,50.010966],[14.312646,50.011022],[14.312654,50.011035],[14.312683,50.011101],[14.312724,50.011193],[14.312813,50.011371],[14.312819,50.011382],[14.312894,50.011521],[14.312895,50.011524],[14.312971,50.011667],[14.313052,50.01182],[14.313056,50.01182],[14.313065,50.011821],[14.313076,50.011845],[14.313087,50.011868],[14.313099,50.011891],[14.313177,50.012044],[14.313199,50.012163],[14.313192,50.012236],[14.31315,50.012309],[14.313112,50.012354],[14.313069,50.012381],[14.312965,50.012543],[14.312783,50.012693],[14.312671,50.012824],[14.312609,50.012944],[14.312621,50.012967],[14.312698,50.013114],[14.312871,50.013252],[14.313283,50.013483],[14.313724,50.013648],[14.313988,50.013748],[14.314118,50.013797],[14.31457,50.013974],[14.314698,50.014046],[14.31472,50.014082],[14.314735,50.014105],[14.314906,50.014373],[14.315013,50.01465],[14.315132,50.014985],[14.315148,50.015259],[14.315156,50.015457],[14.31516,50.015567],[14.315185,50.015797],[14.315187,50.015818],[14.315193,50.015869],[14.315223,50.016133],[14.315233,50.016219],[14.315292,50.016513],[14.315443,50.017202],[14.315529,50.017483],[14.315651,50.017736],[14.316064,50.01851],[14.316093,50.018598],[14.316537,50.019913],[14.316596,50.020316],[14.3166,50.02034],[14.316608,50.020394],[14.316675,50.020803],[14.31669,50.020953],[14.316669,50.021156],[14.316622,50.021355],[14.31642,50.022],[14.316162,50.022628],[14.316056,50.02287],[14.315956,50.023058],[14.315852,50.023166],[14.315845,50.023165],[14.315832,50.023164],[14.315778,50.023156],[14.315695,50.02314],[14.315629,50.023258],[14.315625,50.023263],[14.315666,50.023277],[14.315763,50.023309],[14.315781,50.023315],[14.315845,50.023357],[14.315863,50.023393],[14.315866,50.023399],[14.315871,50.023408],[14.315889,50.023485],[14.315872,50.023595],[14.315768,50.023619],[14.315757,50.023622],[14.315685,50.023638],[14.315674,50.02364],[14.315553,50.023668],[14.315484,50.023672],[14.314917,50.023709],[14.314029,50.023766],[14.313095,50.023825],[14.313056,50.023828],[14.312154,50.023885],[14.312123,50.023887],[14.311226,50.023945],[14.311205,50.023946],[14.310289,50.024005],[14.31024,50.024003],[14.310218,50.024002],[14.310057,50.024028],[14.310045,50.02403],[14.310004,50.024036],[14.309749,50.024033],[14.309466,50.024045],[14.309191,50.024084],[14.308889,50.02411],[14.308829,50.024134],[14.308812,50.024141],[14.308765,50.024143],[14.308049,50.02418],[14.307769,50.024192],[14.307482,50.024219],[14.307207,50.024246],[14.307041,50.024251],[14.307038,50.024257],[14.307029,50.024277],[14.306933,50.024293],[14.30694,50.024324],[14.306384,50.02435],[14.306121,50.024369],[14.305279,50.024454],[14.304731,50.024525],[14.304452,50.024527],[14.304413,50.024527],[14.304177,50.024528],[14.303615,50.024547],[14.302501,50.024583],[14.302219,50.024587],[14.301948,50.02458],[14.301879,50.024585],[14.301859,50.024587],[14.301812,50.02459],[14.301658,50.024601],[14.301597,50.024603],[14.301381,50.024611],[14.301109,50.024617],[14.300835,50.02463],[14.300531,50.024636],[14.30032,50.024649],[14.300246,50.024612],[14.300085,50.024485],[14.299969,50.024436],[14.299806,50.024391],[14.29932,50.024401],[14.299155,50.024418],[14.29912,50.02429],[14.298925,50.024093],[14.298869,50.024038],[14.2986,50.023989],[14.298541,50.023978],[14.298289,50.023969],[14.298164,50.023964],[14.298053,50.023934],[14.297971,50.023806],[14.297886,50.023675],[14.297874,50.023655],[14.297868,50.023646],[14.29786,50.023624],[14.297835,50.023553],[14.297825,50.023524],[14.297824,50.02352],[14.297743,50.023532],[14.297627,50.023548],[14.297573,50.023556],[14.297551,50.023615],[14.297545,50.023694],[14.297576,50.023907],[14.297578,50.024094],[14.297585,50.024313],[14.297594,50.024586],[14.297543,50.024595],[14.297426,50.024608],[14.297291,50.024635],[14.296913,50.024807],[14.296882,50.024821],[14.296876,50.024824],[14.296607,50.024947],[14.296469,50.024993],[14.296317,50.025033],[14.295681,50.025109],[14.295225,50.025164],[14.294941,50.025206],[14.294661,50.025253],[14.294503,50.025285],[14.294379,50.025309],[14.294146,50.025367],[14.293856,50.025471],[14.293825,50.02548],[14.293376,50.025609],[14.293088,50.025692],[14.292829,50.025761],[14.29216,50.026022],[14.291844,50.026145],[14.291609,50.026244],[14.290955,50.026418],[14.290871,50.02645],[14.290769,50.02649],[14.290755,50.026495],[14.290679,50.026486],[14.290649,50.026514],[14.290595,50.026537],[14.290291,50.026626],[14.290029,50.026717],[14.289784,50.026794],[14.289604,50.026862],[14.28955,50.026883],[14.289474,50.026913],[14.289335,50.026967],[14.289155,50.027092],[14.289015,50.027185],[14.289008,50.02719]]]}}]}
