{"type":"FeatureCollection","features":[{"type":"Feature","properties":{"cislo":40001,"kod":30371,"mestskaCast":"praha-lochkov"},"geometry":{"type":"Polygon","coordinates":[[[14.366884,50.007175],[14.367573,50.007247],[14.368247,50.00738],[14.368701,50.007449],[14.368987,50.007482],[14.369104,50.00639],[14.369152,50.005935],[14.369156,50.005896],[14.368248,50.00558],[14.368146,50.00555],[14.368112,50.00554],[14.368492,50.004585],[14.368506,50.00455],[14.36854,50.004552],[14.369823,50.004602],[14.369825,50.004602],[14.369885,50.004541],[14.369917,50.004509],[14.36994,50.004485],[14.370175,50.004249],[14.370408,50.004024],[14.370649,50.003792],[14.370867,50.003583],[14.37092,50.003532],[14.371094,50.003367],[14.371253,50.003218],[14.371408,50.003069],[14.37168,50.002815],[14.371679,50.002813],[14.371573,50.00271],[14.37138,50.002522],[14.371186,50.002317],[14.370992,50.002111],[14.370819,50.001928],[14.370678,50.001778],[14.370538,50.00163],[14.370475,50.001563],[14.370176,50.001262],[14.370004,50.001089],[14.369833,50.000917],[14.369493,50.000574],[14.369167,50.000245],[14.369087,50.000165],[14.369029,50.000106],[14.368969,50.000047],[14.368858,49.999939],[14.368851,49.999932],[14.368839,49.99992],[14.368655,49.999741],[14.368654,49.99974],[14.368614,49.999701],[14.368612,49.999699],[14.36855,49.999639],[14.368477,49.999568],[14.368437,49.999529],[14.368414,49.999504],[14.368411,49.999501],[14.368341,49.999428],[14.368283,49.999367],[14.368277,49.99936],[14.368271,49.999354],[14.36821,49.999291],[14.368144,49.999222],[14.368065,49.999139],[14.368042,49.999114],[14.368025,49.999099],[14.367966,49.999043],[14.367907,49.998987],[14.367847,49.998929],[14.367795,49.99888],[14.367744,49.998831],[14.367685,49.998775],[14.367684,49.998774],[14.367545,49.998642],[14.367489,49.998588],[14.36742,49.998517],[14.367345,49.99844],[14.367297,49.99839],[14.367281,49.998375],[14.367268,49.998361],[14.367177,49.998268],[14.367081,49.998169],[14.367066,49.998154],[14.366994,49.998079],[14.366987,49.998072],[14.366931,49.998014],[14.366676,49.997753],[14.365969,49.997065],[14.365354,49.996888],[14.365053,49.996808],[14.36463,49.996695],[14.364038,49.996556],[14.363455,49.996519],[14.362916,49.996217],[14.362308,49.995877],[14.361756,49.99546],[14.360889,49.995003],[14.360459,49.994783],[14.359467,49.994741],[14.35867,49.994767],[14.358005,49.994521],[14.35745,49.994411],[14.357047,49.994308],[14.356624,49.994098],[14.356321,49.993885],[14.355809,49.993682],[14.355103,49.993552],[14.354373,49.993356],[14.353768,49.993247],[14.3534,49.99306],[14.353378,49.992758],[14.353336,49.99254],[14.353225,49.992487],[14.35253,49.992427],[14.352341,49.992418],[14.351953,49.992402],[14.351803,49.992396],[14.351755,49.992394],[14.351441,49.992383],[14.350987,49.992443],[14.35076,49.992489],[14.350707,49.9925],[14.350692,49.992503],[14.350658,49.992508],[14.349539,49.992695],[14.348822,49.992976],[14.348778,49.993004],[14.348723,49.99307],[14.348763,49.993173],[14.348812,49.993235],[14.348979,49.993445],[14.348956,49.993532],[14.348876,49.993612],[14.348706,49.993699],[14.348375,49.993754],[14.348292,49.993865],[14.348383,49.99396],[14.348344,49.993972],[14.348168,49.993934],[14.348105,49.99392],[14.347743,49.994005],[14.347581,49.994151],[14.34752,49.994206],[14.347518,49.994208],[14.347318,49.99442],[14.347887,49.994782],[14.347861,49.994902],[14.347709,49.994951],[14.347813,49.995042],[14.348235,49.995407],[14.348527,49.995442],[14.348619,49.995497],[14.348895,49.99566],[14.349043,49.996116],[14.349255,49.996608],[14.349674,49.997619],[14.349904,49.997687],[14.349903,49.998017],[14.349903,49.998088],[14.349906,49.998155],[14.349908,49.9982],[14.349761,49.998138],[14.349595,49.998069],[14.349512,49.998056],[14.349225,49.99801],[14.348849,49.997987],[14.348488,49.997962],[14.347958,49.997694],[14.347687,49.997612],[14.347564,49.997667],[14.34742,49.997782],[14.347223,49.997712],[14.347026,49.997718],[14.346894,49.997758],[14.346845,49.997818],[14.346981,49.997936],[14.347145,49.998032],[14.347213,49.998147],[14.347136,49.998202],[14.346982,49.998194],[14.346863,49.998238],[14.346826,49.99833],[14.346815,49.998358],[14.346698,49.998361],[14.346574,49.998529],[14.346536,49.998549],[14.346461,49.998534],[14.346404,49.998522],[14.346148,49.998514],[14.345763,49.998427],[14.345672,49.998416],[14.345301,49.998369],[14.344996,49.99833],[14.344887,49.998316],[14.344461,49.998262],[14.344135,49.998289],[14.343673,49.99837],[14.343322,49.99842],[14.342717,49.998571],[14.342653,49.998559],[14.341874,49.998435],[14.341785,49.998419],[14.341417,49.998254],[14.341392,49.998243],[14.341301,49.998202],[14.3412,49.998157],[14.340899,49.99858],[14.340833,49.998673],[14.340788,49.998888],[14.340746,49.998904],[14.340682,49.998928],[14.340599,49.99896],[14.340685,49.999052],[14.340881,49.999288],[14.341037,49.999649],[14.341089,49.999739],[14.341191,49.999917],[14.341224,49.999975],[14.341338,50.000102],[14.341397,50.000168],[14.341525,50.000311],[14.340187,50.001497],[14.339462,50.001597],[14.339369,50.001613],[14.339308,50.001655],[14.339172,50.001748],[14.339101,50.001768],[14.338531,50.001925],[14.338452,50.001947],[14.338396,50.001962],[14.338254,50.002059],[14.338061,50.002207],[14.338052,50.002214],[14.338045,50.002246],[14.337937,50.002757],[14.337944,50.002797],[14.337949,50.002827],[14.337964,50.002914],[14.338128,50.003876],[14.338147,50.003965],[14.338166,50.004052],[14.338236,50.004381],[14.338265,50.004517],[14.33828,50.00459],[14.338327,50.004713],[14.338335,50.004733],[14.338581,50.005137],[14.338802,50.005338],[14.33902,50.005455],[14.339072,50.005499],[14.339139,50.005556],[14.339279,50.005654],[14.339353,50.005704],[14.33995,50.00611],[14.339959,50.006116],[14.340227,50.006299],[14.340239,50.006306],[14.340765,50.006701],[14.340779,50.006711],[14.340855,50.006756],[14.340952,50.006813],[14.341021,50.006854],[14.341039,50.006864],[14.341059,50.006876],[14.341078,50.006888],[14.341458,50.007112],[14.341519,50.007148],[14.341616,50.007206],[14.341653,50.007228],[14.342003,50.007393],[14.342046,50.007413],[14.342406,50.007624],[14.342717,50.007762],[14.342717,50.007762],[14.342733,50.007769],[14.342757,50.007778],[14.34307,50.007603],[14.343135,50.007553],[14.34337,50.007375],[14.343856,50.007006],[14.343918,50.007016],[14.343926,50.007018],[14.343943,50.007021],[14.343998,50.00703],[14.34619,50.0074],[14.347909,50.007689],[14.348136,50.007728],[14.349627,50.007979],[14.350171,50.008071],[14.350553,50.008135],[14.350856,50.008186],[14.35119,50.008223],[14.351261,50.008231],[14.351799,50.008291],[14.351928,50.008309],[14.352917,50.00845],[14.353215,50.0085],[14.353813,50.008601],[14.353981,50.008629],[14.354829,50.008772],[14.356285,50.009017],[14.356741,50.00904],[14.35676,50.009036],[14.356804,50.009029],[14.356887,50.009017],[14.356915,50.009013],[14.356908,50.008533],[14.356868,50.007679],[14.356824,50.007442],[14.356804,50.007357],[14.356802,50.007349],[14.356781,50.007254],[14.35678,50.007253],[14.356777,50.00724],[14.356646,50.006664],[14.356546,50.006363],[14.356535,50.006329],[14.356549,50.006329],[14.356577,50.006328],[14.358205,50.006275],[14.359832,50.006222],[14.359909,50.00622],[14.359919,50.006219],[14.359924,50.006219],[14.360044,50.006215],[14.360051,50.006215],[14.360073,50.006214],[14.360108,50.006213],[14.360122,50.006215],[14.362765,50.00659],[14.363985,50.006763],[14.364271,50.006804],[14.364812,50.006881],[14.366744,50.007155],[14.366884,50.007175]]]}}]}
