{"type":"FeatureCollection","features":[{"type":"Feature","properties":{"cislo":21001,"kod":30633,"mestskaCast":"praha-21"},"geometry":{"type":"Polygon","coordinates":[[[14.658791,50.086708],[14.658791,50.086708],[14.658791,50.086707],[14.656917,50.082989],[14.65688,50.082895],[14.656781,50.082696],[14.656631,50.082401],[14.65643,50.082012],[14.656402,50.081946],[14.656351,50.081851],[14.656193,50.081529],[14.655883,50.080921],[14.655775,50.080694],[14.655724,50.080599],[14.654525,50.08074],[14.653613,50.080852],[14.653106,50.080917],[14.652714,50.080974],[14.652321,50.081031],[14.652088,50.081065],[14.651897,50.081103],[14.651734,50.081143],[14.651629,50.08117],[14.651259,50.081256],[14.650948,50.081329],[14.650565,50.081405],[14.650021,50.081512],[14.649595,50.081593],[14.649394,50.081612],[14.649096,50.081622],[14.648954,50.081628],[14.64886,50.081602],[14.64886,50.081538],[14.648861,50.081466],[14.648843,50.081347],[14.648812,50.081226],[14.64871,50.080972],[14.648667,50.080841],[14.64859,50.080671],[14.648447,50.080342],[14.648439,50.080314],[14.648332,50.080014],[14.648004,50.079224],[14.647943,50.079046],[14.647749,50.078557],[14.647686,50.078452],[14.646974,50.078554],[14.645581,50.078742],[14.645305,50.078781],[14.645219,50.078792],[14.64439,50.078911],[14.643854,50.078982],[14.642911,50.079109],[14.641751,50.079263],[14.640708,50.079327],[14.640707,50.079324],[14.64052,50.079349],[14.640516,50.079349],[14.638858,50.079566],[14.637854,50.079695],[14.637733,50.079711],[14.636041,50.0799],[14.635078,50.080008],[14.63499,50.080018],[14.634994,50.080032],[14.634995,50.080038],[14.635001,50.080061],[14.63502,50.080132],[14.63503,50.08017],[14.635053,50.080259],[14.634926,50.081101],[14.634918,50.081133],[14.634735,50.081925],[14.63446,50.082258],[14.634457,50.082434],[14.634457,50.082457],[14.634458,50.082478],[14.634461,50.082524],[14.634463,50.082554],[14.634739,50.082734],[14.634746,50.082738],[14.634806,50.08277],[14.634863,50.082801],[14.635043,50.082897],[14.636023,50.083363],[14.636617,50.083717],[14.636905,50.083888],[14.636907,50.083889],[14.636883,50.083945],[14.636838,50.084051],[14.636829,50.084072],[14.637101,50.084118],[14.637204,50.084135],[14.637462,50.084178],[14.637416,50.08421],[14.63732,50.084278],[14.637194,50.084366],[14.637042,50.084474],[14.63704,50.08449],[14.637039,50.084498],[14.63702,50.084635],[14.637013,50.084686],[14.636863,50.08485],[14.636821,50.084896],[14.636762,50.084961],[14.636992,50.08498],[14.637858,50.085053],[14.638527,50.085093],[14.639006,50.085122],[14.641308,50.08527],[14.641328,50.085271],[14.641526,50.085289],[14.641858,50.085319],[14.643781,50.085492],[14.646326,50.085697],[14.647249,50.085797],[14.650811,50.086054],[14.652915,50.086229],[14.655019,50.086405],[14.658615,50.086695],[14.658791,50.086708]]]}},{"type":"Feature","properties":{"cislo":21002,"kod":30635,"mestskaCast":"praha-21"},"geometry":{"type":"Polygon","coordinates":[[[14.655724,50.080599],[14.655402,50.079646],[14.65518,50.079019],[14.655122,50.078896],[14.655028,50.07867],[14.654902,50.07826],[14.654763,50.077912],[14.654651,50.07764],[14.654643,50.077612],[14.654541,50.077358],[14.654467,50.077306],[14.655068,50.077195],[14.655346,50.077146],[14.655537,50.077109],[14.655002,50.076164],[14.65469,50.075629],[14.654309,50.075025],[14.653751,50.074051],[14.652689,50.074413],[14.652368,50.07453],[14.651362,50.074897],[14.65095,50.075042],[14.650754,50.075107],[14.649843,50.075418],[14.649146,50.075648],[14.648385,50.075918],[14.647763,50.076127],[14.64676,50.076476],[14.646699,50.076498],[14.646638,50.07652],[14.646572,50.076432],[14.646455,50.07625],[14.646169,50.075862],[14.645771,50.075274],[14.645718,50.075188],[14.645567,50.074966],[14.645459,50.074812],[14.645406,50.074726],[14.645407,50.074653],[14.645367,50.074577],[14.64502,50.07374],[14.644972,50.073636],[14.644891,50.073547],[14.644755,50.073254],[14.644555,50.072865],[14.644312,50.072408],[14.644097,50.07209],[14.643814,50.071757],[14.64378,50.071718],[14.643517,50.071423],[14.643321,50.071216],[14.64328,50.07115],[14.64326,50.071159],[14.643178,50.071187],[14.643048,50.071297],[14.642279,50.071597],[14.64217,50.071638],[14.641794,50.071778],[14.641593,50.071852],[14.641388,50.071892],[14.641353,50.071898],[14.640753,50.071969],[14.640716,50.071973],[14.640504,50.072013],[14.640217,50.072103],[14.639893,50.072229],[14.639338,50.072482],[14.639347,50.072493],[14.63937,50.072521],[14.639685,50.072903],[14.639767,50.073083],[14.640064,50.07302],[14.640173,50.073009],[14.640516,50.072868],[14.640673,50.072804],[14.641073,50.072675],[14.641337,50.072913],[14.641429,50.073027],[14.641665,50.07353],[14.641732,50.073702],[14.64182,50.073928],[14.641848,50.074025],[14.641805,50.074151],[14.641424,50.074654],[14.641329,50.074819],[14.641282,50.075054],[14.641256,50.075185],[14.641275,50.075288],[14.641319,50.075529],[14.641401,50.07605],[14.641395,50.076158],[14.641379,50.076439],[14.64137,50.076588],[14.641349,50.076717],[14.641312,50.076947],[14.641299,50.077028],[14.641276,50.077318],[14.641252,50.077638],[14.641227,50.077963],[14.641214,50.078143],[14.641212,50.078162],[14.641203,50.078338],[14.641164,50.079126],[14.640891,50.079207],[14.640755,50.079267],[14.640698,50.079293],[14.640712,50.079323],[14.640707,50.079324],[14.640708,50.079327],[14.641751,50.079263],[14.642911,50.079109],[14.643854,50.078982],[14.64439,50.078911],[14.645219,50.078792],[14.645305,50.078781],[14.645581,50.078742],[14.646974,50.078554],[14.647686,50.078452],[14.647749,50.078557],[14.647943,50.079046],[14.648004,50.079224],[14.648332,50.080014],[14.648439,50.080314],[14.648447,50.080342],[14.64859,50.080671],[14.648667,50.080841],[14.64871,50.080972],[14.648812,50.081226],[14.648843,50.081347],[14.648861,50.081466],[14.64886,50.081538],[14.64886,50.081602],[14.648954,50.081628],[14.649096,50.081622],[14.649394,50.081612],[14.649595,50.081593],[14.650021,50.081512],[14.650565,50.081405],[14.650948,50.081329],[14.651259,50.081256],[14.651629,50.08117],[14.651734,50.081143],[14.651897,50.081103],[14.652088,50.081065],[14.652321,50.081031],[14.652714,50.080974],[14.653106,50.080917],[14.653613,50.080852],[14.654525,50.08074],[14.655724,50.080599]]]}},{"type":"Feature","properties":{"cislo":21003,"kod":30637,"mestskaCast":"praha-21"},"geometry":{"type":"Polygon","coordinates":[[[14.655724,50.080599],[14.655775,50.080694],[14.655883,50.080921],[14.656193,50.081529],[14.656351,50.081851],[14.656402,50.081946],[14.65643,50.082012],[14.656631,50.082401],[14.656781,50.082696],[14.65688,50.082895],[14.656917,50.082989],[14.658791,50.086707],[14.658791,50.086708],[14.658791,50.086708],[14.662148,50.086965],[14.664509,50.08714],[14.664764,50.087159],[14.665237,50.087195],[14.665229,50.087172],[14.665349,50.087159],[14.66539,50.087209],[14.667585,50.087352],[14.66962,50.087452],[14.670212,50.087436],[14.670212,50.087436],[14.669988,50.086903],[14.666751,50.079375],[14.666443,50.078686],[14.666413,50.078629],[14.666289,50.078347],[14.666084,50.077839],[14.666046,50.077754],[14.665911,50.077452],[14.665859,50.077366],[14.665657,50.076913],[14.665439,50.076404],[14.665204,50.075912],[14.665147,50.07578],[14.665091,50.075576],[14.665092,50.075567],[14.665066,50.075356],[14.664701,50.075415],[14.664783,50.075295],[14.664785,50.075286],[14.664925,50.075017],[14.665035,50.074827],[14.665082,50.07474],[14.665144,50.074646],[14.665226,50.074454],[14.665321,50.074271],[14.665426,50.074035],[14.665489,50.073869],[14.665573,50.073667],[14.6656,50.073542],[14.665683,50.073005],[14.665733,50.072701],[14.665736,50.07262],[14.665763,50.072286],[14.665769,50.072124],[14.665807,50.071737],[14.665849,50.071468],[14.665869,50.071307],[14.665895,50.071046],[14.665914,50.070821],[14.665918,50.070667],[14.664737,50.070855],[14.664634,50.070873],[14.664616,50.070963],[14.664591,50.071078],[14.664567,50.071194],[14.664525,50.071263],[14.664448,50.071293],[14.664073,50.071333],[14.663702,50.071355],[14.663114,50.071404],[14.662911,50.071432],[14.662552,50.071465],[14.662248,50.071502],[14.661946,50.07153],[14.661443,50.071577],[14.661168,50.071608],[14.660709,50.07165],[14.66048,50.071666],[14.660292,50.071687],[14.659874,50.071732],[14.659744,50.071748],[14.659799,50.072361],[14.65983,50.072617],[14.659829,50.07269],[14.659462,50.072758],[14.659401,50.07278],[14.659365,50.072822],[14.659374,50.072913],[14.6594,50.073124],[14.659463,50.073565],[14.659473,50.07372],[14.659518,50.073842],[14.659673,50.074246],[14.659854,50.074733],[14.659899,50.074855],[14.660104,50.074818],[14.66031,50.074773],[14.660578,50.075313],[14.66069,50.075522],[14.660789,50.075721],[14.660875,50.075919],[14.660978,50.0761],[14.660404,50.076214],[14.659935,50.0763],[14.65973,50.076337],[14.659423,50.076392],[14.659245,50.076431],[14.65907,50.076462],[14.658806,50.076511],[14.658484,50.076565],[14.6574,50.076762],[14.656623,50.076903],[14.656138,50.076997],[14.655537,50.077109],[14.655346,50.077146],[14.655068,50.077195],[14.654467,50.077306],[14.654541,50.077358],[14.654643,50.077612],[14.654651,50.07764],[14.654763,50.077912],[14.654902,50.07826],[14.655028,50.07867],[14.655122,50.078896],[14.65518,50.079019],[14.655402,50.079646],[14.655724,50.080599]]]}},{"type":"Feature","properties":{"cislo":21004,"kod":30639,"mestskaCast":"praha-21"},"geometry":{"type":"Polygon","coordinates":[[[14.689722,50.096021],[14.690085,50.095911],[14.690531,50.095803],[14.691146,50.095683],[14.691521,50.095648],[14.692079,50.095566],[14.692692,50.09546],[14.693195,50.095126],[14.693398,50.094958],[14.693505,50.094862],[14.693759,50.094699],[14.693921,50.094619],[14.694,50.094562],[14.694037,50.094535],[14.694082,50.094502],[14.694195,50.094286],[14.694645,50.094303],[14.695444,50.094408],[14.69579,50.094382],[14.696129,50.094331],[14.696481,50.094217],[14.696788,50.0941],[14.697181,50.093901],[14.697841,50.093673],[14.698404,50.093414],[14.698661,50.09333],[14.698926,50.093258],[14.698961,50.093248],[14.699394,50.09313],[14.699786,50.092989],[14.700113,50.092916],[14.700326,50.092835],[14.701117,50.092619],[14.70155,50.09248],[14.701608,50.092464],[14.701662,50.092449],[14.702592,50.092186],[14.70303,50.092016],[14.70313,50.091972],[14.703249,50.091928],[14.703918,50.091742],[14.704693,50.091037],[14.704731,50.090904],[14.704739,50.090877],[14.704742,50.090866],[14.705099,50.090684],[14.705347,50.090171],[14.705295,50.089783],[14.705272,50.089334],[14.70537,50.088849],[14.70533,50.088338],[14.705328,50.088313],[14.705328,50.088304],[14.706039,50.087481],[14.706055,50.087462],[14.706104,50.087405],[14.706114,50.087399],[14.70615,50.087379],[14.706185,50.08736],[14.706788,50.087019],[14.706061,50.085261],[14.70605,50.085234],[14.706043,50.085217],[14.705196,50.082894],[14.705083,50.082649],[14.705057,50.082592],[14.70504,50.082557],[14.705024,50.082522],[14.705014,50.0825],[14.70498,50.082426],[14.704903,50.082233],[14.704895,50.082211],[14.704412,50.081003],[14.704406,50.080987],[14.703946,50.07982],[14.703937,50.079798],[14.703925,50.079767],[14.703189,50.07799],[14.70318,50.077969],[14.702593,50.07655],[14.701798,50.076567],[14.701757,50.076568],[14.701615,50.076212],[14.7016,50.076173],[14.700673,50.073854],[14.700614,50.073712],[14.700595,50.073663],[14.700102,50.07246],[14.700031,50.072288],[14.700021,50.072246],[14.700004,50.072175],[14.7,50.072158],[14.699993,50.072129],[14.699522,50.07212],[14.698705,50.072086],[14.698371,50.07207],[14.697847,50.072036],[14.697093,50.071989],[14.696741,50.071966],[14.696635,50.07196],[14.696614,50.071959],[14.696341,50.071952],[14.696022,50.071944],[14.695126,50.071893],[14.694307,50.071856],[14.693444,50.071832],[14.693133,50.071842],[14.692213,50.071912],[14.691431,50.07198],[14.690864,50.072018],[14.690865,50.072022],[14.689544,50.072207],[14.685086,50.07263],[14.684784,50.072659],[14.683879,50.072744],[14.683778,50.072753],[14.682945,50.072827],[14.682182,50.072906],[14.681793,50.072945],[14.681692,50.072954],[14.681205,50.072994],[14.680889,50.073021],[14.680571,50.073057],[14.680386,50.073069],[14.679091,50.073193],[14.678229,50.073272],[14.678028,50.073291],[14.67784,50.073311],[14.677684,50.073316],[14.676992,50.073392],[14.676548,50.073427],[14.676031,50.073473],[14.675194,50.073564],[14.674559,50.073636],[14.674354,50.073673],[14.673656,50.073776],[14.673202,50.073855],[14.673143,50.073868],[14.67203,50.074071],[14.671531,50.074164],[14.670518,50.074357],[14.668571,50.074706],[14.66728,50.074949],[14.665784,50.075228],[14.665066,50.075356],[14.665092,50.075567],[14.665091,50.075576],[14.665147,50.07578],[14.665204,50.075912],[14.665439,50.076404],[14.665657,50.076913],[14.665859,50.077366],[14.665911,50.077452],[14.666046,50.077754],[14.666084,50.077839],[14.666289,50.078347],[14.666413,50.078629],[14.666443,50.078686],[14.666751,50.079375],[14.669988,50.086903],[14.670212,50.087436],[14.670212,50.087436],[14.671885,50.087392],[14.673292,50.087289],[14.676719,50.086797],[14.680053,50.086282],[14.683089,50.085796],[14.685324,50.085439],[14.685347,50.085435],[14.685466,50.085415],[14.685501,50.085409],[14.685796,50.085363],[14.68582,50.085432],[14.685832,50.085468],[14.685844,50.085504],[14.68587,50.08558],[14.685971,50.085877],[14.685708,50.085922],[14.685727,50.085977],[14.686179,50.087161],[14.686726,50.08849],[14.686752,50.088552],[14.687296,50.089942],[14.687396,50.090195],[14.687407,50.090223],[14.687873,50.091398],[14.687883,50.091423],[14.687889,50.091439],[14.687894,50.091451],[14.688408,50.092717],[14.688835,50.093762],[14.689326,50.094977],[14.689722,50.096021]]]}},{"type":"Feature","properties":{"cislo":21005,"kod":30641,"mestskaCast":"praha-21"},"geometry":{"type":"Polygon","coordinates":[[[14.64328,50.07115],[14.643321,50.071216],[14.643517,50.071423],[14.64378,50.071718],[14.643814,50.071757],[14.644097,50.07209],[14.644312,50.072408],[14.644555,50.072865],[14.644755,50.073254],[14.644891,50.073547],[14.644972,50.073636],[14.64502,50.07374],[14.645367,50.074577],[14.645407,50.074653],[14.645406,50.074726],[14.645459,50.074812],[14.645567,50.074966],[14.645718,50.075188],[14.645771,50.075274],[14.646169,50.075862],[14.646455,50.07625],[14.646572,50.076432],[14.646638,50.07652],[14.646699,50.076498],[14.64676,50.076476],[14.647763,50.076127],[14.648385,50.075918],[14.649146,50.075648],[14.649843,50.075418],[14.650754,50.075107],[14.65095,50.075042],[14.651362,50.074897],[14.652368,50.07453],[14.652689,50.074413],[14.653751,50.074051],[14.654309,50.075025],[14.65469,50.075629],[14.655002,50.076164],[14.655537,50.077109],[14.656138,50.076997],[14.656623,50.076903],[14.6574,50.076762],[14.658484,50.076565],[14.658806,50.076511],[14.65907,50.076462],[14.659245,50.076431],[14.659423,50.076392],[14.65973,50.076337],[14.659935,50.0763],[14.660404,50.076214],[14.660978,50.0761],[14.660875,50.075919],[14.660789,50.075721],[14.66069,50.075522],[14.660578,50.075313],[14.66031,50.074773],[14.660104,50.074818],[14.659899,50.074855],[14.659854,50.074733],[14.659673,50.074246],[14.659518,50.073842],[14.659473,50.07372],[14.659463,50.073565],[14.6594,50.073124],[14.659374,50.072913],[14.659365,50.072822],[14.659401,50.07278],[14.659462,50.072758],[14.659829,50.07269],[14.65983,50.072617],[14.659799,50.072361],[14.659744,50.071748],[14.659874,50.071732],[14.660292,50.071687],[14.66048,50.071666],[14.660709,50.07165],[14.661168,50.071608],[14.661443,50.071577],[14.661946,50.07153],[14.662248,50.071502],[14.662552,50.071465],[14.662911,50.071432],[14.663114,50.071404],[14.663702,50.071355],[14.664073,50.071333],[14.664448,50.071293],[14.664525,50.071263],[14.664567,50.071194],[14.664591,50.071078],[14.664616,50.070963],[14.664634,50.070873],[14.664737,50.070855],[14.665918,50.070667],[14.665926,50.070287],[14.665917,50.069996],[14.665921,50.069905],[14.665893,50.069703],[14.665878,50.069575],[14.665803,50.068988],[14.665779,50.068695],[14.665782,50.068142],[14.665814,50.067719],[14.665857,50.067514],[14.666126,50.066693],[14.666336,50.066095],[14.666353,50.066014],[14.666417,50.065775],[14.666519,50.065421],[14.666552,50.06526],[14.666573,50.065226],[14.666627,50.064968],[14.666647,50.064806],[14.666672,50.064618],[14.666681,50.06451],[14.666675,50.064264],[14.666675,50.064201],[14.666677,50.06392],[14.666682,50.063893],[14.666682,50.063829],[14.666685,50.063814],[14.666685,50.063814],[14.666639,50.063808],[14.666586,50.063801],[14.666563,50.0638],[14.666335,50.063787],[14.66622,50.063766],[14.665757,50.063681],[14.665659,50.063663],[14.66562,50.063656],[14.665613,50.063654],[14.665265,50.063585],[14.66476,50.063457],[14.664388,50.063366],[14.664219,50.063325],[14.664053,50.063284],[14.663762,50.063233],[14.663541,50.063194],[14.663295,50.063175],[14.66295,50.063148],[14.662891,50.063145],[14.662859,50.063143],[14.662796,50.06314],[14.662416,50.063122],[14.66223,50.06311],[14.661795,50.063084],[14.661725,50.063066],[14.661493,50.06301],[14.661326,50.062952],[14.661113,50.062879],[14.661021,50.062848],[14.660932,50.062821],[14.660804,50.062784],[14.660622,50.062742],[14.660607,50.06275],[14.660246,50.062954],[14.659967,50.063185],[14.659328,50.063582],[14.658922,50.063835],[14.658656,50.06408],[14.658614,50.064054],[14.658525,50.064124],[14.658319,50.064339],[14.657862,50.06478],[14.65783,50.064819],[14.657668,50.065014],[14.657486,50.065261],[14.657289,50.065426],[14.657275,50.065437],[14.657253,50.065456],[14.657061,50.06558],[14.656944,50.065655],[14.656851,50.065707],[14.65664,50.065826],[14.656508,50.066068],[14.656262,50.066279],[14.656175,50.066339],[14.655956,50.066494],[14.655751,50.066605],[14.655429,50.066683],[14.655311,50.066796],[14.655096,50.067003],[14.654932,50.06716],[14.654853,50.067364],[14.65461,50.067552],[14.654346,50.067715],[14.654,50.067865],[14.65365,50.068012],[14.653366,50.068144],[14.653088,50.068256],[14.652834,50.068374],[14.652706,50.068433],[14.652667,50.068461],[14.652525,50.068559],[14.652232,50.068762],[14.651851,50.069001],[14.651815,50.069027],[14.651602,50.069176],[14.651252,50.069417],[14.651077,50.069515],[14.650919,50.069604],[14.650882,50.069627],[14.650848,50.069646],[14.650699,50.06973],[14.650563,50.069807],[14.650246,50.069986],[14.65028,50.070029],[14.650309,50.070068],[14.650277,50.07008],[14.65026,50.070086],[14.650189,50.070113],[14.650168,50.070121],[14.65015,50.070127],[14.647854,50.070215],[14.646878,50.070225],[14.646234,50.070202],[14.645769,50.070178],[14.645409,50.070274],[14.644446,50.070687],[14.64441,50.070703],[14.643993,50.070878],[14.643864,50.070933],[14.643407,50.071084],[14.64334,50.07112],[14.643302,50.07114],[14.64328,50.07115]]]}},{"type":"Feature","properties":{"cislo":21006,"kod":30643,"mestskaCast":"praha-21"},"geometry":{"type":"Polygon","coordinates":[[[14.665066,50.075356],[14.665784,50.075228],[14.66728,50.074949],[14.668571,50.074706],[14.670518,50.074357],[14.671531,50.074164],[14.67203,50.074071],[14.673143,50.073868],[14.673202,50.073855],[14.673656,50.073776],[14.674354,50.073673],[14.674559,50.073636],[14.675194,50.073564],[14.676031,50.073473],[14.676548,50.073427],[14.676992,50.073392],[14.677684,50.073316],[14.67784,50.073311],[14.678028,50.073291],[14.678229,50.073272],[14.679091,50.073193],[14.680386,50.073069],[14.680571,50.073057],[14.68045,50.072965],[14.680234,50.072783],[14.679728,50.072368],[14.679545,50.072234],[14.678831,50.071687],[14.678286,50.071349],[14.67807,50.071233],[14.677997,50.071184],[14.677836,50.071081],[14.677259,50.070751],[14.676184,50.070142],[14.675954,50.069999],[14.675639,50.069844],[14.675324,50.069678],[14.673,50.06838],[14.67286,50.068276],[14.67203,50.067618],[14.671645,50.067281],[14.671526,50.067161],[14.671422,50.067029],[14.671295,50.066837],[14.67117,50.066636],[14.670975,50.066322],[14.670809,50.066074],[14.670749,50.066013],[14.670644,50.065884],[14.670634,50.065879],[14.670504,50.06582],[14.67026,50.065702],[14.670236,50.06569],[14.670179,50.065662],[14.670082,50.065617],[14.669802,50.065487],[14.669697,50.065438],[14.669575,50.065367],[14.669486,50.065316],[14.669404,50.065273],[14.66936,50.06525],[14.669204,50.065168],[14.669178,50.065154],[14.669039,50.065081],[14.669033,50.065078],[14.668879,50.064997],[14.668847,50.064976],[14.668559,50.064783],[14.668229,50.064563],[14.668192,50.064539],[14.668159,50.064517],[14.667894,50.064327],[14.66774,50.064217],[14.667483,50.064033],[14.667437,50.064],[14.667314,50.063912],[14.667137,50.063785],[14.667023,50.063861],[14.666876,50.063841],[14.666763,50.063825],[14.666748,50.063823],[14.666685,50.063814],[14.666685,50.063814],[14.666682,50.063829],[14.666682,50.063893],[14.666677,50.06392],[14.666675,50.064201],[14.666675,50.064264],[14.666681,50.06451],[14.666672,50.064618],[14.666647,50.064806],[14.666627,50.064968],[14.666573,50.065226],[14.666552,50.06526],[14.666519,50.065421],[14.666417,50.065775],[14.666353,50.066014],[14.666336,50.066095],[14.666126,50.066693],[14.665857,50.067514],[14.665814,50.067719],[14.665782,50.068142],[14.665779,50.068695],[14.665803,50.068988],[14.665878,50.069575],[14.665893,50.069703],[14.665921,50.069905],[14.665917,50.069996],[14.665926,50.070287],[14.665918,50.070667],[14.665914,50.070821],[14.665895,50.071046],[14.665869,50.071307],[14.665849,50.071468],[14.665807,50.071737],[14.665769,50.072124],[14.665763,50.072286],[14.665736,50.07262],[14.665733,50.072701],[14.665683,50.073005],[14.6656,50.073542],[14.665573,50.073667],[14.665489,50.073869],[14.665426,50.074035],[14.665321,50.074271],[14.665226,50.074454],[14.665144,50.074646],[14.665082,50.07474],[14.665035,50.074827],[14.664925,50.075017],[14.664785,50.075286],[14.664783,50.075295],[14.664701,50.075415],[14.665066,50.075356]]]}},{"type":"Feature","properties":{"cislo":21007,"kod":30645,"mestskaCast":"praha-21"},"geometry":{"type":"Polygon","coordinates":[[[14.679545,50.072234],[14.680417,50.070958],[14.680866,50.069817],[14.680889,50.069774],[14.681129,50.069091],[14.681065,50.069088],[14.680812,50.069077],[14.68068,50.06907],[14.680547,50.069064],[14.680205,50.069048],[14.680024,50.06904],[14.679908,50.069097],[14.678819,50.068628],[14.678008,50.068331],[14.677781,50.068245],[14.677408,50.068105],[14.677185,50.067967],[14.676864,50.068109],[14.676693,50.068185],[14.676318,50.06806],[14.675625,50.067753],[14.675276,50.067648],[14.675077,50.067596],[14.674967,50.067568],[14.674851,50.067562],[14.674766,50.067558],[14.674519,50.067465],[14.674052,50.067284],[14.67377,50.067171],[14.673385,50.067045],[14.673233,50.066992],[14.673024,50.066918],[14.672539,50.066697],[14.671782,50.06639],[14.671751,50.066377],[14.671673,50.066344],[14.671116,50.066107],[14.670838,50.065988],[14.670767,50.065945],[14.670644,50.065884],[14.670749,50.066013],[14.670809,50.066074],[14.670975,50.066322],[14.67117,50.066636],[14.671295,50.066837],[14.671422,50.067029],[14.671526,50.067161],[14.671645,50.067281],[14.67203,50.067618],[14.67286,50.068276],[14.673,50.06838],[14.675324,50.069678],[14.675639,50.069844],[14.675954,50.069999],[14.676184,50.070142],[14.677259,50.070751],[14.677836,50.071081],[14.677997,50.071184],[14.67807,50.071233],[14.678286,50.071349],[14.678831,50.071687],[14.679545,50.072234]]]}},{"type":"Feature","properties":{"cislo":21008,"kod":30647,"mestskaCast":"praha-21"},"geometry":{"type":"Polygon","coordinates":[[[14.679545,50.072234],[14.679728,50.072368],[14.680234,50.072783],[14.68045,50.072965],[14.680571,50.073057],[14.680889,50.073021],[14.681205,50.072994],[14.681692,50.072954],[14.681793,50.072945],[14.682182,50.072906],[14.682945,50.072827],[14.683778,50.072753],[14.683879,50.072744],[14.684784,50.072659],[14.685086,50.07263],[14.689544,50.072207],[14.690865,50.072022],[14.690864,50.072018],[14.690862,50.072018],[14.690191,50.071716],[14.689529,50.07142],[14.689312,50.071322],[14.689236,50.071274],[14.689223,50.071266],[14.689215,50.071258],[14.689138,50.071181],[14.689088,50.071167],[14.688982,50.071137],[14.688523,50.07101],[14.688123,50.070898],[14.688072,50.070884],[14.687953,50.070851],[14.687845,50.070821],[14.68776,50.070797],[14.685836,50.070261],[14.685761,50.070239],[14.685691,50.070218],[14.685612,50.070195],[14.683665,50.069619],[14.683608,50.069602],[14.683408,50.069669],[14.682787,50.069327],[14.682654,50.069291],[14.682412,50.069225],[14.682163,50.069158],[14.682082,50.069136],[14.681936,50.069129],[14.681676,50.069117],[14.681411,50.069104],[14.681134,50.069091],[14.681129,50.069091],[14.680889,50.069774],[14.680866,50.069817],[14.680417,50.070958],[14.679545,50.072234]]]}}]}
