{"type":"FeatureCollection","features":[{"type":"Feature","properties":{"cislo":26001,"kod":30947,"mestskaCast":"praha-cakovice"},"geometry":{"type":"Polygon","coordinates":[[[14.516363,50.158187],[14.516186,50.157767],[14.516364,50.157702],[14.51616,50.157408],[14.516438,50.157166],[14.516055,50.15658],[14.516265,50.156584],[14.516313,50.156432],[14.516319,50.156328],[14.516096,50.156127],[14.516036,50.155525],[14.51603,50.155188],[14.519595,50.155449],[14.519085,50.15432],[14.51933,50.152796],[14.519624,50.151924],[14.519664,50.151772],[14.519962,50.151809],[14.521314,50.151802],[14.522405,50.151742],[14.522657,50.151732],[14.522747,50.151569],[14.522782,50.151305],[14.522874,50.151311],[14.522913,50.15119],[14.522864,50.151186],[14.522852,50.150998],[14.52257,50.150991],[14.522564,50.150869],[14.522951,50.150864],[14.522947,50.15081],[14.523039,50.150805],[14.523067,50.15087],[14.523037,50.150877],[14.523059,50.150922],[14.523076,50.150927],[14.523093,50.150909],[14.523304,50.150879],[14.52342,50.150882],[14.52342,50.150969],[14.523637,50.150975],[14.523679,50.150993],[14.523696,50.151135],[14.523891,50.151124],[14.523859,50.150792],[14.523792,50.150084],[14.523781,50.149963],[14.523729,50.149404],[14.524099,50.149391],[14.524085,50.149163],[14.5237,50.149175],[14.523536,50.147913],[14.523516,50.147731],[14.52169,50.147102],[14.521435,50.147231],[14.520998,50.147452],[14.520658,50.147658],[14.520222,50.147884],[14.519987,50.147996],[14.519609,50.148184],[14.519069,50.148491],[14.518543,50.14879],[14.518541,50.148791],[14.518491,50.14882],[14.51849,50.14882],[14.51801,50.149096],[14.517331,50.149473],[14.517321,50.14947],[14.517145,50.149418],[14.516691,50.149285],[14.516231,50.149151],[14.515962,50.149063],[14.515931,50.149054],[14.515642,50.14896],[14.515618,50.148952],[14.515522,50.148921],[14.515516,50.148919],[14.515512,50.148917],[14.515505,50.148915],[14.5155,50.148913],[14.515495,50.148912],[14.515485,50.148908],[14.515427,50.14889],[14.5149,50.148742],[14.514132,50.148526],[14.514123,50.148523],[14.514088,50.148513],[14.514049,50.148501],[14.514015,50.148489],[14.514012,50.148488],[14.51388,50.148444],[14.513791,50.148414],[14.513682,50.148378],[14.513666,50.148373],[14.513655,50.148369],[14.513619,50.148473],[14.5136,50.14852],[14.513562,50.148619],[14.513533,50.148695],[14.51339,50.149084],[14.513352,50.149089],[14.513325,50.149093],[14.513246,50.149105],[14.513189,50.149113],[14.513139,50.14912],[14.513009,50.149139],[14.51252,50.14921],[14.51201,50.149286],[14.511981,50.14929],[14.51198,50.14929],[14.511978,50.14929],[14.511754,50.149323],[14.511744,50.149324],[14.511567,50.14935],[14.511233,50.149398],[14.510988,50.149434],[14.510796,50.149462],[14.509608,50.149633],[14.509152,50.14836],[14.509128,50.148295],[14.508947,50.1478],[14.50884,50.147511],[14.508834,50.147494],[14.508831,50.147483],[14.508823,50.147482],[14.508698,50.147457],[14.508668,50.147451],[14.508593,50.147436],[14.508562,50.14743],[14.508488,50.147415],[14.508457,50.147408],[14.508354,50.147388],[14.508325,50.147382],[14.508216,50.14736],[14.508192,50.147355],[14.508077,50.147332],[14.508054,50.147328],[14.507949,50.147307],[14.507923,50.147301],[14.507904,50.147298],[14.507818,50.14728],[14.507794,50.147275],[14.507725,50.147261],[14.507648,50.147245],[14.507506,50.147215],[14.50709,50.147129],[14.506655,50.147144],[14.506604,50.147143],[14.506573,50.147142],[14.506518,50.147141],[14.506475,50.146953],[14.506456,50.14687],[14.506456,50.14687],[14.50645,50.146843],[14.506376,50.146514],[14.506303,50.146178],[14.506281,50.146077],[14.506276,50.146055],[14.506245,50.145912],[14.506171,50.145573],[14.506128,50.145221],[14.506125,50.145194],[14.506118,50.145133],[14.506087,50.144883],[14.506081,50.144833],[14.506076,50.144794],[14.506069,50.144731],[14.506058,50.144636],[14.506047,50.144542],[14.506036,50.14444],[14.50582,50.144434],[14.505692,50.144431],[14.505588,50.144428],[14.505355,50.144423],[14.505348,50.144422],[14.504758,50.144408],[14.504294,50.144396],[14.504142,50.144573],[14.504014,50.144749],[14.503861,50.145014],[14.503752,50.145226],[14.503737,50.145257],[14.503669,50.145388],[14.503636,50.145453],[14.503508,50.145703],[14.503451,50.145782],[14.503334,50.145857],[14.503262,50.145882],[14.503148,50.14592],[14.502929,50.146017],[14.50288,50.146048],[14.502708,50.146156],[14.502572,50.14624],[14.502544,50.146256],[14.502392,50.146345],[14.502235,50.146416],[14.501986,50.146529],[14.501951,50.146545],[14.501928,50.146552],[14.501642,50.146638],[14.501597,50.146651],[14.501268,50.146712],[14.50118,50.146729],[14.500936,50.146749],[14.500595,50.146755],[14.500583,50.146755],[14.50052,50.146756],[14.500255,50.146781],[14.500189,50.146788],[14.499998,50.146823],[14.499916,50.146848],[14.499839,50.146872],[14.49963,50.146949],[14.499555,50.146976],[14.499166,50.147106],[14.498873,50.147223],[14.498833,50.147243],[14.498382,50.147467],[14.498138,50.14757],[14.497969,50.147629],[14.497911,50.147649],[14.497873,50.147663],[14.497577,50.147771],[14.497412,50.147846],[14.49733,50.147895],[14.497284,50.147935],[14.497237,50.147997],[14.49721,50.148048],[14.497207,50.148054],[14.497181,50.148102],[14.497155,50.148209],[14.497147,50.148263],[14.497123,50.148429],[14.497125,50.148539],[14.497127,50.148594],[14.497122,50.148626],[14.497122,50.148628],[14.49711,50.148716],[14.49711,50.148718],[14.497209,50.149254],[14.497242,50.149434],[14.497304,50.14977],[14.497414,50.149885],[14.497712,50.150072],[14.498057,50.150255],[14.498784,50.150612],[14.499173,50.150775],[14.499564,50.150909],[14.499884,50.151],[14.500236,50.151081],[14.501333,50.151323],[14.502705,50.151632],[14.503086,50.15172],[14.503092,50.151715],[14.503101,50.151706],[14.503187,50.151725],[14.503275,50.151745],[14.503344,50.151761],[14.50343,50.15178],[14.503442,50.151803],[14.503504,50.151919],[14.503555,50.152016],[14.503378,50.153019],[14.503375,50.153038],[14.50405,50.153134],[14.504576,50.153209],[14.516363,50.158187]]]}},{"type":"Feature","properties":{"cislo":26002,"kod":30949,"mestskaCast":"praha-cakovice"},"geometry":{"type":"Polygon","coordinates":[[[14.516096,50.156127],[14.516533,50.156187],[14.516879,50.156155],[14.517232,50.156139],[14.517422,50.156144],[14.517621,50.156091],[14.517891,50.156038],[14.51825,50.155977],[14.518602,50.155979],[14.519095,50.156093],[14.519504,50.156367],[14.519819,50.156275],[14.520486,50.156106],[14.520354,50.155893],[14.522265,50.155461],[14.522485,50.155467],[14.522745,50.155473],[14.523093,50.155422],[14.523493,50.155304],[14.523659,50.1553],[14.523695,50.155226],[14.52371,50.155196],[14.522511,50.15499],[14.522527,50.154778],[14.522762,50.154801],[14.522778,50.154634],[14.523041,50.154641],[14.523029,50.15449],[14.522547,50.154475],[14.522562,50.15427],[14.522585,50.153922],[14.523037,50.153936],[14.523025,50.153756],[14.523016,50.153574],[14.522612,50.153562],[14.522632,50.153298],[14.522642,50.153172],[14.522659,50.152902],[14.523011,50.152889],[14.523276,50.152884],[14.523542,50.152873],[14.523865,50.152862],[14.523846,50.152593],[14.524041,50.152585],[14.524364,50.152571],[14.524385,50.152844],[14.524657,50.152832],[14.524935,50.152822],[14.525203,50.152813],[14.525478,50.152803],[14.525752,50.152792],[14.526025,50.15278],[14.526344,50.152772],[14.526325,50.152503],[14.526295,50.152407],[14.525867,50.152425],[14.525855,50.152139],[14.525803,50.152131],[14.52567,50.151764],[14.526083,50.151711],[14.526037,50.151543],[14.52621,50.15152],[14.526338,50.151503],[14.526364,50.151579],[14.526458,50.151569],[14.526496,50.151657],[14.526788,50.152213],[14.526809,50.15239],[14.526793,50.152483],[14.526814,50.152754],[14.527058,50.152743],[14.527295,50.152733],[14.527638,50.15272],[14.527819,50.152711],[14.52781,50.152556],[14.527944,50.152557],[14.528105,50.152539],[14.528021,50.152444],[14.527923,50.152349],[14.527832,50.152263],[14.527736,50.152266],[14.52772,50.152274],[14.52771,50.152268],[14.527658,50.152267],[14.527657,50.152259],[14.527525,50.152254],[14.527231,50.152242],[14.527096,50.152234],[14.526916,50.152225],[14.526888,50.152223],[14.526856,50.152223],[14.526628,50.15148],[14.526614,50.151372],[14.526579,50.151079],[14.526207,50.151113],[14.526085,50.151135],[14.525878,50.151146],[14.525686,50.151167],[14.525316,50.151203],[14.525148,50.151217],[14.52508,50.151022],[14.525277,50.150994],[14.525214,50.150825],[14.525018,50.150853],[14.52495,50.150632],[14.52502,50.150024],[14.525028,50.149949],[14.526484,50.149836],[14.526221,50.147797],[14.523536,50.147913],[14.5237,50.149175],[14.524085,50.149163],[14.524099,50.149391],[14.523729,50.149404],[14.523781,50.149963],[14.523792,50.150084],[14.523859,50.150792],[14.523891,50.151124],[14.523696,50.151135],[14.523679,50.150993],[14.523637,50.150975],[14.52342,50.150969],[14.52342,50.150882],[14.523304,50.150879],[14.523093,50.150909],[14.523076,50.150927],[14.523059,50.150922],[14.523037,50.150877],[14.523067,50.15087],[14.523039,50.150805],[14.522947,50.15081],[14.522951,50.150864],[14.522564,50.150869],[14.52257,50.150991],[14.522852,50.150998],[14.522864,50.151186],[14.522913,50.15119],[14.522874,50.151311],[14.522782,50.151305],[14.522747,50.151569],[14.522657,50.151732],[14.522405,50.151742],[14.521314,50.151802],[14.519962,50.151809],[14.519664,50.151772],[14.519624,50.151924],[14.51933,50.152796],[14.519085,50.15432],[14.519595,50.155449],[14.51603,50.155188],[14.516036,50.155525],[14.516096,50.156127]]]}},{"type":"Feature","properties":{"cislo":26003,"kod":30951,"mestskaCast":"praha-cakovice"},"geometry":{"type":"Polygon","coordinates":[[[14.526598,50.150572],[14.526698,50.150554],[14.527841,50.150507],[14.527855,50.150602],[14.527866,50.150719],[14.528267,50.150711],[14.52841,50.15071],[14.528405,50.15075],[14.528373,50.150754],[14.528374,50.15083],[14.528672,50.150822],[14.528916,50.150811],[14.529177,50.150801],[14.529431,50.150791],[14.529783,50.15078],[14.529951,50.150773],[14.530119,50.150763],[14.530252,50.150761],[14.53043,50.150754],[14.530767,50.15074],[14.531141,50.150727],[14.531284,50.150725],[14.531458,50.150715],[14.53164,50.150711],[14.531762,50.150708],[14.531971,50.150702],[14.532103,50.150695],[14.532122,50.1507],[14.532332,50.150692],[14.532533,50.150684],[14.532672,50.150676],[14.532724,50.150674],[14.532902,50.15067],[14.533367,50.150654],[14.533625,50.150646],[14.533745,50.150523],[14.53377,50.150452],[14.533907,50.150334],[14.534711,50.150381],[14.535806,50.15053],[14.536723,50.150676],[14.537197,50.150761],[14.537156,50.150844],[14.538163,50.151044],[14.539055,50.151221],[14.539378,50.151268],[14.539461,50.151266],[14.540008,50.151273],[14.5406,50.151259],[14.540982,50.151222],[14.541141,50.151208],[14.542366,50.151061],[14.542821,50.150484],[14.543218,50.149944],[14.543236,50.149919],[14.544106,50.148966],[14.544304,50.148977],[14.544773,50.148562],[14.545278,50.148152],[14.545349,50.148114],[14.545438,50.148066],[14.545448,50.148047],[14.545501,50.147946],[14.545717,50.147558],[14.545906,50.147178],[14.545862,50.147173],[14.545787,50.147164],[14.545746,50.147159],[14.545569,50.147138],[14.545031,50.147106],[14.544386,50.147063],[14.543906,50.147015],[14.54368,50.146981],[14.543675,50.14698],[14.543741,50.146598],[14.543773,50.146388],[14.543802,50.146273],[14.543812,50.146226],[14.543819,50.146207],[14.54385,50.146055],[14.543896,50.145703],[14.543917,50.145429],[14.543918,50.145414],[14.543933,50.145138],[14.543927,50.144807],[14.54392,50.144516],[14.54392,50.144496],[14.54392,50.144491],[14.543913,50.143868],[14.543915,50.143528],[14.543915,50.143522],[14.543928,50.143217],[14.543948,50.143098],[14.543957,50.143059],[14.543993,50.142841],[14.544004,50.142483],[14.543996,50.142371],[14.543992,50.142342],[14.543098,50.142584],[14.542465,50.142705],[14.541758,50.142813],[14.541097,50.142861],[14.540568,50.142873],[14.540535,50.142874],[14.540534,50.142846],[14.540533,50.142833],[14.540532,50.142819],[14.540531,50.14278],[14.540497,50.141628],[14.540474,50.140939],[14.540481,50.140906],[14.540479,50.140333],[14.540425,50.140337],[14.539985,50.140378],[14.539561,50.140405],[14.539092,50.140414],[14.538393,50.140408],[14.538048,50.140398],[14.53804,50.140398],[14.537397,50.140379],[14.536619,50.140321],[14.536257,50.140293],[14.535178,50.140187],[14.535094,50.140163],[14.535046,50.140149],[14.534605,50.140088],[14.534034,50.140017],[14.533926,50.140006],[14.53222,50.139841],[14.530344,50.139598],[14.530245,50.139903],[14.530143,50.140219],[14.530131,50.140253],[14.530129,50.140259],[14.530127,50.140264],[14.530117,50.140293],[14.530113,50.140304],[14.53011,50.140314],[14.530036,50.140529],[14.530024,50.140548],[14.530005,50.140581],[14.530004,50.140583],[14.529987,50.140612],[14.529965,50.14065],[14.529946,50.140681],[14.529923,50.140721],[14.529624,50.14117],[14.529574,50.141353],[14.529551,50.141402],[14.529474,50.141559],[14.529433,50.141611],[14.529333,50.141751],[14.52921,50.141899],[14.528597,50.142638],[14.528183,50.14315],[14.52817,50.143166],[14.528164,50.143174],[14.52816,50.143178],[14.528157,50.143182],[14.528148,50.143194],[14.528125,50.143222],[14.528096,50.143231],[14.528005,50.143343],[14.527853,50.14353],[14.527659,50.14373],[14.527444,50.143901],[14.527187,50.144059],[14.526159,50.144605],[14.525151,50.14514],[14.525165,50.145157],[14.525157,50.145161],[14.524138,50.145703],[14.523886,50.145849],[14.523655,50.146031],[14.523506,50.146169],[14.523466,50.146221],[14.523459,50.146231],[14.523284,50.146274],[14.523206,50.146302],[14.522945,50.146393],[14.52259,50.146547],[14.522297,50.146688],[14.521852,50.146914],[14.521791,50.146945],[14.521736,50.14699],[14.521725,50.146999],[14.52169,50.147102],[14.523516,50.147731],[14.523536,50.147913],[14.526221,50.147797],[14.526484,50.149836],[14.526598,50.150572]]]}},{"type":"Feature","properties":{"cislo":26004,"kod":30953,"mestskaCast":"praha-cakovice"},"geometry":{"type":"Polygon","coordinates":[[[14.526856,50.17743],[14.527049,50.177415],[14.527121,50.177397],[14.52724,50.177367],[14.527346,50.17734],[14.527595,50.177302],[14.527641,50.177295],[14.528649,50.177201],[14.529577,50.17716],[14.530817,50.177158],[14.532353,50.177176],[14.532451,50.177181],[14.532485,50.177183],[14.532255,50.17648],[14.532198,50.176308],[14.532169,50.176091],[14.532136,50.175841],[14.53209,50.175525],[14.532018,50.175025],[14.532,50.174946],[14.531877,50.174389],[14.531835,50.174194],[14.531764,50.173842],[14.531738,50.173722],[14.531641,50.173271],[14.531577,50.173098],[14.531541,50.173002],[14.531477,50.172832],[14.531471,50.172815],[14.531401,50.172686],[14.531302,50.172503],[14.531317,50.172426],[14.531355,50.172233],[14.531371,50.172151],[14.531399,50.171819],[14.53145,50.171223],[14.531476,50.170929],[14.531624,50.170527],[14.531725,50.170255],[14.531739,50.170217],[14.531812,50.170019],[14.531827,50.169978],[14.531905,50.169767],[14.531928,50.169707],[14.531937,50.169681],[14.532012,50.169479],[14.532025,50.169443],[14.532087,50.169287],[14.532102,50.169249],[14.532447,50.168371],[14.532613,50.167499],[14.532618,50.167473],[14.53243,50.167369],[14.532403,50.167354],[14.532298,50.167295],[14.53171,50.166982],[14.531264,50.166814],[14.531057,50.166717],[14.530693,50.166588],[14.530573,50.166405],[14.530513,50.16619],[14.530533,50.166181],[14.530556,50.16617],[14.53078,50.166066],[14.530908,50.166],[14.531184,50.165787],[14.531624,50.165447],[14.531639,50.165436],[14.531654,50.165424],[14.531714,50.165379],[14.531578,50.1653],[14.53236,50.164147],[14.533099,50.163066],[14.533214,50.162898],[14.534237,50.161565],[14.533422,50.160971],[14.533169,50.160984],[14.530609,50.160284],[14.530249,50.160137],[14.530466,50.15985],[14.528971,50.159539],[14.5261,50.159162],[14.525957,50.159435],[14.525797,50.159416],[14.522805,50.15913],[14.522701,50.158629],[14.521904,50.158559],[14.519868,50.158476],[14.519404,50.158421],[14.518466,50.158354],[14.51798,50.158326],[14.517595,50.158302],[14.517104,50.158259],[14.516594,50.1582],[14.516363,50.158187],[14.504576,50.153209],[14.504548,50.15323],[14.50449,50.153272],[14.504442,50.153308],[14.504422,50.153325],[14.504252,50.153463],[14.504157,50.15354],[14.504061,50.153703],[14.504043,50.153734],[14.504037,50.153744],[14.503849,50.154214],[14.503828,50.154294],[14.503741,50.15464],[14.503724,50.154707],[14.503676,50.154863],[14.503623,50.155035],[14.503586,50.155156],[14.503538,50.155437],[14.504963,50.155561],[14.505691,50.155634],[14.506137,50.155691],[14.506391,50.155734],[14.50642,50.155738],[14.506334,50.155977],[14.506252,50.156203],[14.506222,50.156309],[14.506174,50.156476],[14.506159,50.156527],[14.506101,50.156679],[14.505998,50.156952],[14.505924,50.157147],[14.505872,50.157283],[14.505855,50.157327],[14.505727,50.157759],[14.505677,50.157937],[14.505627,50.158171],[14.50562,50.1582],[14.505618,50.158214],[14.505604,50.1583],[14.505564,50.158556],[14.505545,50.158676],[14.504312,50.159002],[14.504323,50.159026],[14.50423,50.159054],[14.503968,50.159133],[14.503627,50.159235],[14.503558,50.159271],[14.503415,50.15926],[14.50335,50.159255],[14.502967,50.159225],[14.502739,50.159208],[14.502739,50.159211],[14.502737,50.15923],[14.502506,50.162304],[14.502455,50.162991],[14.502378,50.164013],[14.503829,50.163917],[14.504986,50.163803],[14.505287,50.163793],[14.505291,50.163825],[14.505582,50.165031],[14.505632,50.165262],[14.505768,50.165891],[14.50579,50.16599],[14.505799,50.166033],[14.505809,50.166077],[14.505909,50.166538],[14.505915,50.166569],[14.505927,50.166613],[14.505934,50.166644],[14.505938,50.166663],[14.505949,50.166702],[14.505949,50.166703],[14.506087,50.167195],[14.506293,50.167929],[14.506306,50.167979],[14.506324,50.168059],[14.506562,50.169135],[14.506726,50.169873],[14.506828,50.170332],[14.506911,50.170707],[14.507067,50.17141],[14.506921,50.171433],[14.506905,50.171436],[14.506943,50.171481],[14.507385,50.172007],[14.507404,50.17203],[14.507917,50.17264],[14.508628,50.173575],[14.508765,50.173755],[14.509068,50.174154],[14.509073,50.17416],[14.511011,50.174376],[14.511842,50.174471],[14.51185,50.174471],[14.513131,50.174617],[14.513655,50.17468],[14.513675,50.174682],[14.514765,50.174803],[14.514801,50.174809],[14.514818,50.174812],[14.515015,50.174835],[14.515574,50.174889],[14.515585,50.17489],[14.51561,50.174893],[14.515759,50.174917],[14.515967,50.17495],[14.516419,50.175064],[14.516572,50.174649],[14.516599,50.174634],[14.516865,50.174702],[14.51716,50.174779],[14.517298,50.174814],[14.517525,50.174875],[14.517591,50.174892],[14.518156,50.175042],[14.518697,50.175151],[14.518718,50.175155],[14.518923,50.17476],[14.519076,50.174786],[14.51908,50.174787],[14.519582,50.174876],[14.519626,50.174887],[14.519732,50.174911],[14.520116,50.175001],[14.520274,50.175038],[14.520627,50.175121],[14.520688,50.175135],[14.520818,50.175165],[14.522291,50.17551],[14.522343,50.175524],[14.522385,50.175534],[14.522721,50.175612],[14.522851,50.175643],[14.522956,50.175667],[14.523085,50.175697],[14.523541,50.175804],[14.523881,50.175883],[14.524446,50.176015],[14.524657,50.176065],[14.52576,50.176322],[14.525865,50.176347],[14.526025,50.176384],[14.52659,50.176516],[14.526624,50.176654],[14.526699,50.176955],[14.526801,50.177029],[14.526826,50.177047],[14.5269,50.177356],[14.526909,50.177394],[14.52685,50.177401],[14.526856,50.17743]]]}},{"type":"Feature","properties":{"cislo":26005,"kod":30955,"mestskaCast":"praha-cakovice"},"geometry":{"type":"Polygon","coordinates":[[[14.534237,50.161565],[14.534481,50.161726],[14.534668,50.161834],[14.534707,50.161851],[14.535429,50.162166],[14.535986,50.162376],[14.536381,50.162518],[14.537206,50.162772],[14.537213,50.162774],[14.537252,50.162786],[14.538202,50.163088],[14.538362,50.163146],[14.53884,50.163344],[14.539451,50.163828],[14.540209,50.164857],[14.540267,50.164934],[14.540318,50.165047],[14.540336,50.165087],[14.540532,50.165074],[14.540546,50.16497],[14.540601,50.164867],[14.541206,50.164259],[14.542133,50.163113],[14.542348,50.162847],[14.542382,50.162576],[14.542526,50.162648],[14.542696,50.162783],[14.543043,50.16313],[14.543163,50.163299],[14.543423,50.163546],[14.543821,50.163875],[14.543899,50.164004],[14.543952,50.163998],[14.543974,50.163996],[14.544044,50.163989],[14.544103,50.163983],[14.544365,50.163949],[14.544889,50.163986],[14.544927,50.163987],[14.544995,50.164085],[14.545462,50.164329],[14.547201,50.164876],[14.547225,50.164989],[14.547396,50.165057],[14.547394,50.165171],[14.54784,50.165377],[14.548951,50.165634],[14.549186,50.165783],[14.54941,50.165945],[14.550541,50.166122],[14.550472,50.165479],[14.55045,50.164854],[14.550449,50.164824],[14.551057,50.164748],[14.551599,50.164672],[14.551827,50.16464],[14.55196,50.164622],[14.55258,50.164502],[14.552986,50.164398],[14.553585,50.164245],[14.55342,50.164067],[14.553419,50.164066],[14.553075,50.163719],[14.553128,50.163708],[14.55328,50.163673],[14.553332,50.163662],[14.553771,50.163588],[14.553923,50.163562],[14.554769,50.163416],[14.554783,50.163411],[14.55619,50.162962],[14.556359,50.162908],[14.557985,50.162555],[14.558616,50.162418],[14.559725,50.162145],[14.560625,50.162008],[14.560627,50.161597],[14.560627,50.161575],[14.560774,50.161575],[14.560995,50.161575],[14.560999,50.161562],[14.561514,50.159845],[14.56171,50.159247],[14.562078,50.158121],[14.562428,50.157012],[14.562711,50.156143],[14.562713,50.156138],[14.562749,50.156027],[14.560484,50.155364],[14.560464,50.155359],[14.560319,50.155323],[14.559761,50.155155],[14.559218,50.154966],[14.558691,50.154773],[14.558098,50.154537],[14.557052,50.154104],[14.555963,50.153632],[14.555191,50.153303],[14.554609,50.153069],[14.553895,50.152798],[14.552888,50.152439],[14.552033,50.152142],[14.551122,50.151828],[14.550225,50.151527],[14.549038,50.151127],[14.548221,50.150836],[14.547792,50.15067],[14.547484,50.150546],[14.546385,50.150084],[14.545844,50.149812],[14.545443,50.14959],[14.544886,50.149295],[14.544303,50.148978],[14.544304,50.148977],[14.544106,50.148966],[14.543236,50.149919],[14.543218,50.149944],[14.542821,50.150484],[14.542366,50.151061],[14.541141,50.151208],[14.540982,50.151222],[14.5406,50.151259],[14.540008,50.151273],[14.539461,50.151266],[14.539378,50.151268],[14.539055,50.151221],[14.538163,50.151044],[14.537156,50.150844],[14.537071,50.150952],[14.537188,50.150987],[14.536905,50.151368],[14.53678,50.151332],[14.535194,50.153408],[14.535318,50.153449],[14.535118,50.153692],[14.535003,50.153647],[14.534917,50.15376],[14.534243,50.153551],[14.533956,50.153952],[14.533814,50.15414],[14.533686,50.154304],[14.533567,50.154459],[14.533427,50.154642],[14.533316,50.154798],[14.533189,50.154957],[14.533069,50.155117],[14.532949,50.155282],[14.532817,50.155461],[14.532689,50.155625],[14.532563,50.155774],[14.532442,50.155944],[14.532323,50.156099],[14.532211,50.15626],[14.532082,50.156424],[14.531745,50.156876],[14.532531,50.157069],[14.530466,50.15985],[14.530249,50.160137],[14.530609,50.160284],[14.533169,50.160984],[14.533422,50.160971],[14.534237,50.161565]]]}},{"type":"Feature","properties":{"cislo":26006,"kod":30957,"mestskaCast":"praha-cakovice"},"geometry":{"type":"Polygon","coordinates":[[[14.516363,50.158187],[14.516594,50.1582],[14.517104,50.158259],[14.517595,50.158302],[14.51798,50.158326],[14.518466,50.158354],[14.519404,50.158421],[14.519868,50.158476],[14.521904,50.158559],[14.522701,50.158629],[14.522805,50.15913],[14.525797,50.159416],[14.525957,50.159435],[14.5261,50.159162],[14.528971,50.159539],[14.530466,50.15985],[14.532531,50.157069],[14.531745,50.156876],[14.532082,50.156424],[14.532211,50.15626],[14.532323,50.156099],[14.532442,50.155944],[14.532563,50.155774],[14.532689,50.155625],[14.532817,50.155461],[14.532949,50.155282],[14.533069,50.155117],[14.533189,50.154957],[14.533316,50.154798],[14.533427,50.154642],[14.533567,50.154459],[14.533686,50.154304],[14.533814,50.15414],[14.533956,50.153952],[14.534243,50.153551],[14.534917,50.15376],[14.535003,50.153647],[14.535118,50.153692],[14.535318,50.153449],[14.535194,50.153408],[14.53678,50.151332],[14.536905,50.151368],[14.537188,50.150987],[14.537071,50.150952],[14.537156,50.150844],[14.536385,50.150718],[14.535995,50.151226],[14.535747,50.151152],[14.536114,50.150675],[14.535665,50.150596],[14.535558,50.150743],[14.535256,50.150715],[14.535208,50.150886],[14.534935,50.150802],[14.534815,50.150959],[14.535276,50.151111],[14.534712,50.151869],[14.53409,50.151668],[14.533884,50.151939],[14.5345,50.152127],[14.534189,50.152552],[14.534022,50.152768],[14.533397,50.152569],[14.533308,50.152689],[14.533237,50.152786],[14.533483,50.152869],[14.533365,50.153029],[14.53374,50.153148],[14.53357,50.153371],[14.533494,50.153469],[14.533326,50.153691],[14.532946,50.153576],[14.532808,50.15376],[14.532649,50.153969],[14.533027,50.154085],[14.532869,50.154291],[14.532784,50.154405],[14.532625,50.154621],[14.532056,50.154439],[14.531953,50.154585],[14.531844,50.154727],[14.532222,50.154844],[14.532051,50.155069],[14.532241,50.155129],[14.532179,50.15521],[14.532141,50.155197],[14.532012,50.155359],[14.53193,50.155333],[14.531813,50.15549],[14.531372,50.15535],[14.530979,50.155867],[14.531232,50.155949],[14.531018,50.156236],[14.531333,50.15632],[14.5313,50.156367],[14.531108,50.156623],[14.531202,50.156646],[14.531076,50.156791],[14.528122,50.156167],[14.527541,50.155971],[14.527076,50.157132],[14.526247,50.156854],[14.526169,50.156341],[14.525585,50.156155],[14.525105,50.156223],[14.52369,50.155657],[14.523419,50.15673],[14.523444,50.156906],[14.522667,50.156933],[14.522544,50.155956],[14.522381,50.155967],[14.52205,50.155984],[14.522124,50.156563],[14.521359,50.156598],[14.521361,50.156633],[14.521318,50.156666],[14.521339,50.156873],[14.520002,50.156873],[14.519793,50.156875],[14.519439,50.156867],[14.519348,50.156809],[14.519273,50.156847],[14.518876,50.156882],[14.51822,50.157004],[14.517893,50.157076],[14.51719,50.157199],[14.516788,50.157222],[14.516438,50.157166],[14.51616,50.157408],[14.516364,50.157702],[14.516186,50.157767],[14.516363,50.158187]]]}},{"type":"Feature","properties":{"cislo":26007,"kod":168567,"mestskaCast":"praha-cakovice"},"geometry":{"type":"Polygon","coordinates":[[[14.516438,50.157166],[14.516788,50.157222],[14.51719,50.157199],[14.517893,50.157076],[14.51822,50.157004],[14.518876,50.156882],[14.519273,50.156847],[14.519348,50.156809],[14.519439,50.156867],[14.519793,50.156875],[14.520002,50.156873],[14.521339,50.156873],[14.521318,50.156666],[14.521361,50.156633],[14.521359,50.156598],[14.522124,50.156563],[14.52205,50.155984],[14.522381,50.155967],[14.522544,50.155956],[14.522667,50.156933],[14.523444,50.156906],[14.523419,50.15673],[14.52369,50.155657],[14.525105,50.156223],[14.525585,50.156155],[14.526169,50.156341],[14.526247,50.156854],[14.527076,50.157132],[14.527541,50.155971],[14.528115,50.155036],[14.527892,50.15501],[14.527838,50.154313],[14.528105,50.15432],[14.52816,50.154323],[14.528377,50.154356],[14.528492,50.154068],[14.528513,50.153969],[14.528179,50.153983],[14.528142,50.153722],[14.528148,50.153538],[14.528156,50.153351],[14.528563,50.153322],[14.528532,50.153084],[14.528137,50.153101],[14.528054,50.152975],[14.528034,50.152702],[14.527819,50.152711],[14.527638,50.15272],[14.527295,50.152733],[14.527058,50.152743],[14.526814,50.152754],[14.526793,50.152483],[14.526809,50.15239],[14.526788,50.152213],[14.526496,50.151657],[14.526458,50.151569],[14.526364,50.151579],[14.526338,50.151503],[14.52621,50.15152],[14.526037,50.151543],[14.526083,50.151711],[14.52567,50.151764],[14.525803,50.152131],[14.525855,50.152139],[14.525867,50.152425],[14.526295,50.152407],[14.526325,50.152503],[14.526344,50.152772],[14.526025,50.15278],[14.525752,50.152792],[14.525478,50.152803],[14.525203,50.152813],[14.524935,50.152822],[14.524657,50.152832],[14.524385,50.152844],[14.524364,50.152571],[14.524041,50.152585],[14.523846,50.152593],[14.523865,50.152862],[14.523542,50.152873],[14.523276,50.152884],[14.523011,50.152889],[14.522659,50.152902],[14.522642,50.153172],[14.522632,50.153298],[14.522612,50.153562],[14.523016,50.153574],[14.523025,50.153756],[14.523037,50.153936],[14.522585,50.153922],[14.522562,50.15427],[14.522547,50.154475],[14.523029,50.15449],[14.523041,50.154641],[14.522778,50.154634],[14.522762,50.154801],[14.522527,50.154778],[14.522511,50.15499],[14.52371,50.155196],[14.523695,50.155226],[14.523659,50.1553],[14.523493,50.155304],[14.523093,50.155422],[14.522745,50.155473],[14.522485,50.155467],[14.522265,50.155461],[14.520354,50.155893],[14.520486,50.156106],[14.519819,50.156275],[14.519504,50.156367],[14.519095,50.156093],[14.518602,50.155979],[14.51825,50.155977],[14.517891,50.156038],[14.517621,50.156091],[14.517422,50.156144],[14.517232,50.156139],[14.516879,50.156155],[14.516533,50.156187],[14.516096,50.156127],[14.516319,50.156328],[14.516313,50.156432],[14.516265,50.156584],[14.516055,50.15658],[14.516438,50.157166]]]}},{"type":"Feature","properties":{"cislo":26008,"kod":168568,"mestskaCast":"praha-cakovice"},"geometry":{"type":"Polygon","coordinates":[[[14.527541,50.155971],[14.528122,50.156167],[14.531076,50.156791],[14.531202,50.156646],[14.531108,50.156623],[14.5313,50.156367],[14.531333,50.15632],[14.531018,50.156236],[14.531232,50.155949],[14.530979,50.155867],[14.531372,50.15535],[14.531813,50.15549],[14.53193,50.155333],[14.532012,50.155359],[14.532141,50.155197],[14.532179,50.15521],[14.532241,50.155129],[14.532051,50.155069],[14.532222,50.154844],[14.531844,50.154727],[14.531953,50.154585],[14.532056,50.154439],[14.532625,50.154621],[14.532784,50.154405],[14.532869,50.154291],[14.533027,50.154085],[14.532649,50.153969],[14.532808,50.15376],[14.532946,50.153576],[14.533326,50.153691],[14.533494,50.153469],[14.53357,50.153371],[14.53374,50.153148],[14.533365,50.153029],[14.533483,50.152869],[14.533237,50.152786],[14.533308,50.152689],[14.533397,50.152569],[14.534022,50.152768],[14.534189,50.152552],[14.5345,50.152127],[14.533884,50.151939],[14.53409,50.151668],[14.534712,50.151869],[14.535276,50.151111],[14.534815,50.150959],[14.534935,50.150802],[14.535208,50.150886],[14.535256,50.150715],[14.535558,50.150743],[14.535665,50.150596],[14.536114,50.150675],[14.535747,50.151152],[14.535995,50.151226],[14.536385,50.150718],[14.537156,50.150844],[14.537197,50.150761],[14.536723,50.150676],[14.535806,50.15053],[14.534711,50.150381],[14.533907,50.150334],[14.53377,50.150452],[14.533745,50.150523],[14.533625,50.150646],[14.533367,50.150654],[14.532902,50.15067],[14.532724,50.150674],[14.532672,50.150676],[14.532533,50.150684],[14.532332,50.150692],[14.532122,50.1507],[14.532103,50.150695],[14.531971,50.150702],[14.531762,50.150708],[14.53164,50.150711],[14.531458,50.150715],[14.531284,50.150725],[14.531141,50.150727],[14.530767,50.15074],[14.53043,50.150754],[14.530252,50.150761],[14.530119,50.150763],[14.529951,50.150773],[14.529783,50.15078],[14.529431,50.150791],[14.529177,50.150801],[14.528916,50.150811],[14.528672,50.150822],[14.528374,50.15083],[14.528373,50.150754],[14.528405,50.15075],[14.52841,50.15071],[14.528267,50.150711],[14.527866,50.150719],[14.527855,50.150602],[14.527841,50.150507],[14.526698,50.150554],[14.526598,50.150572],[14.526484,50.149836],[14.525028,50.149949],[14.52502,50.150024],[14.52495,50.150632],[14.525018,50.150853],[14.525214,50.150825],[14.525277,50.150994],[14.52508,50.151022],[14.525148,50.151217],[14.525316,50.151203],[14.525686,50.151167],[14.525878,50.151146],[14.526085,50.151135],[14.526207,50.151113],[14.526579,50.151079],[14.526614,50.151372],[14.526628,50.15148],[14.526856,50.152223],[14.526888,50.152223],[14.526916,50.152225],[14.527096,50.152234],[14.527231,50.152242],[14.527525,50.152254],[14.527657,50.152259],[14.527658,50.152267],[14.52771,50.152268],[14.52772,50.152274],[14.527736,50.152266],[14.527832,50.152263],[14.527923,50.152349],[14.528021,50.152444],[14.528105,50.152539],[14.527944,50.152557],[14.52781,50.152556],[14.527819,50.152711],[14.528034,50.152702],[14.528054,50.152975],[14.528137,50.153101],[14.528532,50.153084],[14.528563,50.153322],[14.528156,50.153351],[14.528148,50.153538],[14.528142,50.153722],[14.528179,50.153983],[14.528513,50.153969],[14.528492,50.154068],[14.528377,50.154356],[14.52816,50.154323],[14.528105,50.15432],[14.527838,50.154313],[14.527892,50.15501],[14.528115,50.155036],[14.527541,50.155971]]]}}]}
