{"type":"FeatureCollection","features":[{"type":"Feature","properties":{"cislo":42001,"kod":27063,"mestskaCast":"praha-nebusice"},"geometry":{"type":"Polygon","coordinates":[[[14.317573,50.118862],[14.31759,50.118847],[14.317666,50.118775],[14.317819,50.118837],[14.317863,50.118855],[14.317925,50.11888],[14.317977,50.118903],[14.317977,50.118903],[14.318123,50.118627],[14.318156,50.118566],[14.318315,50.118398],[14.318678,50.118044],[14.318892,50.117858],[14.319252,50.117567],[14.320215,50.116803],[14.320347,50.116653],[14.32052,50.116085],[14.320674,50.115436],[14.320609,50.115241],[14.320623,50.115244],[14.320553,50.115167],[14.320849,50.11469],[14.321546,50.114757],[14.32177,50.114648],[14.321947,50.114608],[14.32218,50.114603],[14.323427,50.114606],[14.323431,50.113958],[14.323332,50.113749],[14.323213,50.113599],[14.322481,50.112911],[14.3222,50.112804],[14.32193,50.112723],[14.322077,50.112525],[14.3222,50.11214],[14.322289,50.112025],[14.32201,50.111835],[14.322308,50.111676],[14.322573,50.111633],[14.322923,50.111608],[14.323044,50.111305],[14.323118,50.111224],[14.323245,50.111189],[14.323216,50.111104],[14.323306,50.111092],[14.32328,50.110991],[14.324041,50.110838],[14.324,50.110624],[14.324631,50.110551],[14.325027,50.110535],[14.325011,50.111089],[14.325434,50.111055],[14.325492,50.110788],[14.325468,50.110456],[14.32746,50.110346],[14.327875,50.110424],[14.32902,50.110347],[14.329149,50.111006],[14.329833,50.110949],[14.329768,50.110583],[14.329888,50.110512],[14.329791,50.109849],[14.330255,50.109814],[14.33021,50.109537],[14.329085,50.108273],[14.329001,50.108211],[14.328894,50.108142],[14.328643,50.107989],[14.328544,50.107935],[14.328351,50.107831],[14.328044,50.107673],[14.327793,50.107547],[14.327776,50.107539],[14.327503,50.107421],[14.327364,50.107367],[14.327184,50.107298],[14.327033,50.107245],[14.326705,50.107132],[14.326376,50.107026],[14.326038,50.106925],[14.325701,50.106833],[14.325689,50.10683],[14.325371,50.106747],[14.325248,50.106716],[14.325132,50.106688],[14.32491,50.106638],[14.324774,50.106613],[14.324664,50.106594],[14.324627,50.106588],[14.324623,50.106587],[14.324621,50.10659],[14.324312,50.106947],[14.324207,50.107069],[14.324185,50.107062],[14.32418,50.10706],[14.323994,50.107001],[14.323716,50.106913],[14.323458,50.106875],[14.322967,50.106835],[14.322602,50.106808],[14.322405,50.106774],[14.32221,50.106723],[14.322008,50.10667],[14.321793,50.106598],[14.321611,50.106514],[14.321574,50.106496],[14.321518,50.10647],[14.321003,50.106324],[14.320336,50.106173],[14.320307,50.106167],[14.319568,50.106023],[14.319246,50.105929],[14.318837,50.105889],[14.317629,50.105667],[14.317295,50.105617],[14.316923,50.105566],[14.316623,50.105507],[14.316147,50.105394],[14.315477,50.105198],[14.314784,50.105021],[14.313903,50.104848],[14.313344,50.104746],[14.312779,50.104621],[14.312438,50.104542],[14.312119,50.104458],[14.310779,50.104057],[14.310166,50.103897],[14.309647,50.103747],[14.308297,50.103472],[14.307771,50.103376],[14.307532,50.103344],[14.306579,50.103242],[14.305895,50.103163],[14.305508,50.103112],[14.30521,50.103083],[14.303817,50.103037],[14.303549,50.103028],[14.303001,50.102994],[14.302432,50.102939],[14.302045,50.102895],[14.302034,50.102917],[14.301722,50.10292],[14.30135,50.102889],[14.301105,50.10285],[14.301051,50.102835],[14.300822,50.102991],[14.300375,50.103326],[14.299819,50.103728],[14.299228,50.10412],[14.299177,50.10416],[14.299131,50.104197],[14.298874,50.104341],[14.298467,50.104615],[14.29782,50.10505],[14.297054,50.105577],[14.296656,50.105857],[14.295907,50.106337],[14.29518,50.106848],[14.295894,50.107014],[14.296233,50.107084],[14.29664,50.10717],[14.297443,50.10733],[14.29915,50.107676],[14.299843,50.107823],[14.300055,50.107867],[14.300826,50.108063],[14.301146,50.108144],[14.301228,50.108163],[14.301312,50.108184],[14.301709,50.108286],[14.302075,50.108393],[14.302599,50.108547],[14.303328,50.10876],[14.304123,50.108992],[14.304268,50.109117],[14.304539,50.109341],[14.305104,50.109806],[14.305436,50.11014],[14.305899,50.110626],[14.30605,50.110768],[14.306491,50.111183],[14.3068,50.111535],[14.306891,50.111639],[14.30701,50.111734],[14.307068,50.111781],[14.30725,50.111919],[14.307517,50.112092],[14.307631,50.112155],[14.308113,50.112422],[14.308492,50.112649],[14.308766,50.112814],[14.309386,50.113237],[14.309797,50.113537],[14.310896,50.114424],[14.310948,50.114481],[14.310958,50.114492],[14.311064,50.114608],[14.311073,50.114618],[14.311317,50.114939],[14.311486,50.115155],[14.311694,50.115362],[14.311908,50.115535],[14.312179,50.115721],[14.313843,50.116629],[14.314779,50.117251],[14.31499,50.117392],[14.315578,50.117822],[14.315826,50.117987],[14.316098,50.11814],[14.316632,50.118409],[14.317375,50.11877],[14.317573,50.118862],[14.317573,50.118862]]]}},{"type":"Feature","properties":{"cislo":42002,"kod":27065,"mestskaCast":"praha-nebusice"},"geometry":{"type":"Polygon","coordinates":[[[14.320623,50.115244],[14.321571,50.115413],[14.322465,50.115625],[14.323243,50.115788],[14.323885,50.115941],[14.324438,50.11606],[14.324881,50.116144],[14.326159,50.116356],[14.326622,50.116493],[14.326856,50.116588],[14.326967,50.116632],[14.327022,50.116655],[14.327211,50.116712],[14.327394,50.116742],[14.327645,50.116752],[14.328143,50.116725],[14.328423,50.11671],[14.32861,50.11669],[14.328829,50.116666],[14.329296,50.116671],[14.32951,50.116673],[14.329649,50.116668],[14.329825,50.116646],[14.330424,50.116624],[14.330929,50.11661],[14.331666,50.116552],[14.332046,50.116566],[14.332748,50.11655],[14.333048,50.116515],[14.333189,50.116512],[14.334194,50.116549],[14.334559,50.116566],[14.335458,50.116631],[14.335569,50.116636],[14.336399,50.11671],[14.337804,50.116822],[14.338145,50.116847],[14.338536,50.116865],[14.338616,50.116865],[14.338841,50.116865],[14.339372,50.116898],[14.339665,50.116865],[14.340038,50.116792],[14.3404,50.116704],[14.34064,50.11663],[14.340968,50.116554],[14.341136,50.116542],[14.341272,50.116546],[14.342181,50.116674],[14.342386,50.116697],[14.342776,50.116707],[14.343199,50.11671],[14.344006,50.116672],[14.344593,50.116623],[14.344641,50.11662],[14.345181,50.116569],[14.345412,50.116548],[14.345665,50.116523],[14.346053,50.116486],[14.346149,50.11648],[14.346658,50.116453],[14.347037,50.116437],[14.347126,50.116435],[14.347542,50.116424],[14.347949,50.116414],[14.347978,50.116413],[14.348076,50.116413],[14.34825,50.116411],[14.348504,50.116417],[14.348587,50.116419],[14.34862,50.116423],[14.348747,50.116437],[14.348999,50.116465],[14.349184,50.116459],[14.349391,50.116447],[14.350033,50.116403],[14.350093,50.116411],[14.350166,50.11642],[14.350238,50.116411],[14.350715,50.116352],[14.351373,50.116271],[14.351875,50.11621],[14.351982,50.1162],[14.352559,50.116149],[14.352697,50.116137],[14.353152,50.116107],[14.353184,50.116106],[14.353427,50.116096],[14.353708,50.116101],[14.353926,50.116115],[14.354013,50.116121],[14.3542,50.11615],[14.354199,50.116119],[14.354632,50.116067],[14.35479,50.116033],[14.354995,50.115888],[14.355204,50.115676],[14.355201,50.115627],[14.355299,50.115454],[14.355363,50.11534],[14.355234,50.11511],[14.35523,50.115104],[14.355229,50.115102],[14.355202,50.115053],[14.355221,50.114999],[14.353268,50.114779],[14.352885,50.114735],[14.352551,50.114697],[14.352263,50.11464],[14.352125,50.114586],[14.352048,50.114555],[14.351869,50.114472],[14.351923,50.114282],[14.351914,50.114146],[14.35184,50.113876],[14.351834,50.113751],[14.351873,50.113483],[14.352019,50.113115],[14.352176,50.112915],[14.352326,50.112827],[14.352495,50.112779],[14.353132,50.11271],[14.353426,50.112631],[14.353753,50.112529],[14.3539,50.112485],[14.354018,50.112451],[14.354106,50.112412],[14.354133,50.112401],[14.354175,50.112382],[14.354255,50.112348],[14.354293,50.112331],[14.354417,50.112278],[14.354386,50.112262],[14.354316,50.112225],[14.354312,50.112223],[14.35411,50.112077],[14.353973,50.111927],[14.353909,50.111779],[14.353922,50.1116],[14.353959,50.111554],[14.353357,50.110362],[14.353186,50.110116],[14.352976,50.109813],[14.352606,50.109597],[14.352616,50.109288],[14.352622,50.109118],[14.352105,50.109077],[14.351829,50.109078],[14.351639,50.109059],[14.35118,50.109014],[14.350396,50.108977],[14.350385,50.109034],[14.350052,50.108999],[14.349301,50.108994],[14.348989,50.109027],[14.348667,50.109085],[14.348335,50.109197],[14.348016,50.109352],[14.347946,50.109313],[14.347906,50.109292],[14.347666,50.109157],[14.347612,50.109126],[14.347464,50.109227],[14.346961,50.109146],[14.346858,50.109129],[14.346688,50.109015],[14.346583,50.108969],[14.346482,50.108965],[14.346184,50.109009],[14.346129,50.109023],[14.34607,50.109039],[14.346043,50.109047],[14.345835,50.109109],[14.345582,50.109183],[14.344985,50.109392],[14.344581,50.10953],[14.344507,50.109468],[14.344442,50.109413],[14.344437,50.109408],[14.344387,50.109365],[14.344184,50.109194],[14.344167,50.10918],[14.344162,50.109177],[14.344041,50.109082],[14.343989,50.109097],[14.343899,50.109125],[14.343722,50.109178],[14.343529,50.109204],[14.343246,50.109159],[14.34304,50.109128],[14.342589,50.109092],[14.342506,50.109046],[14.342425,50.109002],[14.34185,50.108662],[14.341663,50.108461],[14.340963,50.108525],[14.340533,50.10855],[14.340443,50.108536],[14.340125,50.108643],[14.339806,50.108821],[14.339769,50.108886],[14.339761,50.10889],[14.339627,50.108962],[14.339684,50.109183],[14.339278,50.109223],[14.338983,50.109264],[14.338825,50.109286],[14.338675,50.109307],[14.33846,50.109337],[14.338262,50.109365],[14.337913,50.109394],[14.337636,50.109417],[14.337515,50.109427],[14.337361,50.109453],[14.337088,50.109498],[14.336816,50.109544],[14.335918,50.109694],[14.335866,50.109524],[14.335786,50.108987],[14.335774,50.108909],[14.335388,50.109062],[14.33497,50.109186],[14.33417,50.109418],[14.333448,50.109484],[14.332787,50.109499],[14.332174,50.109586],[14.331307,50.109681],[14.331164,50.109608],[14.331152,50.109583],[14.331067,50.1094],[14.331018,50.10921],[14.331059,50.109131],[14.331284,50.108918],[14.331286,50.108915],[14.33107,50.108919],[14.330853,50.108912],[14.330666,50.108888],[14.330498,50.10886],[14.330177,50.108785],[14.330049,50.108752],[14.329898,50.108705],[14.329676,50.10862],[14.329561,50.10857],[14.329463,50.10852],[14.329348,50.108454],[14.329248,50.108394],[14.329162,50.108329],[14.329085,50.108273],[14.33021,50.109537],[14.330255,50.109814],[14.329791,50.109849],[14.329888,50.110512],[14.329768,50.110583],[14.329833,50.110949],[14.329149,50.111006],[14.32902,50.110347],[14.327875,50.110424],[14.32746,50.110346],[14.325468,50.110456],[14.325492,50.110788],[14.325434,50.111055],[14.325011,50.111089],[14.325027,50.110535],[14.324631,50.110551],[14.324,50.110624],[14.324041,50.110838],[14.32328,50.110991],[14.323306,50.111092],[14.323216,50.111104],[14.323245,50.111189],[14.323118,50.111224],[14.323044,50.111305],[14.322923,50.111608],[14.322573,50.111633],[14.322308,50.111676],[14.32201,50.111835],[14.322289,50.112025],[14.3222,50.11214],[14.322077,50.112525],[14.32193,50.112723],[14.3222,50.112804],[14.322481,50.112911],[14.323213,50.113599],[14.323332,50.113749],[14.323431,50.113958],[14.323427,50.114606],[14.32218,50.114603],[14.321947,50.114608],[14.32177,50.114648],[14.321546,50.114757],[14.320849,50.11469],[14.320553,50.115167],[14.320623,50.115244]]]}}]}
