{"type":"FeatureCollection","features":[{"type":"Feature","properties":{"cislo":44001,"kod":30669,"mestskaCast":"praha-petrovice"},"geometry":{"type":"Polygon","coordinates":[[[14.557279,50.040181],[14.557278,50.040119],[14.557323,50.039906],[14.557391,50.039648],[14.558508,50.039565],[14.559798,50.03946],[14.560914,50.039376],[14.560957,50.039307],[14.561114,50.038631],[14.561663,50.038697],[14.561751,50.038414],[14.561899,50.03791],[14.562067,50.037317],[14.562124,50.037113],[14.562183,50.036896],[14.562252,50.036707],[14.562397,50.036148],[14.562522,50.03576],[14.562588,50.035511],[14.562667,50.035201],[14.562826,50.034716],[14.562949,50.034264],[14.562986,50.034158],[14.563475,50.033439],[14.56301,50.033307],[14.562608,50.033209],[14.562248,50.033113],[14.562008,50.033047],[14.561274,50.032856],[14.560634,50.032682],[14.560393,50.032625],[14.559846,50.032477],[14.559312,50.03234],[14.558248,50.032088],[14.558014,50.03189],[14.557735,50.031371],[14.558928,50.031019],[14.560401,50.03099],[14.559981,50.030835],[14.559963,50.030818],[14.559877,50.03074],[14.559842,50.030707],[14.55991,50.030629],[14.560083,50.030588],[14.56022,50.030633],[14.560334,50.030558],[14.560689,50.030422],[14.56063,50.030308],[14.56067,50.030237],[14.560333,50.030151],[14.559911,50.030043],[14.559785,50.030011],[14.559545,50.02995],[14.559447,50.029907],[14.55917,50.029787],[14.559008,50.029638],[14.558986,50.029617],[14.558959,50.029603],[14.558762,50.029499],[14.558615,50.02947],[14.558352,50.02942],[14.557997,50.029449],[14.557573,50.029441],[14.557126,50.029409],[14.556858,50.02939],[14.556681,50.029336],[14.556515,50.029399],[14.556399,50.029402],[14.556344,50.029403],[14.556323,50.029357],[14.556144,50.028977],[14.555564,50.029261],[14.55537,50.029298],[14.554362,50.029504],[14.552438,50.029917],[14.552371,50.029919],[14.552105,50.029926],[14.551976,50.029929],[14.55196,50.029936],[14.551823,50.029994],[14.551667,50.030098],[14.551518,50.030253],[14.551405,50.029947],[14.551391,50.029909],[14.55138,50.029878],[14.551371,50.029864],[14.551322,50.029781],[14.551222,50.029612],[14.551213,50.029602],[14.551081,50.029452],[14.550971,50.029326],[14.550903,50.029249],[14.550587,50.028889],[14.550231,50.028478],[14.549755,50.028007],[14.549589,50.027836],[14.54944,50.027681],[14.549381,50.027621],[14.549287,50.027446],[14.549281,50.027521],[14.549282,50.027543],[14.549282,50.027557],[14.549283,50.027699],[14.549405,50.027867],[14.549395,50.027954],[14.549104,50.028186],[14.549099,50.02819],[14.549019,50.028254],[14.548797,50.02843],[14.549024,50.028735],[14.549109,50.028848],[14.549549,50.029437],[14.548566,50.029873],[14.548423,50.029936],[14.548367,50.02996],[14.547936,50.030149],[14.547921,50.030156],[14.547404,50.030385],[14.547383,50.030393],[14.547358,50.030402],[14.547306,50.030422],[14.546593,50.03069],[14.546265,50.030829],[14.546224,50.030847],[14.546036,50.030925],[14.545805,50.030752],[14.545265,50.03035],[14.545053,50.030521],[14.545003,50.030667],[14.544952,50.030816],[14.544948,50.030825],[14.544915,50.030988],[14.544824,50.031439],[14.544821,50.031452],[14.544707,50.031984],[14.544386,50.031968],[14.54365,50.03193],[14.543616,50.0322],[14.543582,50.032477],[14.543567,50.0326],[14.543516,50.032739],[14.543476,50.03285],[14.543414,50.033019],[14.543401,50.033055],[14.543217,50.033279],[14.543203,50.033296],[14.543168,50.033323],[14.5425,50.033325],[14.542276,50.033315],[14.542272,50.033344],[14.542269,50.033362],[14.542264,50.0334],[14.542261,50.03342],[14.542345,50.033481],[14.542469,50.033571],[14.54266,50.03371],[14.543175,50.033942],[14.543172,50.033947],[14.543126,50.034015],[14.543108,50.034041],[14.543129,50.034141],[14.543147,50.034144],[14.543315,50.034174],[14.543664,50.034236],[14.543867,50.034272],[14.5439,50.034305],[14.544018,50.034424],[14.544082,50.034488],[14.544076,50.034507],[14.544041,50.03463],[14.544011,50.034701],[14.543948,50.034848],[14.543934,50.034854],[14.54371,50.034944],[14.5437,50.035006],[14.543693,50.035055],[14.544041,50.035105],[14.544114,50.035251],[14.544113,50.035358],[14.54395,50.035525],[14.543165,50.03594],[14.543553,50.036188],[14.543676,50.036236],[14.544027,50.036374],[14.544552,50.036488],[14.544955,50.036409],[14.545014,50.036396],[14.545045,50.036388],[14.54535,50.036316],[14.545546,50.036267],[14.545689,50.036218],[14.545787,50.036175],[14.545847,50.036147],[14.545887,50.036127],[14.546187,50.035979],[14.546552,50.035893],[14.546613,50.035955],[14.54698,50.035834],[14.547179,50.035787],[14.547396,50.035827],[14.547536,50.035921],[14.547546,50.036054],[14.547793,50.036332],[14.548026,50.036318],[14.548428,50.036255],[14.548602,50.036286],[14.548655,50.036296],[14.548846,50.036423],[14.548957,50.036581],[14.548983,50.036619],[14.549363,50.036787],[14.549686,50.036979],[14.549737,50.03719],[14.550095,50.037266],[14.550129,50.037273],[14.550139,50.037289],[14.550179,50.037356],[14.550272,50.03741],[14.550333,50.037514],[14.550557,50.037709],[14.550767,50.037835],[14.550837,50.037916],[14.550788,50.037983],[14.550813,50.038092],[14.550777,50.03813],[14.550779,50.038132],[14.551035,50.038316],[14.551669,50.038614],[14.552141,50.038834],[14.552187,50.038855],[14.552444,50.038998],[14.552709,50.03903],[14.552717,50.039031],[14.552831,50.039027],[14.553314,50.039013],[14.553697,50.039061],[14.554863,50.039207],[14.554837,50.03928],[14.554783,50.039273],[14.55473,50.039431],[14.554957,50.039461],[14.555005,50.039431],[14.555062,50.039439],[14.555061,50.039448],[14.555054,50.039522],[14.555037,50.039693],[14.555021,50.039858],[14.555001,50.039997],[14.554999,50.040026],[14.554994,50.040072],[14.554993,50.040085],[14.556235,50.040138],[14.557152,50.040176],[14.557279,50.040181]]]}},{"type":"Feature","properties":{"cislo":44002,"kod":30671,"mestskaCast":"praha-petrovice"},"geometry":{"type":"Polygon","coordinates":[[[14.557782,50.040203],[14.5579,50.040208],[14.558283,50.040224],[14.558549,50.040196],[14.558642,50.040186],[14.559171,50.040132],[14.559288,50.040119],[14.560601,50.039983],[14.560644,50.039974],[14.56078,50.039944],[14.560872,50.039924],[14.560942,50.039908],[14.561075,50.039879],[14.561208,50.039775],[14.561432,50.0396],[14.561782,50.039384],[14.56184,50.039348],[14.562718,50.038806],[14.562772,50.038773],[14.563438,50.038361],[14.563571,50.038183],[14.563778,50.037905],[14.56389,50.037755],[14.563899,50.037743],[14.563844,50.03763],[14.564078,50.036995],[14.563834,50.036954],[14.563276,50.03686],[14.562841,50.036786],[14.562758,50.036778],[14.562252,50.036707],[14.562183,50.036896],[14.562124,50.037113],[14.562067,50.037317],[14.561899,50.03791],[14.561751,50.038414],[14.561663,50.038697],[14.561114,50.038631],[14.560957,50.039307],[14.560914,50.039376],[14.559798,50.03946],[14.558508,50.039565],[14.557391,50.039648],[14.557323,50.039906],[14.557278,50.040119],[14.557279,50.040181],[14.557337,50.040184],[14.557782,50.040203]]]}},{"type":"Feature","properties":{"cislo":44003,"kod":30673,"mestskaCast":"praha-petrovice"},"geometry":{"type":"Polygon","coordinates":[[[14.569167,50.038077],[14.57006,50.037732],[14.570181,50.037674],[14.570182,50.037674],[14.570217,50.037657],[14.570808,50.037369],[14.570913,50.037309],[14.571124,50.037188],[14.571679,50.036865],[14.571789,50.0368],[14.57191,50.036739],[14.572043,50.036683],[14.571956,50.03662],[14.571956,50.03662],[14.571699,50.036598],[14.571411,50.036563],[14.570833,50.036495],[14.57012,50.036405],[14.569487,50.036332],[14.56773,50.036115],[14.567291,50.036058],[14.566755,50.035993],[14.566727,50.035991],[14.566397,50.035953],[14.565889,50.035891],[14.565614,50.035858],[14.565442,50.035806],[14.565353,50.035762],[14.565215,50.035678],[14.565168,50.035637],[14.565144,50.035617],[14.565076,50.035538],[14.564964,50.035401],[14.564833,50.035218],[14.564653,50.034939],[14.564631,50.03491],[14.564587,50.034851],[14.564801,50.033602],[14.56475,50.033314],[14.563629,50.033221],[14.563475,50.033439],[14.562986,50.034158],[14.562949,50.034264],[14.562826,50.034716],[14.562667,50.035201],[14.562588,50.035511],[14.562522,50.03576],[14.562397,50.036148],[14.562252,50.036707],[14.562758,50.036778],[14.562841,50.036786],[14.563276,50.03686],[14.563834,50.036954],[14.564078,50.036995],[14.563844,50.03763],[14.563899,50.037743],[14.56437,50.037633],[14.565239,50.03743],[14.565341,50.037405],[14.565382,50.037397],[14.565534,50.037307],[14.565632,50.037238],[14.565681,50.037204],[14.565694,50.037195],[14.565843,50.037098],[14.565994,50.036995],[14.566037,50.036972],[14.566084,50.036955],[14.566134,50.036942],[14.566187,50.036934],[14.566242,50.036932],[14.566304,50.036933],[14.566365,50.036938],[14.566454,50.036949],[14.566761,50.036976],[14.566874,50.036986],[14.566801,50.03716],[14.566748,50.037473],[14.566809,50.037824],[14.56689,50.038198],[14.566936,50.038346],[14.566987,50.038509],[14.567024,50.038503],[14.567035,50.038534],[14.566997,50.03854],[14.566999,50.038548],[14.567263,50.038617],[14.567345,50.038704],[14.56816,50.038438],[14.568383,50.038365],[14.568834,50.038202],[14.569167,50.038077]]]}},{"type":"Feature","properties":{"cislo":44004,"kod":30675,"mestskaCast":"praha-petrovice"},"geometry":{"type":"Polygon","coordinates":[[[14.571956,50.03662],[14.571948,50.036614],[14.572159,50.036489],[14.57216,50.036489],[14.573069,50.035952],[14.573361,50.035759],[14.573647,50.035522],[14.573876,50.035291],[14.573921,50.035245],[14.573904,50.035238],[14.573268,50.034967],[14.573607,50.034655],[14.573704,50.034566],[14.574072,50.034227],[14.574388,50.033918],[14.574583,50.033979],[14.574928,50.034107],[14.575368,50.034297],[14.575395,50.034309],[14.575699,50.034112],[14.575193,50.033801],[14.574902,50.033621],[14.574888,50.03357],[14.574883,50.033547],[14.574874,50.033513],[14.574835,50.033363],[14.574806,50.033253],[14.573812,50.032912],[14.573508,50.032808],[14.572945,50.032524],[14.572843,50.032494],[14.572688,50.032446],[14.572621,50.032426],[14.572291,50.032305],[14.571901,50.032162],[14.571556,50.032029],[14.570959,50.032046],[14.570349,50.032062],[14.570326,50.032063],[14.570311,50.032118],[14.570287,50.032136],[14.569813,50.032479],[14.568997,50.032354],[14.568942,50.032345],[14.568692,50.032307],[14.568551,50.032285],[14.56851,50.032279],[14.568452,50.03227],[14.5684,50.03226],[14.568143,50.032209],[14.568121,50.032202],[14.567788,50.032103],[14.567428,50.031976],[14.567176,50.031887],[14.566932,50.031805],[14.566459,50.031668],[14.566076,50.031596],[14.565955,50.031554],[14.565838,50.031514],[14.565739,50.03148],[14.5653,50.031318],[14.565171,50.031318],[14.565131,50.031317],[14.565118,50.031317],[14.565066,50.031315],[14.565059,50.031315],[14.565006,50.031314],[14.564874,50.031312],[14.564812,50.031302],[14.563909,50.03116],[14.563833,50.031129],[14.563611,50.031041],[14.563414,50.030962],[14.56341,50.030961],[14.563136,50.030993],[14.563108,50.030996],[14.563102,50.030997],[14.562865,50.031025],[14.562646,50.031037],[14.562419,50.03105],[14.562229,50.031061],[14.562057,50.031071],[14.562026,50.031073],[14.561956,50.031074],[14.561458,50.031077],[14.560968,50.031018],[14.560704,50.030954],[14.560401,50.03099],[14.558928,50.031019],[14.557735,50.031371],[14.558014,50.03189],[14.558248,50.032088],[14.559312,50.03234],[14.559846,50.032477],[14.560393,50.032625],[14.560634,50.032682],[14.561274,50.032856],[14.562008,50.033047],[14.562248,50.033113],[14.562608,50.033209],[14.56301,50.033307],[14.563475,50.033439],[14.563629,50.033221],[14.56475,50.033314],[14.564801,50.033602],[14.564587,50.034851],[14.564631,50.03491],[14.564653,50.034939],[14.564833,50.035218],[14.564964,50.035401],[14.565076,50.035538],[14.565144,50.035617],[14.565168,50.035637],[14.565215,50.035678],[14.565353,50.035762],[14.565442,50.035806],[14.565614,50.035858],[14.565889,50.035891],[14.566397,50.035953],[14.566727,50.035991],[14.566755,50.035993],[14.567291,50.036058],[14.56773,50.036115],[14.569487,50.036332],[14.57012,50.036405],[14.570833,50.036495],[14.571411,50.036563],[14.571699,50.036598],[14.571956,50.03662],[14.571956,50.03662]]]}}]}
