{"type":"FeatureCollection","features":[{"type":"Feature","properties":{"cislo":24001,"kod":30377,"mestskaCast":"praha-benice"},"geometry":{"type":"Polygon","coordinates":[[[14.608209,50.02035],[14.608218,50.02035],[14.608476,50.020872],[14.608477,50.020874],[14.608672,50.021199],[14.609038,50.021049],[14.609051,50.021044],[14.609105,50.021021],[14.609115,50.021018],[14.609443,50.020883],[14.609654,50.02083],[14.60965,50.020796],[14.609613,50.020787],[14.609559,50.020741],[14.609404,50.020647],[14.609234,50.020547],[14.609002,50.020474],[14.608876,50.020427],[14.608735,50.020292],[14.608682,50.020144],[14.608667,50.020086],[14.608627,50.019893],[14.608644,50.01972],[14.608719,50.019632],[14.608837,50.019582],[14.608938,50.019511],[14.609195,50.019498],[14.609491,50.019427],[14.609552,50.019407],[14.609585,50.019397],[14.609605,50.019395],[14.609726,50.019382],[14.609917,50.019288],[14.610181,50.019168],[14.610198,50.019184],[14.610381,50.019349],[14.610769,50.019032],[14.611264,50.018892],[14.611426,50.018878],[14.611684,50.018883],[14.611209,50.01872],[14.611055,50.018638],[14.611087,50.018605],[14.611183,50.018506],[14.611237,50.018451],[14.611286,50.018414],[14.611389,50.01834],[14.611469,50.018243],[14.611502,50.01823],[14.611613,50.018162],[14.611615,50.018098],[14.611603,50.018045],[14.611554,50.017981],[14.61157,50.017895],[14.611626,50.017796],[14.611668,50.017664],[14.611828,50.017308],[14.611834,50.017216],[14.611844,50.017141],[14.611883,50.01699],[14.611928,50.016934],[14.612028,50.016841],[14.612103,50.016791],[14.612212,50.016745],[14.612207,50.016706],[14.612112,50.016668],[14.611746,50.016502],[14.611719,50.016487],[14.611692,50.016475],[14.611635,50.016447],[14.611636,50.016377],[14.611645,50.016248],[14.611617,50.016171],[14.611816,50.016067],[14.611918,50.015982],[14.61204,50.015968],[14.61214,50.01592],[14.612214,50.015857],[14.612433,50.015821],[14.612533,50.015836],[14.612725,50.015773],[14.612959,50.015697],[14.613021,50.015644],[14.61314,50.015657],[14.613411,50.015668],[14.613466,50.015639],[14.613605,50.015615],[14.613727,50.015595],[14.613804,50.015582],[14.613921,50.01554],[14.614006,50.01555],[14.6141,50.015508],[14.614212,50.015526],[14.614259,50.015502],[14.614302,50.015471],[14.614382,50.015412],[14.614382,50.015297],[14.614318,50.015223],[14.614292,50.015223],[14.614264,50.015166],[14.614249,50.015143],[14.614236,50.015123],[14.614225,50.015103],[14.614208,50.015073],[14.613706,50.014452],[14.613487,50.01422],[14.613465,50.014198],[14.613898,50.014009],[14.613914,50.014003],[14.614561,50.013768],[14.614793,50.013675],[14.615299,50.013453],[14.61535,50.013431],[14.615489,50.013362],[14.615552,50.013331],[14.615849,50.013179],[14.615878,50.013163],[14.615987,50.013102],[14.615599,50.01269],[14.615923,50.012503],[14.615947,50.012489],[14.615971,50.012476],[14.616274,50.012244],[14.615801,50.011886],[14.615637,50.011747],[14.615285,50.01145],[14.615116,50.011307],[14.615552,50.011055],[14.615778,50.010924],[14.616293,50.010594],[14.615211,50.00988],[14.614781,50.009627],[14.614719,50.009631],[14.614689,50.009633],[14.614628,50.009638],[14.614571,50.009641],[14.614159,50.00967],[14.614117,50.009508],[14.614076,50.009007],[14.614113,50.00831],[14.614113,50.008298],[14.614065,50.007597],[14.613436,50.007605],[14.613402,50.007607],[14.613392,50.007608],[14.613325,50.007613],[14.613321,50.007613],[14.613274,50.007616],[14.61328,50.007506],[14.613281,50.007482],[14.613284,50.007437],[14.613314,50.007324],[14.6134,50.007064],[14.613464,50.0069],[14.613511,50.006751],[14.61355,50.006667],[14.613623,50.006508],[14.613624,50.006488],[14.613647,50.006181],[14.61364,50.006064],[14.613628,50.005889],[14.613618,50.005788],[14.613615,50.005761],[14.613596,50.005576],[14.613586,50.005327],[14.61358,50.005167],[14.613595,50.005012],[14.613612,50.004932],[14.613664,50.004683],[14.613745,50.004422],[14.61383,50.004129],[14.613835,50.004113],[14.613846,50.004045],[14.613868,50.003908],[14.613866,50.003908],[14.613827,50.003899],[14.613598,50.00383],[14.613173,50.00355],[14.613134,50.003524],[14.612902,50.003403],[14.612803,50.003369],[14.612674,50.003324],[14.612609,50.003302],[14.612297,50.003222],[14.612085,50.003182],[14.61144,50.003103],[14.611413,50.0031],[14.610283,50.00302],[14.610272,50.00302],[14.609672,50.002975],[14.609033,50.002918],[14.609262,50.00276],[14.609353,50.002662],[14.609421,50.002571],[14.609521,50.002401],[14.609676,50.002292],[14.609883,50.002154],[14.609679,50.002027],[14.609315,50.001885],[14.6093,50.001874],[14.609244,50.001832],[14.609122,50.001858],[14.608691,50.001997],[14.608368,50.002197],[14.607951,50.00239],[14.607932,50.002496],[14.607959,50.002782],[14.60786,50.002902],[14.607832,50.002937],[14.607609,50.002894],[14.607012,50.002779],[14.605633,50.002515],[14.605594,50.002502],[14.60466,50.002184],[14.603902,50.001926],[14.603838,50.002192],[14.603755,50.00254],[14.603607,50.003154],[14.6036,50.003196],[14.603556,50.003446],[14.603548,50.003528],[14.603545,50.003551],[14.603531,50.003691],[14.603452,50.004062],[14.603355,50.004488],[14.603307,50.004698],[14.603304,50.00471],[14.603269,50.004877],[14.603196,50.005229],[14.603184,50.005288],[14.603062,50.005805],[14.60304,50.005899],[14.602946,50.006293],[14.602879,50.00649],[14.602821,50.006663],[14.602724,50.006924],[14.602682,50.007038],[14.602609,50.007214],[14.602548,50.007358],[14.602514,50.00745],[14.602484,50.007528],[14.602438,50.007649],[14.602375,50.007842],[14.602366,50.007867],[14.602346,50.007928],[14.602306,50.00829],[14.602289,50.008451],[14.602275,50.00858],[14.60227,50.008647],[14.602267,50.008701],[14.602261,50.008804],[14.602256,50.008872],[14.602251,50.008962],[14.602247,50.009016],[14.602239,50.009153],[14.60225,50.009273],[14.602265,50.009431],[14.602086,50.009435],[14.601994,50.009375],[14.601927,50.009359],[14.601638,50.009291],[14.600415,50.009002],[14.599158,50.00875],[14.598702,50.008636],[14.598465,50.008571],[14.598417,50.008558],[14.598247,50.008511],[14.597317,50.00826],[14.596642,50.008078],[14.596409,50.007991],[14.596237,50.007886],[14.596125,50.007766],[14.596016,50.007649],[14.595965,50.007595],[14.5957,50.007378],[14.594973,50.007143],[14.594831,50.007431],[14.594677,50.007746],[14.594652,50.008103],[14.594627,50.008104],[14.594628,50.008123],[14.594638,50.008231],[14.594659,50.008466],[14.594695,50.008863],[14.594965,50.009348],[14.594746,50.009625],[14.59441,50.010051],[14.594301,50.009972],[14.593854,50.009668],[14.593696,50.009599],[14.592879,50.009374],[14.592741,50.009375],[14.592728,50.009378],[14.59263,50.009398],[14.592561,50.009412],[14.591934,50.009742],[14.591839,50.009759],[14.591752,50.009739],[14.591091,50.009549],[14.591044,50.009527],[14.590831,50.009429],[14.590709,50.009372],[14.58972,50.008914],[14.589164,50.008657],[14.588993,50.008734],[14.588936,50.00876],[14.588849,50.008819],[14.588701,50.008919],[14.588579,50.009],[14.588428,50.009168],[14.588413,50.009195],[14.588305,50.009358],[14.588187,50.009538],[14.588059,50.009735],[14.587868,50.010026],[14.588258,50.010102],[14.589159,50.010277],[14.589111,50.01088],[14.589091,50.010937],[14.589065,50.01101],[14.589019,50.011138],[14.589008,50.011343],[14.588994,50.011578],[14.588919,50.011795],[14.589446,50.011894],[14.590949,50.012175],[14.591661,50.012391],[14.591469,50.012552],[14.591143,50.013053],[14.590818,50.013609],[14.592858,50.014128],[14.5949,50.014647],[14.593922,50.015709],[14.593603,50.015644],[14.59346,50.015828],[14.591366,50.015309],[14.590787,50.01518],[14.590721,50.015334],[14.59055,50.015732],[14.590471,50.015919],[14.590433,50.016007],[14.590109,50.016764],[14.591001,50.016952],[14.591629,50.017099],[14.592061,50.0172],[14.592461,50.017286],[14.59247,50.017308],[14.59255,50.017483],[14.594,50.017797],[14.594032,50.017804],[14.593785,50.018179],[14.5937,50.018289],[14.593607,50.018408],[14.593415,50.018634],[14.593135,50.018908],[14.593329,50.018985],[14.593556,50.019026],[14.593818,50.019031],[14.594138,50.018977],[14.594341,50.018974],[14.594897,50.01907],[14.595881,50.01778],[14.596519,50.018085],[14.596534,50.018191],[14.596633,50.018288],[14.596553,50.018614],[14.596458,50.018799],[14.596391,50.018834],[14.59634,50.018832],[14.596295,50.01883],[14.596227,50.018863],[14.596191,50.018867],[14.596014,50.018884],[14.596078,50.01899],[14.59607,50.01907],[14.59596,50.019118],[14.595866,50.019207],[14.595918,50.019246],[14.596202,50.019462],[14.59622,50.019475],[14.596557,50.019313],[14.596957,50.01912],[14.59709,50.019073],[14.597309,50.019562],[14.597273,50.01963],[14.59706,50.019674],[14.596526,50.019664],[14.596086,50.019711],[14.596127,50.019788],[14.596286,50.020089],[14.596362,50.020234],[14.596036,50.020475],[14.596009,50.020495],[14.595689,50.020268],[14.595633,50.020254],[14.595396,50.020198],[14.595055,50.020116],[14.594533,50.020375],[14.594021,50.020679],[14.594166,50.020863],[14.594312,50.021046],[14.59419,50.021125],[14.593843,50.021202],[14.59361,50.021223],[14.593462,50.021236],[14.593354,50.021011],[14.593336,50.020972],[14.592533,50.02117],[14.592062,50.021266],[14.591901,50.0213],[14.591766,50.021328],[14.591603,50.021362],[14.59112,50.021455],[14.591202,50.021579],[14.591257,50.021694],[14.591371,50.02185],[14.591496,50.021986],[14.591757,50.02223],[14.592196,50.022588],[14.592589,50.022909],[14.592478,50.022966],[14.592276,50.02307],[14.591842,50.023271],[14.59167,50.023125],[14.591483,50.023215],[14.591338,50.023295],[14.591185,50.02338],[14.590962,50.023518],[14.590668,50.023718],[14.590448,50.023854],[14.590166,50.024019],[14.590107,50.024053],[14.590095,50.024061],[14.590076,50.024072],[14.59004,50.024092],[14.590966,50.024779],[14.591479,50.025164],[14.591822,50.025433],[14.592774,50.026129],[14.592822,50.0261],[14.592921,50.026157],[14.593323,50.02589],[14.593842,50.025609],[14.594178,50.025423],[14.594695,50.02514],[14.595699,50.024539],[14.596264,50.024153],[14.596296,50.024131],[14.596467,50.024002],[14.596653,50.023863],[14.59683,50.02373],[14.596973,50.023623],[14.597102,50.023516],[14.597333,50.023324],[14.597366,50.023296],[14.597534,50.023157],[14.597735,50.022989],[14.597749,50.022977],[14.597957,50.022845],[14.59802,50.022805],[14.598198,50.022684],[14.598242,50.022654],[14.598711,50.02231],[14.598779,50.02226],[14.599092,50.02203],[14.59911,50.022017],[14.599255,50.021903],[14.599393,50.021794],[14.59948,50.021726],[14.599542,50.021678],[14.59967,50.02158],[14.599982,50.021329],[14.600367,50.020981],[14.600447,50.021021],[14.600562,50.021074],[14.600702,50.02115],[14.60096,50.021311],[14.6011,50.021398],[14.601275,50.02149],[14.601617,50.021626],[14.601902,50.021446],[14.601936,50.021426],[14.60219,50.02128],[14.602503,50.021113],[14.602524,50.021102],[14.602739,50.020987],[14.602921,50.020916],[14.603185,50.020816],[14.603258,50.020788],[14.603774,50.020657],[14.604018,50.020603],[14.60419,50.020585],[14.60434,50.020587],[14.604546,50.020617],[14.604595,50.020614],[14.604602,50.020614],[14.604684,50.020609],[14.604688,50.020608],[14.604723,50.020606],[14.605189,50.020596],[14.60553,50.020568],[14.606136,50.020481],[14.606319,50.020465],[14.607026,50.020418],[14.60782,50.020387],[14.608022,50.020365],[14.608047,50.020363],[14.608061,50.020362],[14.608209,50.02035]]]}}]}
