{"type":"FeatureCollection","features":[{"type":"Feature","properties":{"cislo":37001,"kod":28903,"mestskaCast":"praha-kunratice"},"geometry":{"type":"Polygon","coordinates":[[[14.468388,50.016889],[14.468388,50.016889],[14.468394,50.016885],[14.468518,50.016832],[14.470064,50.01764],[14.478091,50.021561],[14.482054,50.019079],[14.484715,50.018088],[14.485037,50.017436],[14.486058,50.016473],[14.486215,50.016197],[14.486041,50.016154],[14.48616,50.015992],[14.485855,50.015902],[14.485767,50.015985],[14.485769,50.016112],[14.484827,50.016101],[14.484743,50.01643],[14.484698,50.016444],[14.484314,50.016528],[14.48428,50.016489],[14.483872,50.016489],[14.483868,50.01677],[14.483574,50.016762],[14.483499,50.017119],[14.483416,50.017111],[14.483064,50.017108],[14.483075,50.016791],[14.483517,50.016766],[14.483546,50.016098],[14.483489,50.016102],[14.483063,50.016118],[14.482136,50.016173],[14.481268,50.016214],[14.481195,50.016226],[14.48119,50.015917],[14.481843,50.015829],[14.481794,50.014863],[14.481451,50.014824],[14.481446,50.014778],[14.481458,50.014589],[14.48147,50.014335],[14.481751,50.014406],[14.481795,50.014328],[14.482178,50.014316],[14.482288,50.013999],[14.481947,50.013878],[14.481649,50.013825],[14.481661,50.013699],[14.481634,50.013696],[14.481576,50.013701],[14.481578,50.013692],[14.481456,50.013672],[14.481177,50.013656],[14.479631,50.013248],[14.479427,50.013475],[14.479072,50.013425],[14.478667,50.013145],[14.478574,50.013118],[14.478444,50.013197],[14.477712,50.012797],[14.477956,50.012646],[14.477669,50.012539],[14.477631,50.012581],[14.477353,50.012765],[14.477204,50.012671],[14.477021,50.012736],[14.476898,50.012653],[14.477174,50.01235],[14.476328,50.012022],[14.476382,50.011836],[14.476583,50.011681],[14.476747,50.011505],[14.477087,50.011036],[14.479025,50.008339],[14.479481,50.007653],[14.480322,50.0078],[14.480754,50.006894],[14.479932,50.006722],[14.479951,50.006696],[14.480378,50.005881],[14.480478,50.005672],[14.480824,50.004641],[14.481006,50.004248],[14.482037,50.002706],[14.484306,50.003096],[14.485546,50.003287],[14.485922,50.002976],[14.487513,50.002444],[14.488632,50.002017],[14.489994,50.001701],[14.490834,50.001194],[14.49131,50.00081],[14.491875,50.000133],[14.492231,49.999584],[14.493185,49.999668],[14.493685,49.999567],[14.494372,49.999446],[14.495115,49.99933],[14.496082,49.999152],[14.496767,49.99904],[14.496945,49.999058],[14.496973,49.999053],[14.497052,49.999065],[14.497115,49.999075],[14.497378,49.999118],[14.497405,49.999122],[14.497401,49.999114],[14.497396,49.999105],[14.49739,49.999093],[14.497368,49.999089],[14.496863,49.999018],[14.496766,49.999025],[14.49683,49.998994],[14.497147,49.99879],[14.497383,49.998637],[14.497541,49.998488],[14.497561,49.998468],[14.49757,49.998459],[14.497245,49.998375],[14.497083,49.998364],[14.496767,49.998447],[14.497155,49.997829],[14.497166,49.997812],[14.497122,49.997812],[14.497115,49.997823],[14.497093,49.997856],[14.497045,49.997935],[14.496705,49.998492],[14.496663,49.998635],[14.496065,49.998504],[14.496214,49.998379],[14.496339,49.998274],[14.496443,49.998187],[14.496528,49.998116],[14.4967,49.99777],[14.496706,49.997758],[14.497083,49.997479],[14.497115,49.997455],[14.497134,49.997442],[14.497157,49.997425],[14.497137,49.997402],[14.497085,49.99744],[14.496722,49.997716],[14.496795,49.997297],[14.496826,49.996896],[14.496841,49.996702],[14.496844,49.996671],[14.496866,49.996097],[14.496879,49.995871],[14.496883,49.995809],[14.496891,49.995691],[14.496918,49.995265],[14.496878,49.995257],[14.49687,49.995256],[14.496853,49.995252],[14.496126,49.99509],[14.494588,49.994752],[14.494445,49.994721],[14.493706,49.994557],[14.493623,49.994539],[14.492948,49.994388],[14.492798,49.994362],[14.492726,49.994349],[14.492307,49.994258],[14.490887,49.99395],[14.490176,49.993786],[14.48869,49.993444],[14.488455,49.993402],[14.487009,49.993096],[14.486961,49.993085],[14.486943,49.993081],[14.486906,49.993072],[14.486886,49.993068],[14.486867,49.993063],[14.486845,49.993058],[14.485634,49.992784],[14.484312,49.9925],[14.483935,49.992419],[14.483823,49.992669],[14.484185,49.992783],[14.484068,49.993028],[14.484018,49.993133],[14.483897,49.993387],[14.483874,49.993437],[14.483855,49.993476],[14.483808,49.993575],[14.483798,49.993602],[14.48379,49.993625],[14.483712,49.993846],[14.483711,49.993848],[14.483682,49.993893],[14.483562,49.994078],[14.483492,49.994185],[14.48341,49.99431],[14.483258,49.994544],[14.483086,49.994808],[14.48277,49.994769],[14.482675,49.994758],[14.482311,49.994713],[14.482149,49.994975],[14.482087,49.995008],[14.48185,49.995134],[14.481615,49.995242],[14.481572,49.995261],[14.481394,49.995343],[14.480906,49.995385],[14.480897,49.995311],[14.480001,49.995377],[14.479659,49.995386],[14.479545,49.995388],[14.479334,49.995384],[14.478856,49.995375],[14.478829,49.995372],[14.478273,49.995326],[14.478183,49.995319],[14.478157,49.995317],[14.478141,49.995344],[14.478027,49.995541],[14.477968,49.995643],[14.477864,49.995727],[14.477793,49.995785],[14.477456,49.996058],[14.477396,49.996106],[14.477219,49.99625],[14.477171,49.996288],[14.477133,49.996319],[14.47681,49.99658],[14.476661,49.996776],[14.476554,49.996917],[14.476547,49.997085],[14.476545,49.997143],[14.476545,49.997148],[14.476545,49.997153],[14.476541,49.997264],[14.476538,49.997332],[14.476536,49.997386],[14.476487,49.99754],[14.476473,49.997585],[14.476344,49.99784],[14.476351,49.997969],[14.476323,49.997984],[14.476022,49.998146],[14.47598,49.998192],[14.475977,49.998195],[14.475912,49.998268],[14.475882,49.998301],[14.475873,49.998311],[14.475839,49.998348],[14.475839,49.998348],[14.47582,49.998397],[14.475813,49.998413],[14.475781,49.998495],[14.475772,49.998518],[14.475632,49.998874],[14.475512,49.999097],[14.475336,49.999363],[14.474281,50.000705],[14.474044,50.000973],[14.474028,50.000992],[14.474006,50.001016],[14.473985,50.00104],[14.473922,50.001111],[14.473895,50.001141],[14.473877,50.001162],[14.473872,50.001168],[14.473869,50.00117],[14.473684,50.001381],[14.473504,50.001629],[14.473544,50.001632],[14.47409,50.001673],[14.474098,50.001674],[14.474124,50.001676],[14.474201,50.001681],[14.475655,50.00179],[14.475817,50.001802],[14.475906,50.001809],[14.476203,50.001831],[14.476283,50.001837],[14.476261,50.001961],[14.476257,50.001981],[14.47624,50.002079],[14.476079,50.002989],[14.476073,50.00302],[14.476072,50.003027],[14.476069,50.003044],[14.475916,50.003912],[14.475835,50.004365],[14.475319,50.004325],[14.47466,50.004275],[14.474251,50.004244],[14.474178,50.004239],[14.474145,50.004236],[14.473865,50.004215],[14.473876,50.004153],[14.473934,50.00383],[14.473919,50.003829],[14.471796,50.003672],[14.471731,50.003776],[14.4716,50.003985],[14.471585,50.004009],[14.471342,50.004397],[14.471248,50.004378],[14.470805,50.004285],[14.470662,50.004574],[14.470337,50.00523],[14.470157,50.005593],[14.470046,50.005817],[14.469795,50.006324],[14.469778,50.006378],[14.469776,50.006387],[14.469648,50.006654],[14.469468,50.00703],[14.469467,50.007033],[14.469413,50.007145],[14.469411,50.007149],[14.469408,50.007155],[14.469362,50.007251],[14.469209,50.00757],[14.468866,50.008288],[14.468847,50.008317],[14.468668,50.008692],[14.46854,50.008959],[14.468444,50.009159],[14.468406,50.009239],[14.468179,50.009713],[14.468116,50.009844],[14.468023,50.010039],[14.467947,50.010197],[14.467895,50.010302],[14.467671,50.010775],[14.467447,50.011248],[14.467113,50.011952],[14.466996,50.012198],[14.466826,50.012556],[14.466621,50.012984],[14.466529,50.013176],[14.466465,50.01331],[14.466375,50.013588],[14.466271,50.013624],[14.465389,50.013924],[14.465369,50.013931],[14.465193,50.01399],[14.465025,50.014047],[14.464934,50.014078],[14.464787,50.014129],[14.464537,50.014189],[14.464497,50.014198],[14.46435,50.014234],[14.464622,50.014277],[14.464696,50.014289],[14.465046,50.014345],[14.464992,50.014475],[14.464914,50.014661],[14.464865,50.014779],[14.464805,50.014921],[14.464735,50.015089],[14.464611,50.015385],[14.464586,50.015444],[14.464514,50.015615],[14.464502,50.015646],[14.46447,50.015721],[14.46438,50.015936],[14.464362,50.01598],[14.464582,50.016055],[14.4647,50.016086],[14.464728,50.016094],[14.464991,50.016163],[14.465008,50.016167],[14.465015,50.016169],[14.46525,50.016221],[14.465438,50.016263],[14.465474,50.01627],[14.465583,50.016291],[14.465634,50.016301],[14.465662,50.016306],[14.466144,50.016385],[14.466148,50.016386],[14.466209,50.016396],[14.466261,50.016404],[14.466305,50.016412],[14.466335,50.016416],[14.466345,50.016418],[14.466446,50.016435],[14.466492,50.016444],[14.46659,50.016464],[14.466599,50.016466],[14.466892,50.016526],[14.466918,50.016531],[14.467229,50.016607],[14.467232,50.016607],[14.467538,50.016661],[14.467734,50.016686],[14.467856,50.016699],[14.467906,50.016712],[14.467967,50.016716],[14.468096,50.016725],[14.468257,50.016813],[14.468276,50.016824],[14.468386,50.016888],[14.468388,50.016889]]]}},{"type":"Feature","properties":{"cislo":37002,"kod":28905,"mestskaCast":"praha-kunratice"},"geometry":{"type":"Polygon","coordinates":[[[14.495568,50.007499],[14.500611,50.005728],[14.500609,50.005726],[14.500584,50.005712],[14.500558,50.005697],[14.500455,50.005637],[14.500437,50.005626],[14.500359,50.005581],[14.500453,50.005557],[14.500459,50.005551],[14.500488,50.00552],[14.500506,50.0055],[14.500498,50.005427],[14.500165,50.004753],[14.500091,50.004603],[14.499757,50.003984],[14.499722,50.00392],[14.49943,50.003296],[14.499332,50.003082],[14.499252,50.002945],[14.499159,50.002844],[14.499037,50.002745],[14.4989,50.002656],[14.498714,50.002562],[14.49849,50.002468],[14.498425,50.002441],[14.498163,50.002349],[14.498064,50.002314],[14.497899,50.002263],[14.497694,50.0022],[14.496849,50.001896],[14.496652,50.001822],[14.496256,50.001675],[14.495978,50.001565],[14.495261,50.001334],[14.494712,50.001191],[14.494362,50.001081],[14.494796,50.001072],[14.494934,50.00107],[14.495021,50.001049],[14.495097,50.001032],[14.495108,50.001029],[14.495254,50.000995],[14.496213,50.000926],[14.496532,50.000999],[14.49655,50.001003],[14.497031,50.001014],[14.497368,50.001031],[14.497679,50.001046],[14.497698,50.001012],[14.497795,50.000834],[14.497815,50.000798],[14.498001,50.00049],[14.498006,50.000482],[14.498021,50.000456],[14.497559,50.000419],[14.497303,50.000398],[14.497143,50.000373],[14.497127,50.000142],[14.49728,50.000167],[14.49716,49.999953],[14.497112,49.999868],[14.496996,49.999657],[14.49697,49.999609],[14.496959,49.999587],[14.496935,49.999544],[14.496907,49.999493],[14.496895,49.99947],[14.496798,49.999292],[14.496574,49.999342],[14.496464,49.99913],[14.496696,49.999105],[14.496945,49.999058],[14.496767,49.99904],[14.496082,49.999152],[14.495115,49.99933],[14.494372,49.999446],[14.493685,49.999567],[14.493185,49.999668],[14.492231,49.999584],[14.491875,50.000133],[14.49131,50.00081],[14.490834,50.001194],[14.489994,50.001701],[14.488632,50.002017],[14.487513,50.002444],[14.485922,50.002976],[14.485546,50.003287],[14.484306,50.003096],[14.482037,50.002706],[14.481006,50.004248],[14.480824,50.004641],[14.480478,50.005672],[14.480378,50.005881],[14.479951,50.006696],[14.479932,50.006722],[14.480754,50.006894],[14.480322,50.0078],[14.479481,50.007653],[14.479025,50.008339],[14.477087,50.011036],[14.476747,50.011505],[14.476583,50.011681],[14.476382,50.011836],[14.476328,50.012022],[14.477174,50.01235],[14.476898,50.012653],[14.477021,50.012736],[14.477204,50.012671],[14.477353,50.012765],[14.477631,50.012581],[14.477669,50.012539],[14.477956,50.012646],[14.477712,50.012797],[14.478444,50.013197],[14.478574,50.013118],[14.478667,50.013145],[14.479072,50.013425],[14.479427,50.013475],[14.479631,50.013248],[14.481177,50.013656],[14.481456,50.013672],[14.481578,50.013692],[14.481576,50.013701],[14.481634,50.013696],[14.481661,50.013699],[14.481649,50.013825],[14.481947,50.013878],[14.482288,50.013999],[14.482961,50.014013],[14.482935,50.014201],[14.484617,50.014105],[14.484499,50.013668],[14.484364,50.013374],[14.484457,50.013265],[14.484501,50.01306],[14.484877,50.013011],[14.484851,50.012936],[14.484965,50.012928],[14.485007,50.012932],[14.485165,50.012919],[14.48519,50.013066],[14.485584,50.013065],[14.485668,50.013135],[14.485908,50.013129],[14.48592,50.01314],[14.486108,50.01312],[14.486124,50.013375],[14.486307,50.013373],[14.486422,50.013365],[14.486637,50.013348],[14.486512,50.013074],[14.486894,50.012998],[14.486722,50.012811],[14.486631,50.012712],[14.487122,50.012519],[14.487094,50.012453],[14.486592,50.011901],[14.486837,50.011805],[14.486839,50.011796],[14.48715,50.01166],[14.48649,50.010985],[14.486476,50.010983],[14.485551,50.009967],[14.48549,50.009925],[14.485492,50.009916],[14.485201,50.009628],[14.485126,50.009648],[14.484955,50.009524],[14.484576,50.009518],[14.484581,50.009364],[14.485097,50.009056],[14.485573,50.008871],[14.485639,50.008822],[14.487592,50.007052],[14.492099,50.007912],[14.491671,50.008201],[14.493921,50.008681],[14.495568,50.007499]]]}},{"type":"Feature","properties":{"cislo":37003,"kod":28907,"mestskaCast":"praha-kunratice"},"geometry":{"type":"Polygon","coordinates":[[[14.482288,50.013999],[14.482178,50.014316],[14.481795,50.014328],[14.481751,50.014406],[14.48147,50.014335],[14.481458,50.014589],[14.481446,50.014778],[14.481451,50.014824],[14.481794,50.014863],[14.481843,50.015829],[14.48119,50.015917],[14.481195,50.016226],[14.481268,50.016214],[14.482136,50.016173],[14.483063,50.016118],[14.483489,50.016102],[14.483546,50.016098],[14.483517,50.016766],[14.483075,50.016791],[14.483064,50.017108],[14.483416,50.017111],[14.483499,50.017119],[14.483574,50.016762],[14.483868,50.01677],[14.483872,50.016489],[14.48428,50.016489],[14.484314,50.016528],[14.484698,50.016444],[14.484743,50.01643],[14.484827,50.016101],[14.485769,50.016112],[14.485767,50.015985],[14.485855,50.015902],[14.48616,50.015992],[14.486041,50.016154],[14.486215,50.016197],[14.486058,50.016473],[14.486888,50.01661],[14.487089,50.016591],[14.487788,50.016616],[14.487902,50.016808],[14.488212,50.016808],[14.488327,50.016664],[14.488405,50.016698],[14.488565,50.016939],[14.488621,50.017071],[14.488796,50.017177],[14.489018,50.017124],[14.488966,50.017038],[14.488988,50.017003],[14.489594,50.016866],[14.489287,50.016122],[14.489416,50.01578],[14.490424,50.015678],[14.491503,50.0157],[14.492484,50.01566],[14.49285,50.015529],[14.493022,50.015181],[14.493831,50.015216],[14.494774,50.014555],[14.495378,50.014363],[14.495875,50.01408],[14.49676,50.013622],[14.497576,50.013494],[14.497887,50.013358],[14.498221,50.013243],[14.498351,50.013227],[14.498712,50.01305],[14.499367,50.012754],[14.500366,50.012224],[14.500982,50.011907],[14.50151,50.012343],[14.501977,50.012568],[14.50289,50.012734],[14.502957,50.012661],[14.502994,50.012619],[14.503036,50.012573],[14.503221,50.012342],[14.503348,50.012095],[14.503366,50.012038],[14.503427,50.011841],[14.503433,50.011637],[14.503428,50.011389],[14.503395,50.011151],[14.503395,50.011146],[14.503361,50.011109],[14.503284,50.011023],[14.503197,50.010926],[14.503182,50.01091],[14.503014,50.010893],[14.503156,50.010735],[14.50314,50.010666],[14.503129,50.010642],[14.503081,50.010535],[14.503011,50.010319],[14.502959,50.010173],[14.502919,50.01006],[14.502662,50.009334],[14.502157,50.008474],[14.502028,50.008256],[14.502006,50.008218],[14.502005,50.008216],[14.50172,50.007731],[14.501718,50.007728],[14.501648,50.007609],[14.501634,50.007576],[14.501313,50.0069],[14.501214,50.006691],[14.500809,50.005889],[14.50078,50.005832],[14.500711,50.005762],[14.500611,50.005728],[14.495568,50.007499],[14.493921,50.008681],[14.491671,50.008201],[14.492099,50.007912],[14.487592,50.007052],[14.485639,50.008822],[14.485573,50.008871],[14.485097,50.009056],[14.484581,50.009364],[14.484576,50.009518],[14.484955,50.009524],[14.485126,50.009648],[14.485201,50.009628],[14.485492,50.009916],[14.48549,50.009925],[14.485551,50.009967],[14.486476,50.010983],[14.48649,50.010985],[14.48715,50.01166],[14.486839,50.011796],[14.486837,50.011805],[14.486592,50.011901],[14.487094,50.012453],[14.487122,50.012519],[14.486631,50.012712],[14.486722,50.012811],[14.486894,50.012998],[14.486512,50.013074],[14.486637,50.013348],[14.486422,50.013365],[14.486307,50.013373],[14.486124,50.013375],[14.486108,50.01312],[14.48592,50.01314],[14.485908,50.013129],[14.485668,50.013135],[14.485584,50.013065],[14.48519,50.013066],[14.485165,50.012919],[14.485007,50.012932],[14.484965,50.012928],[14.484851,50.012936],[14.484877,50.013011],[14.484501,50.01306],[14.484457,50.013265],[14.484364,50.013374],[14.484499,50.013668],[14.484617,50.014105],[14.482935,50.014201],[14.482961,50.014013],[14.482288,50.013999]]]}},{"type":"Feature","properties":{"cislo":37004,"kod":28909,"mestskaCast":"praha-kunratice"},"geometry":{"type":"Polygon","coordinates":[[[14.477167,50.029755],[14.477167,50.029755],[14.477171,50.029738],[14.478091,50.021561],[14.470064,50.01764],[14.468518,50.016832],[14.468394,50.016885],[14.468388,50.016889],[14.468388,50.016889],[14.468408,50.0169],[14.468375,50.016959],[14.468328,50.017043],[14.468283,50.017264],[14.468045,50.017886],[14.46802,50.017915],[14.467997,50.017938],[14.467441,50.018498],[14.466781,50.019154],[14.46543,50.01995],[14.465037,50.020146],[14.46479,50.02027],[14.464685,50.020322],[14.46448,50.020424],[14.464472,50.020428],[14.464403,50.020464],[14.464403,50.020465],[14.464361,50.020487],[14.464351,50.020491],[14.464298,50.020519],[14.464266,50.020536],[14.463815,50.020772],[14.46374,50.020721],[14.463733,50.020716],[14.463679,50.020678],[14.463171,50.02101],[14.462939,50.021162],[14.462916,50.021146],[14.462863,50.021111],[14.462825,50.021086],[14.462812,50.021077],[14.462789,50.021062],[14.462609,50.021113],[14.462362,50.021185],[14.462267,50.021212],[14.461829,50.021439],[14.461782,50.021464],[14.461918,50.021612],[14.461965,50.021663],[14.46197,50.021668],[14.462032,50.021699],[14.462065,50.021716],[14.46207,50.021718],[14.462121,50.021742],[14.462145,50.021754],[14.462209,50.021784],[14.462356,50.021872],[14.462361,50.021875],[14.462536,50.021919],[14.462644,50.021954],[14.462762,50.021992],[14.462828,50.022013],[14.462833,50.022015],[14.462867,50.022025],[14.462877,50.02203],[14.462958,50.022067],[14.463107,50.022136],[14.46323,50.022193],[14.463433,50.02237],[14.463454,50.022387],[14.463516,50.022441],[14.463784,50.022463],[14.463972,50.022462],[14.464011,50.022461],[14.464099,50.022461],[14.464901,50.022717],[14.465279,50.022884],[14.46532,50.022902],[14.465661,50.023079],[14.465793,50.023155],[14.465943,50.023242],[14.466114,50.023361],[14.466179,50.023406],[14.466193,50.023416],[14.466188,50.02342],[14.466156,50.023448],[14.46541,50.023722],[14.465267,50.023775],[14.464748,50.023978],[14.46464,50.024021],[14.464395,50.024117],[14.46397,50.024255],[14.463747,50.024351],[14.463484,50.024464],[14.46348,50.024466],[14.4633,50.024519],[14.463009,50.024606],[14.462883,50.024804],[14.462805,50.024825],[14.462657,50.024866],[14.462587,50.024885],[14.46254,50.024898],[14.462177,50.025015],[14.461695,50.02512],[14.461489,50.025132],[14.461059,50.025267],[14.460509,50.025471],[14.460147,50.025643],[14.45985,50.026016],[14.459711,50.026218],[14.459631,50.026345],[14.459579,50.026438],[14.459576,50.026557],[14.45964,50.026879],[14.45979,50.027066],[14.459807,50.027087],[14.459879,50.027282],[14.45996,50.027409],[14.460109,50.027574],[14.460514,50.027917],[14.460777,50.028102],[14.461161,50.028342],[14.461406,50.028475],[14.461359,50.028541],[14.461332,50.028579],[14.46128,50.028652],[14.461261,50.028679],[14.461204,50.028758],[14.461131,50.02885],[14.460926,50.029107],[14.46098,50.029122],[14.461052,50.029141],[14.461326,50.029215],[14.461371,50.029237],[14.461392,50.029248],[14.461394,50.029249],[14.461439,50.029271],[14.461544,50.029323],[14.461639,50.029401],[14.461758,50.029531],[14.461897,50.029684],[14.461928,50.02972],[14.461929,50.029721],[14.46196,50.029757],[14.461965,50.029773],[14.461976,50.029812],[14.462347,50.029788],[14.462436,50.029783],[14.462674,50.029848],[14.462784,50.029894],[14.462914,50.029961],[14.463128,50.030088],[14.463142,50.030104],[14.463233,50.030211],[14.463416,50.030494],[14.463364,50.030648],[14.463481,50.030803],[14.464033,50.030915],[14.464115,50.030896],[14.464233,50.030865],[14.464563,50.030871],[14.464853,50.03078],[14.465108,50.030645],[14.465305,50.030571],[14.466065,50.03049],[14.466716,50.030439],[14.467401,50.030346],[14.467716,50.030322],[14.468433,50.030366],[14.468626,50.030358],[14.469543,50.030184],[14.470627,50.03015],[14.471062,50.030137],[14.471266,50.03003],[14.471512,50.02995],[14.471927,50.029861],[14.472254,50.029825],[14.472414,50.029749],[14.472923,50.029704],[14.473384,50.029685],[14.474088,50.029722],[14.47445,50.029675],[14.474869,50.029689],[14.475365,50.029699],[14.47629,50.029759],[14.477167,50.029755]]]}},{"type":"Feature","properties":{"cislo":37005,"kod":28911,"mestskaCast":"praha-kunratice"},"geometry":{"type":"Polygon","coordinates":[[[14.478091,50.021561],[14.477171,50.029738],[14.477167,50.029755],[14.477167,50.029755],[14.477235,50.029755],[14.477413,50.029706],[14.477804,50.0296],[14.478137,50.029565],[14.478168,50.029562],[14.478651,50.029525],[14.479684,50.029502],[14.479822,50.029475],[14.480974,50.029052],[14.480991,50.029046],[14.480993,50.029046],[14.481111,50.029],[14.481896,50.028862],[14.483072,50.028674],[14.484191,50.028749],[14.484505,50.028771],[14.48452,50.028772],[14.484561,50.028775],[14.485416,50.028833],[14.48549,50.028839],[14.485989,50.02888],[14.486042,50.028882],[14.486084,50.028884],[14.486637,50.028911],[14.48667,50.028913],[14.487258,50.028942],[14.487692,50.028948],[14.487698,50.028949],[14.487653,50.028658],[14.487639,50.027937],[14.487693,50.027159],[14.48781,50.026301],[14.487946,50.026164],[14.48795,50.026096],[14.487954,50.026022],[14.487966,50.025819],[14.487969,50.025772],[14.487981,50.025569],[14.487984,50.025517],[14.488015,50.025023],[14.488045,50.024512],[14.488055,50.024374],[14.488063,50.024253],[14.488072,50.024128],[14.488077,50.024103],[14.488124,50.023859],[14.488176,50.023728],[14.488184,50.023706],[14.488252,50.023537],[14.488416,50.023262],[14.488478,50.023134],[14.488499,50.02311],[14.488652,50.022937],[14.488668,50.022924],[14.488788,50.022833],[14.488894,50.02274],[14.488913,50.022723],[14.488937,50.022701],[14.488961,50.02268],[14.489054,50.022609],[14.489052,50.022608],[14.487974,50.022314],[14.487731,50.022329],[14.487643,50.022212],[14.486964,50.021962],[14.487059,50.021843],[14.48722,50.021485],[14.487598,50.021364],[14.487302,50.020966],[14.487349,50.020743],[14.487437,50.020597],[14.489019,50.020173],[14.490131,50.020044],[14.489906,50.01978],[14.48989,50.019524],[14.490063,50.019104],[14.490198,50.018734],[14.490026,50.018483],[14.489685,50.018099],[14.488988,50.017003],[14.488966,50.017038],[14.489018,50.017124],[14.488796,50.017177],[14.488621,50.017071],[14.488565,50.016939],[14.488405,50.016698],[14.488327,50.016664],[14.488212,50.016808],[14.487902,50.016808],[14.487788,50.016616],[14.487089,50.016591],[14.486888,50.01661],[14.486058,50.016473],[14.485037,50.017436],[14.484715,50.018088],[14.482054,50.019079],[14.478091,50.021561]]]}},{"type":"Feature","properties":{"cislo":37006,"kod":28913,"mestskaCast":"praha-kunratice"},"geometry":{"type":"Polygon","coordinates":[[[14.489054,50.022609],[14.48914,50.022543],[14.489415,50.022363],[14.489493,50.022322],[14.489805,50.022158],[14.490219,50.021987],[14.490524,50.021887],[14.490664,50.021842],[14.491106,50.021741],[14.491497,50.021678],[14.491604,50.021666],[14.491884,50.021636],[14.491962,50.021627],[14.492733,50.021544],[14.493051,50.02151],[14.493116,50.021503],[14.493497,50.021462],[14.494267,50.021379],[14.494493,50.021354],[14.495015,50.021297],[14.495422,50.021251],[14.495784,50.021205],[14.496005,50.021174],[14.49611,50.02116],[14.496136,50.021157],[14.496156,50.021154],[14.496169,50.021152],[14.496185,50.02115],[14.496544,50.021094],[14.496912,50.02103],[14.497292,50.020956],[14.49765,50.02088],[14.498027,50.020795],[14.498386,50.020708],[14.498912,50.020578],[14.499158,50.020482],[14.499145,50.020464],[14.499255,50.020435],[14.499385,50.020402],[14.499517,50.020367],[14.499593,50.020348],[14.500164,50.020198],[14.500298,50.020165],[14.500299,50.020159],[14.500358,50.019898],[14.500505,50.019247],[14.500811,50.017991],[14.500884,50.017727],[14.500889,50.017712],[14.500892,50.017705],[14.500975,50.017333],[14.501007,50.01719],[14.501127,50.016656],[14.501247,50.016149],[14.501251,50.016135],[14.50125,50.016117],[14.501317,50.015855],[14.501333,50.015791],[14.501432,50.015404],[14.501463,50.015283],[14.501608,50.01476],[14.501831,50.014235],[14.501831,50.014234],[14.502039,50.013877],[14.50206,50.013839],[14.502128,50.013747],[14.50289,50.012734],[14.501977,50.012568],[14.50151,50.012343],[14.500982,50.011907],[14.500366,50.012224],[14.499367,50.012754],[14.498712,50.01305],[14.498351,50.013227],[14.498221,50.013243],[14.497887,50.013358],[14.497576,50.013494],[14.49676,50.013622],[14.495875,50.01408],[14.495378,50.014363],[14.494774,50.014555],[14.493831,50.015216],[14.493022,50.015181],[14.49285,50.015529],[14.492484,50.01566],[14.491503,50.0157],[14.490424,50.015678],[14.489416,50.01578],[14.489287,50.016122],[14.489594,50.016866],[14.488988,50.017003],[14.489685,50.018099],[14.490026,50.018483],[14.490198,50.018734],[14.490063,50.019104],[14.48989,50.019524],[14.489906,50.01978],[14.490131,50.020044],[14.489019,50.020173],[14.487437,50.020597],[14.487349,50.020743],[14.487302,50.020966],[14.487598,50.021364],[14.48722,50.021485],[14.487059,50.021843],[14.486964,50.021962],[14.487643,50.022212],[14.487731,50.022329],[14.487974,50.022314],[14.489052,50.022608],[14.489054,50.022609]]]}}]}
