{"type":"FeatureCollection","features":[{"type":"Feature","properties":{"cislo":50001,"kod":30733,"mestskaCast":"praha-seberov"},"geometry":{"type":"Polygon","coordinates":[[[14.513922,50.020234],[14.514022,50.020192],[14.514555,50.019946],[14.514715,50.019876],[14.515069,50.019722],[14.515191,50.019687],[14.515198,50.019684],[14.515238,50.019673],[14.515246,50.019671],[14.515329,50.019647],[14.515485,50.019605],[14.516187,50.019333],[14.516768,50.019121],[14.517005,50.019022],[14.517147,50.018965],[14.517274,50.018918],[14.517458,50.01885],[14.517673,50.018771],[14.517893,50.018682],[14.517964,50.018653],[14.518026,50.018627],[14.518106,50.018595],[14.518704,50.018329],[14.519057,50.018188],[14.519189,50.018136],[14.519507,50.018005],[14.519805,50.017889],[14.519854,50.017862],[14.519969,50.017757],[14.520077,50.01767],[14.520204,50.017554],[14.520317,50.017334],[14.520271,50.017239],[14.520359,50.017226],[14.520535,50.017264],[14.520537,50.017264],[14.520568,50.017266],[14.52084,50.017281],[14.52123,50.017208],[14.521461,50.017148],[14.521685,50.01709],[14.521719,50.017088],[14.521785,50.017085],[14.5219,50.017079],[14.522684,50.01679],[14.523116,50.01662],[14.523727,50.016384],[14.523731,50.016382],[14.52379,50.016359],[14.524304,50.016155],[14.52481,50.015949],[14.524997,50.01588],[14.525386,50.015736],[14.525614,50.015646],[14.525962,50.015508],[14.526414,50.015342],[14.526585,50.015279],[14.526795,50.015198],[14.527197,50.015043],[14.527411,50.014961],[14.527745,50.014833],[14.527758,50.014828],[14.528179,50.014658],[14.528296,50.014613],[14.528595,50.014498],[14.528747,50.014437],[14.529193,50.014255],[14.529225,50.014243],[14.52957,50.014101],[14.529716,50.014041],[14.530107,50.013893],[14.530322,50.013808],[14.53037,50.013789],[14.53041,50.013774],[14.530631,50.013688],[14.530977,50.013552],[14.531084,50.013509],[14.531345,50.013402],[14.531697,50.013256],[14.531705,50.013253],[14.532043,50.013121],[14.53208,50.013106],[14.532463,50.012962],[14.532831,50.012818],[14.533204,50.012667],[14.533583,50.012516],[14.533966,50.012369],[14.53434,50.012225],[14.534717,50.012075],[14.534934,50.011978],[14.535067,50.011918],[14.535427,50.011777],[14.535486,50.011751],[14.535276,50.011708],[14.534896,50.011665],[14.534551,50.011634],[14.534459,50.011625],[14.534006,50.011593],[14.533657,50.011551],[14.533558,50.011539],[14.533112,50.011459],[14.532811,50.011405],[14.532751,50.011394],[14.532744,50.011393],[14.532669,50.01138],[14.532257,50.011299],[14.531838,50.011221],[14.530993,50.011077],[14.530627,50.011006],[14.530279,50.01094],[14.529868,50.010861],[14.52952,50.010795],[14.529475,50.010787],[14.529209,50.01078],[14.528902,50.01079],[14.528701,50.010796],[14.528381,50.010807],[14.528354,50.010808],[14.528297,50.010809],[14.528225,50.010812],[14.528216,50.010813],[14.527882,50.010827],[14.527819,50.010829],[14.527474,50.010838],[14.527177,50.010655],[14.527039,50.010518],[14.527022,50.010502],[14.526959,50.010439],[14.526676,50.010267],[14.526355,50.010093],[14.526141,50.009978],[14.525867,50.009848],[14.525528,50.009688],[14.52524,50.009551],[14.524869,50.009375],[14.524282,50.009048],[14.52371,50.008723],[14.523088,50.008418],[14.522742,50.008255],[14.522433,50.008112],[14.522027,50.007995],[14.521769,50.007948],[14.521201,50.00777],[14.520995,50.007721],[14.521284,50.007492],[14.521551,50.007313],[14.521849,50.007141],[14.522147,50.006983],[14.522152,50.006979],[14.522469,50.006784],[14.522717,50.006601],[14.523035,50.006352],[14.523264,50.006152],[14.52344,50.005915],[14.523709,50.005682],[14.523952,50.005423],[14.524131,50.005193],[14.524313,50.005014],[14.524582,50.004747],[14.524687,50.004657],[14.524792,50.004568],[14.525054,50.004333],[14.525385,50.004073],[14.525606,50.003874],[14.526144,50.003483],[14.526176,50.003459],[14.526479,50.003255],[14.526564,50.003197],[14.526748,50.00307],[14.526764,50.003059],[14.527044,50.002855],[14.527296,50.002668],[14.527595,50.002449],[14.52787,50.002242],[14.528299,50.001917],[14.52835,50.001874],[14.528746,50.001541],[14.529005,50.001367],[14.529263,50.001187],[14.529302,50.001161],[14.529316,50.001152],[14.529543,50.001],[14.52979,50.000846],[14.530021,50.000715],[14.529959,50.000691],[14.529606,50.000549],[14.529415,50.000472],[14.529381,50.000457],[14.529351,50.000444],[14.529351,50.000444],[14.516068,50.002634],[14.511288,50.003402],[14.51056,50.003647],[14.5095,50.004334],[14.507637,50.004951],[14.500817,50.00564],[14.50061,50.005726],[14.500609,50.005726],[14.500609,50.005726],[14.500611,50.005728],[14.500711,50.005762],[14.50078,50.005832],[14.500809,50.005889],[14.501214,50.006691],[14.501313,50.0069],[14.501634,50.007576],[14.501648,50.007609],[14.501718,50.007728],[14.50172,50.007731],[14.502005,50.008216],[14.502006,50.008218],[14.502028,50.008256],[14.502157,50.008474],[14.502662,50.009334],[14.502919,50.01006],[14.502959,50.010173],[14.503011,50.010319],[14.503081,50.010535],[14.503129,50.010642],[14.50314,50.010666],[14.503156,50.010735],[14.503014,50.010893],[14.503182,50.01091],[14.503197,50.010926],[14.503284,50.011023],[14.503361,50.011109],[14.503395,50.011146],[14.503395,50.011151],[14.503428,50.011389],[14.503433,50.011637],[14.503427,50.011841],[14.503366,50.012038],[14.503348,50.012095],[14.503221,50.012342],[14.503036,50.012573],[14.502994,50.012619],[14.502957,50.012661],[14.50289,50.012734],[14.502128,50.013747],[14.50206,50.013839],[14.502039,50.013877],[14.501831,50.014234],[14.501831,50.014235],[14.501608,50.01476],[14.501463,50.015283],[14.501432,50.015404],[14.501333,50.015791],[14.501317,50.015855],[14.50125,50.016117],[14.501251,50.016135],[14.501247,50.016149],[14.501127,50.016656],[14.501007,50.01719],[14.500975,50.017333],[14.500892,50.017705],[14.500889,50.017712],[14.500884,50.017727],[14.500811,50.017991],[14.500505,50.019247],[14.500358,50.019898],[14.500299,50.020159],[14.500298,50.020165],[14.500549,50.020101],[14.500718,50.020059],[14.500818,50.020033],[14.50083,50.020031],[14.500987,50.019998],[14.501433,50.019906],[14.501445,50.019932],[14.501446,50.019933],[14.501939,50.019853],[14.501951,50.019851],[14.50238,50.019801],[14.502442,50.019794],[14.502601,50.019782],[14.502839,50.019764],[14.502944,50.019756],[14.503304,50.019738],[14.503457,50.019738],[14.503817,50.019742],[14.503973,50.019744],[14.50423,50.019758],[14.50447,50.019771],[14.504664,50.019789],[14.50498,50.019819],[14.505489,50.01989],[14.505522,50.019896],[14.505982,50.019981],[14.506548,50.02012],[14.506599,50.020132],[14.506869,50.020209],[14.507207,50.020306],[14.507409,50.020339],[14.507425,50.020315],[14.507776,50.020421],[14.507942,50.020503],[14.50819,50.020573],[14.508798,50.020766],[14.508937,50.02081],[14.509379,50.02095],[14.509455,50.020977],[14.509534,50.021004],[14.509631,50.021033],[14.509667,50.020957],[14.509893,50.021002],[14.510113,50.021046],[14.510119,50.021047],[14.510401,50.021094],[14.51057,50.021122],[14.510576,50.021123],[14.510751,50.021145],[14.510958,50.02117],[14.511005,50.021173],[14.511086,50.021177],[14.511118,50.021171],[14.511239,50.021163],[14.511288,50.021149],[14.511746,50.021025],[14.51186,50.020986],[14.512395,50.0208],[14.512401,50.020798],[14.512771,50.020656],[14.513844,50.020269],[14.513922,50.020234]]]}},{"type":"Feature","properties":{"cislo":50002,"kod":30735,"mestskaCast":"praha-seberov"},"geometry":{"type":"Polygon","coordinates":[[[14.500609,50.005726],[14.500609,50.005726],[14.50061,50.005726],[14.500817,50.00564],[14.507637,50.004951],[14.5095,50.004334],[14.51056,50.003647],[14.511288,50.003402],[14.516068,50.002634],[14.529351,50.000444],[14.529351,50.000444],[14.529346,50.000442],[14.529252,50.000402],[14.529215,50.000386],[14.529214,50.000386],[14.529197,50.000379],[14.528554,50.000007],[14.52826,49.999836],[14.528119,49.999753],[14.527829,49.999582],[14.52759,49.99943],[14.52726,49.999222],[14.527087,49.999112],[14.52656,49.998799],[14.526264,49.998624],[14.526088,49.998519],[14.525845,49.99837],[14.525839,49.998367],[14.525177,49.997959],[14.525134,49.997933],[14.525084,49.997902],[14.524324,49.997434],[14.523388,49.997382],[14.522058,49.997308],[14.521788,49.997293],[14.521733,49.99729],[14.521509,49.997278],[14.52143,49.997273],[14.521096,49.997255],[14.521056,49.997253],[14.521012,49.99725],[14.520825,49.99724],[14.520684,49.997232],[14.520004,49.997192],[14.519765,49.997178],[14.519746,49.997179],[14.51963,49.997185],[14.519135,49.9971],[14.519137,49.997092],[14.519144,49.997063],[14.519149,49.99704],[14.519151,49.997032],[14.519153,49.997022],[14.519153,49.997021],[14.519169,49.996949],[14.519219,49.996728],[14.519304,49.996354],[14.519315,49.996301],[14.519317,49.996293],[14.519333,49.996223],[14.519036,49.996196],[14.518583,49.996156],[14.518342,49.996134],[14.518194,49.99612],[14.518212,49.996089],[14.518825,49.995021],[14.518922,49.994851],[14.518891,49.994835],[14.518814,49.994793],[14.518778,49.994773],[14.518695,49.994737],[14.518287,49.994561],[14.517953,49.994417],[14.517908,49.99449],[14.517598,49.995023],[14.517518,49.995161],[14.51748,49.995154],[14.517209,49.995113],[14.517111,49.995098],[14.51678,49.995048],[14.516448,49.994997],[14.516092,49.994943],[14.516154,49.994836],[14.515365,49.994748],[14.515193,49.994729],[14.514336,49.994633],[14.514326,49.994632],[14.514249,49.994625],[14.513646,49.994559],[14.513535,49.994547],[14.513433,49.994535],[14.513423,49.994533],[14.513423,49.994527],[14.513424,49.994516],[14.513424,49.994511],[14.51344,49.994234],[14.51344,49.994229],[14.513444,49.994154],[14.513441,49.994104],[14.51344,49.9941],[14.513425,49.99387],[14.513425,49.993865],[14.513424,49.993861],[14.513454,49.993734],[14.513532,49.993403],[14.513552,49.993319],[14.513554,49.99331],[14.513566,49.993256],[14.513641,49.992954],[14.513726,49.992654],[14.513745,49.992594],[14.513748,49.992583],[14.513739,49.992582],[14.513473,49.992559],[14.511642,49.992403],[14.510006,49.992263],[14.509776,49.992244],[14.509811,49.992387],[14.50974,49.992376],[14.508186,49.992139],[14.508172,49.992165],[14.508049,49.992376],[14.507947,49.99259],[14.507921,49.992642],[14.507896,49.992694],[14.507799,49.992895],[14.507716,49.993068],[14.507633,49.99324],[14.507611,49.993284],[14.507516,49.993473],[14.508171,49.993606],[14.50825,49.993618],[14.508483,49.993668],[14.509358,49.993853],[14.509277,49.994044],[14.509188,49.994258],[14.509184,49.994266],[14.509033,49.994505],[14.508975,49.994597],[14.5089,49.994734],[14.508874,49.994777],[14.508768,49.994954],[14.508721,49.995033],[14.508662,49.995131],[14.508525,49.995359],[14.508475,49.995442],[14.508447,49.995488],[14.508406,49.995555],[14.508382,49.995592],[14.50833,49.995673],[14.508308,49.995708],[14.508299,49.995725],[14.508272,49.995774],[14.508224,49.995861],[14.50818,49.995935],[14.508134,49.996012],[14.508118,49.996037],[14.508036,49.996164],[14.508013,49.996198],[14.507937,49.996314],[14.507832,49.99647],[14.507814,49.996493],[14.507721,49.99662],[14.507538,49.996929],[14.507462,49.997097],[14.507445,49.997133],[14.50743,49.997167],[14.507405,49.99722],[14.507341,49.997329],[14.507255,49.997477],[14.507248,49.997476],[14.505748,49.997169],[14.504272,49.996831],[14.504084,49.996789],[14.503966,49.996762],[14.50384,49.996734],[14.503147,49.996585],[14.502832,49.996517],[14.501897,49.996316],[14.500991,49.996117],[14.500298,49.995966],[14.499823,49.995862],[14.499811,49.995859],[14.497922,49.995445],[14.497863,49.995432],[14.497823,49.995425],[14.49777,49.995416],[14.497474,49.995363],[14.496918,49.995265],[14.496891,49.995691],[14.496883,49.995809],[14.496879,49.995871],[14.496866,49.996097],[14.496844,49.996671],[14.496841,49.996702],[14.496826,49.996896],[14.496795,49.997297],[14.496722,49.997716],[14.497085,49.99744],[14.497137,49.997402],[14.497157,49.997425],[14.497134,49.997442],[14.497115,49.997455],[14.497083,49.997479],[14.496706,49.997758],[14.4967,49.99777],[14.496528,49.998116],[14.496443,49.998187],[14.496339,49.998274],[14.496214,49.998379],[14.496065,49.998504],[14.496663,49.998635],[14.496705,49.998492],[14.497045,49.997935],[14.497093,49.997856],[14.497115,49.997823],[14.497122,49.997812],[14.497166,49.997812],[14.497155,49.997829],[14.496767,49.998447],[14.497083,49.998364],[14.497245,49.998375],[14.49757,49.998459],[14.497561,49.998468],[14.497541,49.998488],[14.497383,49.998637],[14.497147,49.99879],[14.49683,49.998994],[14.496766,49.999025],[14.496863,49.999018],[14.497368,49.999089],[14.49739,49.999093],[14.497396,49.999105],[14.497401,49.999114],[14.497405,49.999122],[14.497378,49.999118],[14.497115,49.999075],[14.497052,49.999065],[14.496973,49.999053],[14.496945,49.999058],[14.496696,49.999105],[14.496464,49.99913],[14.496574,49.999342],[14.496798,49.999292],[14.496895,49.99947],[14.496907,49.999493],[14.496935,49.999544],[14.496959,49.999587],[14.49697,49.999609],[14.496996,49.999657],[14.497112,49.999868],[14.49716,49.999953],[14.49728,50.000167],[14.497127,50.000142],[14.497143,50.000373],[14.497303,50.000398],[14.497559,50.000419],[14.498021,50.000456],[14.498006,50.000482],[14.498001,50.00049],[14.497815,50.000798],[14.497795,50.000834],[14.497698,50.001012],[14.497679,50.001046],[14.497368,50.001031],[14.497031,50.001014],[14.49655,50.001003],[14.496532,50.000999],[14.496213,50.000926],[14.495254,50.000995],[14.495108,50.001029],[14.495097,50.001032],[14.495021,50.001049],[14.494934,50.00107],[14.494796,50.001072],[14.494362,50.001081],[14.494712,50.001191],[14.495261,50.001334],[14.495978,50.001565],[14.496256,50.001675],[14.496652,50.001822],[14.496849,50.001896],[14.497694,50.0022],[14.497899,50.002263],[14.498064,50.002314],[14.498163,50.002349],[14.498425,50.002441],[14.49849,50.002468],[14.498714,50.002562],[14.4989,50.002656],[14.499037,50.002745],[14.499159,50.002844],[14.499252,50.002945],[14.499332,50.003082],[14.49943,50.003296],[14.499722,50.00392],[14.499757,50.003984],[14.500091,50.004603],[14.500165,50.004753],[14.500498,50.005427],[14.500506,50.0055],[14.500488,50.00552],[14.500459,50.005551],[14.500453,50.005557],[14.500359,50.005581],[14.500437,50.005626],[14.500455,50.005637],[14.500558,50.005697],[14.500584,50.005712],[14.500609,50.005726]]]}}]}
