{"type":"FeatureCollection","features":[{"type":"Feature","properties":{"cislo":22001,"kod":27901,"mestskaCast":"praha-22"},"geometry":{"type":"Polygon","coordinates":[[[14.603891,50.041783],[14.603921,50.041842],[14.604074,50.042084],[14.604182,50.042255],[14.604198,50.042422],[14.60418,50.0425],[14.604172,50.042538],[14.604176,50.042541],[14.604166,50.042547],[14.604156,50.042601],[14.604163,50.042607],[14.604155,50.042611],[14.604148,50.042628],[14.604138,50.042685],[14.604107,50.042904],[14.604084,50.043055],[14.604053,50.043259],[14.60402,50.043486],[14.603955,50.043916],[14.603917,50.044157],[14.603888,50.044366],[14.603838,50.044699],[14.6038,50.044965],[14.603776,50.045007],[14.604383,50.045301],[14.604637,50.045286],[14.604638,50.045321],[14.604647,50.045533],[14.60466,50.045875],[14.604673,50.046256],[14.60468,50.046454],[14.604693,50.046843],[14.6047,50.046953],[14.604778,50.047019],[14.604835,50.047052],[14.605271,50.047001],[14.606569,50.04685],[14.608395,50.04661],[14.609898,50.046432],[14.610389,50.046375],[14.610838,50.046114],[14.610916,50.046133],[14.612118,50.046365],[14.612509,50.046441],[14.613455,50.046624],[14.613739,50.046679],[14.614073,50.046739],[14.615037,50.046913],[14.615057,50.046917],[14.615164,50.046917],[14.615236,50.046894],[14.615254,50.046888],[14.615943,50.046495],[14.616265,50.046368],[14.616599,50.046252],[14.617796,50.045921],[14.618359,50.045788],[14.619383,50.045678],[14.619779,50.045561],[14.620099,50.045467],[14.620193,50.045439],[14.621206,50.045081],[14.621243,50.045068],[14.622081,50.044769],[14.623063,50.044319],[14.623504,50.044094],[14.623985,50.043682],[14.624334,50.043295],[14.624581,50.04299],[14.625044,50.042595],[14.625931,50.042187],[14.625905,50.042167],[14.625887,50.042152],[14.625879,50.042147],[14.625875,50.042144],[14.62585,50.042125],[14.624686,50.04165],[14.624647,50.041634],[14.624317,50.041534],[14.622689,50.041043],[14.622132,50.040924],[14.622124,50.040855],[14.622172,50.040597],[14.622225,50.040313],[14.622327,50.039797],[14.622335,50.039796],[14.62264,50.039736],[14.622663,50.039717],[14.622466,50.039637],[14.622278,50.03958],[14.622283,50.039567],[14.62248,50.039068],[14.622726,50.038425],[14.622875,50.03805],[14.62295,50.037954],[14.62383,50.03819],[14.623845,50.038194],[14.624783,50.038429],[14.624897,50.038214],[14.624973,50.037974],[14.624992,50.037783],[14.624917,50.037777],[14.6249,50.037523],[14.624889,50.037294],[14.624837,50.037019],[14.624832,50.036995],[14.624753,50.036752],[14.624623,50.036454],[14.624594,50.036388],[14.626473,50.036018],[14.628027,50.035739],[14.628762,50.035602],[14.628802,50.035594],[14.628838,50.035544],[14.628944,50.035403],[14.629011,50.035155],[14.628659,50.034734],[14.628668,50.034697],[14.628695,50.034587],[14.628739,50.034364],[14.628805,50.034182],[14.628887,50.033995],[14.629186,50.033499],[14.629312,50.03323],[14.629437,50.032952],[14.629645,50.032462],[14.629691,50.032297],[14.629779,50.031752],[14.629783,50.031731],[14.629894,50.031197],[14.630002,50.030698],[14.630043,50.030338],[14.630078,50.030073],[14.630211,50.029419],[14.630289,50.029022],[14.630335,50.028365],[14.630428,50.02792],[14.630581,50.027398],[14.630713,50.027048],[14.630863,50.026607],[14.630837,50.026604],[14.630829,50.026603],[14.630001,50.026514],[14.62968,50.025689],[14.62953,50.025175],[14.629454,50.02477],[14.62945,50.02475],[14.629265,50.024768],[14.62823,50.024867],[14.628019,50.024902],[14.627807,50.024945],[14.627496,50.025035],[14.627247,50.025107],[14.627111,50.025131],[14.626971,50.025142],[14.626347,50.025136],[14.62585,50.025092],[14.62473,50.02494],[14.624571,50.024937],[14.624315,50.024951],[14.62332,50.024919],[14.622589,50.024893],[14.621982,50.024895],[14.621324,50.024966],[14.621165,50.024952],[14.621161,50.024951],[14.621141,50.024921],[14.621119,50.024887],[14.61643,50.027501],[14.615324,50.028117],[14.614133,50.028781],[14.611259,50.030396],[14.610386,50.030882],[14.610295,50.030924],[14.61021,50.030958],[14.610088,50.030993],[14.609971,50.031018],[14.609198,50.031156],[14.609086,50.031177],[14.608954,50.031183],[14.608844,50.031193],[14.608749,50.031213],[14.608658,50.031225],[14.608552,50.03124],[14.60848,50.031254],[14.608463,50.031258],[14.608279,50.031198],[14.608084,50.031136],[14.607199,50.030882],[14.607029,50.030837],[14.606847,50.030789],[14.606586,50.030713],[14.606262,50.030587],[14.605894,50.030409],[14.605593,50.030216],[14.605292,50.029995],[14.605128,50.029913],[14.605085,50.029892],[14.604987,50.029855],[14.604933,50.02984],[14.6049,50.02983],[14.604813,50.029808],[14.60471,50.029786],[14.604603,50.029765],[14.604525,50.02975],[14.604304,50.029706],[14.603473,50.029543],[14.603384,50.029525],[14.603109,50.029505],[14.602672,50.029547],[14.602625,50.029552],[14.601891,50.029624],[14.601854,50.029627],[14.601828,50.02963],[14.601675,50.029655],[14.601675,50.029655],[14.601648,50.029723],[14.601626,50.029771],[14.601609,50.029861],[14.601613,50.03001],[14.601613,50.030109],[14.601614,50.030169],[14.601611,50.030227],[14.601642,50.030459],[14.60166,50.0306],[14.601669,50.030667],[14.601676,50.030718],[14.601689,50.030812],[14.601695,50.03086],[14.601653,50.030918],[14.601615,50.030978],[14.601595,50.031024],[14.601596,50.031081],[14.601601,50.031115],[14.601685,50.031196],[14.601748,50.03124],[14.601968,50.031405],[14.601733,50.031739],[14.601586,50.031833],[14.60154,50.031849],[14.60136,50.031911],[14.601185,50.031973],[14.600811,50.032128],[14.600549,50.032198],[14.600261,50.032312],[14.600183,50.032362],[14.600051,50.032447],[14.599983,50.032504],[14.599964,50.032504],[14.599932,50.032544],[14.599823,50.032681],[14.599822,50.032763],[14.599789,50.032947],[14.599834,50.033019],[14.599882,50.033092],[14.599927,50.033166],[14.599974,50.033247],[14.600344,50.033521],[14.600517,50.033599],[14.600628,50.033688],[14.600624,50.033756],[14.600619,50.03384],[14.600761,50.033943],[14.600999,50.034104],[14.601074,50.034198],[14.601163,50.034311],[14.601376,50.034458],[14.601547,50.034576],[14.601589,50.034605],[14.601861,50.034793],[14.60224,50.034951],[14.602408,50.035021],[14.602809,50.035188],[14.602875,50.035293],[14.602851,50.035389],[14.602791,50.035631],[14.602887,50.035747],[14.602859,50.035991],[14.602839,50.036159],[14.602849,50.03626],[14.602886,50.036549],[14.602893,50.036555],[14.602851,50.036589],[14.602863,50.03662],[14.602853,50.036619],[14.602867,50.036653],[14.603173,50.03705],[14.603165,50.03711],[14.603132,50.037382],[14.603066,50.03768],[14.603013,50.037735],[14.602891,50.037862],[14.60285,50.03815],[14.602815,50.03835],[14.602653,50.03851],[14.602359,50.038761],[14.602091,50.03894],[14.601771,50.039091],[14.601688,50.039177],[14.601682,50.039336],[14.601328,50.03953],[14.601029,50.039636],[14.601248,50.039737],[14.601425,50.039873],[14.601588,50.039938],[14.601704,50.040023],[14.601988,50.040021],[14.602093,50.040115],[14.602469,50.04045],[14.602554,50.040718],[14.602636,50.040978],[14.602861,50.041084],[14.60318,50.04115],[14.603403,50.041301],[14.603748,50.041429],[14.603886,50.041774],[14.603891,50.041783]]]}},{"type":"Feature","properties":{"cislo":22002,"kod":27903,"mestskaCast":"praha-22"},"geometry":{"type":"Polygon","coordinates":[[[14.597977,50.029303],[14.5983,50.029389],[14.59848,50.029436],[14.598672,50.029204],[14.598829,50.029014],[14.599146,50.028636],[14.599295,50.028681],[14.599311,50.028687],[14.599742,50.028821],[14.600112,50.028933],[14.600675,50.029083],[14.600796,50.029116],[14.601346,50.029266],[14.601367,50.029272],[14.601385,50.029252],[14.601505,50.029105],[14.601563,50.029038],[14.601624,50.028969],[14.601655,50.02893],[14.601991,50.028489],[14.602051,50.028424],[14.602107,50.028379],[14.602151,50.028352],[14.602198,50.028328],[14.602248,50.02831],[14.602298,50.028291],[14.602314,50.028283],[14.602348,50.028267],[14.602392,50.02824],[14.602503,50.02816],[14.602579,50.028099],[14.602633,50.028041],[14.602692,50.027964],[14.602737,50.027883],[14.60276,50.027816],[14.602842,50.027536],[14.602861,50.027487],[14.602892,50.027432],[14.602945,50.027371],[14.60301,50.027299],[14.603208,50.027084],[14.603422,50.026843],[14.603469,50.026799],[14.603562,50.026723],[14.603663,50.026629],[14.603732,50.026545],[14.603846,50.026409],[14.604074,50.026121],[14.604139,50.026036],[14.604196,50.025958],[14.604236,50.025893],[14.604274,50.025818],[14.604312,50.025742],[14.604355,50.02567],[14.60443,50.025584],[14.604475,50.025535],[14.604548,50.025457],[14.604619,50.025387],[14.604728,50.025272],[14.604786,50.025204],[14.604865,50.025087],[14.604937,50.024967],[14.605019,50.024828],[14.605108,50.02472],[14.605153,50.024675],[14.605205,50.02463],[14.60525,50.0246],[14.60531,50.024569],[14.605338,50.024544],[14.605362,50.024513],[14.605423,50.024406],[14.605457,50.02432],[14.605514,50.024192],[14.605598,50.024068],[14.605707,50.023911],[14.605761,50.023845],[14.605816,50.02379],[14.605872,50.023737],[14.606022,50.023621],[14.606461,50.023209],[14.608672,50.021199],[14.608477,50.020874],[14.608476,50.020872],[14.608218,50.02035],[14.608209,50.02035],[14.608061,50.020362],[14.608047,50.020363],[14.608022,50.020365],[14.60782,50.020387],[14.607026,50.020418],[14.606319,50.020465],[14.606136,50.020481],[14.60553,50.020568],[14.605189,50.020596],[14.604723,50.020606],[14.604688,50.020608],[14.604684,50.020609],[14.604602,50.020614],[14.604595,50.020614],[14.604546,50.020617],[14.60434,50.020587],[14.60419,50.020585],[14.604018,50.020603],[14.603774,50.020657],[14.603258,50.020788],[14.603185,50.020816],[14.602921,50.020916],[14.602739,50.020987],[14.602524,50.021102],[14.602503,50.021113],[14.60219,50.02128],[14.601936,50.021426],[14.601902,50.021446],[14.601617,50.021626],[14.601275,50.02149],[14.6011,50.021398],[14.60096,50.021311],[14.600702,50.02115],[14.600562,50.021074],[14.600447,50.021021],[14.600367,50.020981],[14.599982,50.021329],[14.59967,50.02158],[14.599542,50.021678],[14.59948,50.021726],[14.599393,50.021794],[14.599255,50.021903],[14.59911,50.022017],[14.599092,50.02203],[14.598779,50.02226],[14.598711,50.02231],[14.598242,50.022654],[14.598198,50.022684],[14.59802,50.022805],[14.597957,50.022845],[14.597749,50.022977],[14.597735,50.022989],[14.597534,50.023157],[14.597366,50.023296],[14.597333,50.023324],[14.597102,50.023516],[14.596973,50.023623],[14.59683,50.02373],[14.596653,50.023863],[14.596467,50.024002],[14.596296,50.024131],[14.596264,50.024153],[14.595699,50.024539],[14.594695,50.02514],[14.594178,50.025423],[14.593842,50.025609],[14.593323,50.02589],[14.592921,50.026157],[14.592822,50.0261],[14.592774,50.026129],[14.591822,50.025433],[14.591479,50.025164],[14.590966,50.024779],[14.59004,50.024092],[14.590076,50.024072],[14.590095,50.024061],[14.590107,50.024053],[14.590166,50.024019],[14.590448,50.023854],[14.590668,50.023718],[14.590962,50.023518],[14.591185,50.02338],[14.591338,50.023295],[14.591483,50.023215],[14.59167,50.023125],[14.591842,50.023271],[14.592276,50.02307],[14.592478,50.022966],[14.592589,50.022909],[14.592196,50.022588],[14.591757,50.02223],[14.591496,50.021986],[14.591371,50.02185],[14.591257,50.021694],[14.591202,50.021579],[14.59112,50.021455],[14.589569,50.021222],[14.589073,50.021403],[14.588607,50.02165],[14.588298,50.021778],[14.588,50.021914],[14.587852,50.02196],[14.587954,50.022147],[14.588121,50.022403],[14.588121,50.022405],[14.588049,50.022451],[14.588008,50.022474],[14.587701,50.022647],[14.587593,50.022709],[14.587456,50.022786],[14.587385,50.022827],[14.587306,50.022871],[14.587289,50.022878],[14.587245,50.022904],[14.587245,50.022904],[14.587118,50.022975],[14.589444,50.024543],[14.589488,50.024573],[14.589759,50.024799],[14.589859,50.024884],[14.589934,50.024936],[14.590124,50.025069],[14.590331,50.025215],[14.590539,50.025361],[14.590549,50.025368],[14.590747,50.025517],[14.590818,50.02557],[14.590899,50.025636],[14.590931,50.025662],[14.591035,50.025747],[14.591139,50.025831],[14.59129,50.025949],[14.591372,50.02601],[14.591454,50.026072],[14.591615,50.026191],[14.591688,50.026236],[14.591706,50.026247],[14.591795,50.026305],[14.591802,50.026309],[14.591996,50.026431],[14.592127,50.026502],[14.592213,50.026546],[14.592441,50.026653],[14.592242,50.026805],[14.592279,50.026821],[14.591939,50.027158],[14.591808,50.027298],[14.591751,50.027357],[14.591719,50.027411],[14.591685,50.027443],[14.591639,50.027487],[14.591609,50.027515],[14.59144,50.027653],[14.591369,50.027711],[14.593279,50.028176],[14.59393,50.027747],[14.595934,50.028227],[14.595929,50.028821],[14.596827,50.029031],[14.59715,50.029106],[14.597857,50.029272],[14.597937,50.029292],[14.597977,50.029303]]]}},{"type":"Feature","properties":{"cislo":22003,"kod":27905,"mestskaCast":"praha-22"},"geometry":{"type":"Polygon","coordinates":[[[14.60848,50.031254],[14.608552,50.03124],[14.608658,50.031225],[14.608749,50.031213],[14.608844,50.031193],[14.608954,50.031183],[14.609086,50.031177],[14.609198,50.031156],[14.609971,50.031018],[14.610088,50.030993],[14.61021,50.030958],[14.610295,50.030924],[14.610386,50.030882],[14.611259,50.030396],[14.614133,50.028781],[14.615324,50.028117],[14.61643,50.027501],[14.621119,50.024887],[14.621097,50.024853],[14.621074,50.024817],[14.619564,50.024873],[14.618556,50.024912],[14.619136,50.024181],[14.619691,50.023686],[14.62007,50.023359],[14.620079,50.023356],[14.620296,50.023168],[14.62094,50.022567],[14.621062,50.022458],[14.621108,50.022416],[14.621278,50.022253],[14.62128,50.022251],[14.621363,50.022159],[14.621477,50.022018],[14.621506,50.021944],[14.620973,50.021845],[14.620941,50.02184],[14.620619,50.021793],[14.619891,50.021694],[14.619318,50.021632],[14.618938,50.021601],[14.618446,50.021544],[14.618178,50.021524],[14.617597,50.0215],[14.61759,50.0215],[14.617296,50.021493],[14.616792,50.021507],[14.61626,50.021512],[14.615773,50.021517],[14.615768,50.021517],[14.615754,50.021514],[14.615219,50.021516],[14.615208,50.021516],[14.614952,50.021525],[14.614741,50.021532],[14.614227,50.021524],[14.613874,50.021519],[14.613562,50.021499],[14.61355,50.021498],[14.613178,50.021465],[14.612732,50.021434],[14.612665,50.021448],[14.612532,50.021475],[14.61245,50.021492],[14.612186,50.02146],[14.611782,50.021427],[14.611552,50.021398],[14.61073,50.021249],[14.6102,50.021218],[14.609862,50.021284],[14.609744,50.021266],[14.609708,50.021186],[14.609685,50.021037],[14.609685,50.021035],[14.609679,50.020995],[14.609654,50.02083],[14.609443,50.020883],[14.609115,50.021018],[14.609105,50.021021],[14.609051,50.021044],[14.609038,50.021049],[14.608672,50.021199],[14.606461,50.023209],[14.606022,50.023621],[14.605872,50.023737],[14.605816,50.02379],[14.605761,50.023845],[14.605707,50.023911],[14.605598,50.024068],[14.605514,50.024192],[14.605457,50.02432],[14.605423,50.024406],[14.605362,50.024513],[14.605338,50.024544],[14.60531,50.024569],[14.60525,50.0246],[14.605205,50.02463],[14.605153,50.024675],[14.605108,50.02472],[14.605019,50.024828],[14.604937,50.024967],[14.604865,50.025087],[14.604786,50.025204],[14.604728,50.025272],[14.604619,50.025387],[14.604548,50.025457],[14.604475,50.025535],[14.60443,50.025584],[14.604355,50.02567],[14.604312,50.025742],[14.604274,50.025818],[14.604236,50.025893],[14.604196,50.025958],[14.604139,50.026036],[14.604074,50.026121],[14.603846,50.026409],[14.603732,50.026545],[14.603663,50.026629],[14.603562,50.026723],[14.603469,50.026799],[14.603422,50.026843],[14.603208,50.027084],[14.60301,50.027299],[14.602945,50.027371],[14.602892,50.027432],[14.602861,50.027487],[14.602842,50.027536],[14.60276,50.027816],[14.602737,50.027883],[14.602692,50.027964],[14.602633,50.028041],[14.602579,50.028099],[14.602503,50.02816],[14.602392,50.02824],[14.602348,50.028267],[14.602314,50.028283],[14.602298,50.028291],[14.602248,50.02831],[14.602198,50.028328],[14.602151,50.028352],[14.602107,50.028379],[14.602051,50.028424],[14.601991,50.028489],[14.601655,50.02893],[14.601624,50.028969],[14.601563,50.029038],[14.601505,50.029105],[14.601385,50.029252],[14.601367,50.029272],[14.601437,50.029286],[14.601444,50.029287],[14.601495,50.029297],[14.601585,50.029313],[14.601669,50.029329],[14.601675,50.02933],[14.601648,50.029367],[14.60163,50.029386],[14.60162,50.029398],[14.601596,50.029446],[14.601812,50.029488],[14.60182,50.02949],[14.601849,50.029496],[14.601874,50.029501],[14.601866,50.02952],[14.601828,50.02963],[14.601854,50.029627],[14.601891,50.029624],[14.602625,50.029552],[14.602672,50.029547],[14.603109,50.029505],[14.603384,50.029525],[14.603473,50.029543],[14.604304,50.029706],[14.604525,50.02975],[14.604603,50.029765],[14.60471,50.029786],[14.604813,50.029808],[14.6049,50.02983],[14.604933,50.02984],[14.604987,50.029855],[14.605085,50.029892],[14.605128,50.029913],[14.605292,50.029995],[14.605593,50.030216],[14.605894,50.030409],[14.606262,50.030587],[14.606586,50.030713],[14.606847,50.030789],[14.607029,50.030837],[14.607199,50.030882],[14.608084,50.031136],[14.608279,50.031198],[14.608463,50.031258],[14.60848,50.031254]]]}},{"type":"Feature","properties":{"cislo":22004,"kod":27907,"mestskaCast":"praha-22"},"geometry":{"type":"Polygon","coordinates":[[[14.599544,50.038166],[14.59977,50.038306],[14.599778,50.038551],[14.599757,50.038614],[14.599675,50.038732],[14.59958,50.038831],[14.599563,50.038845],[14.599584,50.038925],[14.599725,50.039047],[14.599762,50.039073],[14.599794,50.03913],[14.599878,50.039235],[14.599964,50.039349],[14.600033,50.039435],[14.600046,50.039458],[14.600103,50.039584],[14.600158,50.039702],[14.600176,50.039731],[14.600197,50.039759],[14.600198,50.039761],[14.600992,50.039642],[14.601029,50.039636],[14.601328,50.03953],[14.601682,50.039336],[14.601688,50.039177],[14.601771,50.039091],[14.602091,50.03894],[14.602359,50.038761],[14.602653,50.03851],[14.602815,50.03835],[14.60285,50.03815],[14.602891,50.037862],[14.603013,50.037735],[14.603066,50.03768],[14.603132,50.037382],[14.603165,50.03711],[14.603173,50.03705],[14.602867,50.036653],[14.602853,50.036619],[14.602863,50.03662],[14.602851,50.036589],[14.602893,50.036555],[14.602886,50.036549],[14.602849,50.03626],[14.602839,50.036159],[14.602859,50.035991],[14.602887,50.035747],[14.602791,50.035631],[14.602851,50.035389],[14.602875,50.035293],[14.602809,50.035188],[14.602408,50.035021],[14.60224,50.034951],[14.601861,50.034793],[14.601589,50.034605],[14.601547,50.034576],[14.601376,50.034458],[14.601163,50.034311],[14.601074,50.034198],[14.600999,50.034104],[14.600761,50.033943],[14.600619,50.03384],[14.600624,50.033756],[14.600628,50.033688],[14.600517,50.033599],[14.600344,50.033521],[14.599974,50.033247],[14.599927,50.033166],[14.599882,50.033092],[14.599834,50.033019],[14.599789,50.032947],[14.599822,50.032763],[14.599823,50.032681],[14.599932,50.032544],[14.599964,50.032504],[14.599983,50.032504],[14.600051,50.032447],[14.600183,50.032362],[14.600261,50.032312],[14.600549,50.032198],[14.600811,50.032128],[14.601185,50.031973],[14.60136,50.031911],[14.60154,50.031849],[14.601586,50.031833],[14.601733,50.031739],[14.601968,50.031405],[14.601748,50.03124],[14.601685,50.031196],[14.601601,50.031115],[14.601596,50.031081],[14.601595,50.031024],[14.601615,50.030978],[14.601653,50.030918],[14.601695,50.03086],[14.601689,50.030812],[14.601676,50.030718],[14.601669,50.030667],[14.60166,50.0306],[14.601642,50.030459],[14.601611,50.030227],[14.601614,50.030169],[14.601613,50.030109],[14.601613,50.03001],[14.601609,50.029861],[14.601626,50.029771],[14.601648,50.029723],[14.601675,50.029655],[14.601675,50.029655],[14.601828,50.02963],[14.601866,50.02952],[14.601874,50.029501],[14.601849,50.029496],[14.60182,50.02949],[14.601812,50.029488],[14.601596,50.029446],[14.60162,50.029398],[14.60163,50.029386],[14.601648,50.029367],[14.601675,50.02933],[14.601669,50.029329],[14.601585,50.029313],[14.601495,50.029297],[14.601444,50.029287],[14.601437,50.029286],[14.601367,50.029272],[14.601346,50.029266],[14.600796,50.029116],[14.600675,50.029083],[14.600112,50.028933],[14.599742,50.028821],[14.599311,50.028687],[14.599295,50.028681],[14.599146,50.028636],[14.598829,50.029014],[14.598672,50.029204],[14.59848,50.029436],[14.5983,50.029389],[14.597977,50.029303],[14.597711,50.0296],[14.598042,50.029708],[14.597014,50.030644],[14.596199,50.030705],[14.596215,50.031311],[14.595779,50.031549],[14.595073,50.03193],[14.593723,50.032571],[14.593448,50.032696],[14.593868,50.032885],[14.594466,50.033155],[14.594623,50.033226],[14.595358,50.033548],[14.595653,50.033678],[14.595732,50.033712],[14.594814,50.034374],[14.594535,50.034574],[14.594461,50.034628],[14.594545,50.034693],[14.595013,50.035056],[14.595038,50.035076],[14.595726,50.035617],[14.596089,50.035903],[14.596715,50.036411],[14.597053,50.036676],[14.597504,50.037032],[14.597536,50.037051],[14.597885,50.037249],[14.598123,50.037384],[14.598192,50.037421],[14.598288,50.037472],[14.598829,50.037759],[14.598983,50.037847],[14.599509,50.038144],[14.599544,50.038166]]]}},{"type":"Feature","properties":{"cislo":22005,"kod":27909,"mestskaCast":"praha-22"},"geometry":{"type":"Polygon","coordinates":[[[14.575679,50.041992],[14.575879,50.042095],[14.576079,50.042174],[14.576553,50.042398],[14.576835,50.042573],[14.57679,50.042646],[14.576828,50.042662],[14.576666,50.04279],[14.576271,50.04315],[14.575898,50.043402],[14.575763,50.043493],[14.575781,50.043505],[14.576603,50.044071],[14.576622,50.044087],[14.576839,50.044268],[14.577166,50.044541],[14.577367,50.044698],[14.577448,50.044761],[14.577686,50.044948],[14.577757,50.045003],[14.577814,50.045048],[14.577907,50.045116],[14.578021,50.045201],[14.578136,50.045286],[14.578172,50.045313],[14.578214,50.045347],[14.578279,50.045399],[14.578283,50.045403],[14.578324,50.045441],[14.57867,50.045693],[14.579028,50.045999],[14.579107,50.046086],[14.579305,50.046305],[14.579469,50.046448],[14.579978,50.04692],[14.580143,50.047078],[14.580486,50.047454],[14.580517,50.047485],[14.580789,50.047785],[14.580662,50.047872],[14.58062,50.047991],[14.580653,50.048008],[14.58068,50.048023],[14.580719,50.048044],[14.580846,50.048109],[14.580922,50.048196],[14.580544,50.048411],[14.580433,50.04852],[14.580379,50.048563],[14.580073,50.048811],[14.580058,50.049076],[14.580127,50.049219],[14.580114,50.049315],[14.580187,50.049082],[14.580343,50.049103],[14.58051,50.049128],[14.580747,50.049163],[14.580991,50.049199],[14.58165,50.049297],[14.581862,50.049328],[14.581896,50.049331],[14.581897,50.049332],[14.581925,50.049334],[14.581978,50.049235],[14.582111,50.049116],[14.582213,50.04909],[14.582248,50.049082],[14.583117,50.048853],[14.58312,50.048852],[14.583323,50.048779],[14.583336,50.048774],[14.583487,50.048617],[14.583488,50.048617],[14.583495,50.048609],[14.583561,50.048541],[14.583727,50.04837],[14.584036,50.047739],[14.584167,50.047313],[14.584215,50.047013],[14.584243,50.047004],[14.584335,50.046996],[14.58434,50.046995],[14.58445,50.047006],[14.584638,50.047047],[14.584774,50.047095],[14.584802,50.047109],[14.584959,50.04719],[14.58515,50.047335],[14.585176,50.047356],[14.585514,50.047634],[14.585521,50.047639],[14.58587,50.047903],[14.585886,50.047914],[14.586152,50.048104],[14.586364,50.048217],[14.586387,50.04823],[14.586685,50.048324],[14.586716,50.048334],[14.58675,50.048344],[14.587196,50.048407],[14.587603,50.048449],[14.588068,50.048463],[14.588598,50.048479],[14.588625,50.048481],[14.58971,50.048535],[14.590267,50.048578],[14.590814,50.048626],[14.59137,50.048688],[14.591805,50.04874],[14.59192,50.048761],[14.592081,50.048791],[14.592234,50.048819],[14.592513,50.048906],[14.592611,50.04892],[14.592734,50.048937],[14.592785,50.048893],[14.592851,50.048836],[14.592857,50.048831],[14.593078,50.048641],[14.593195,50.048684],[14.593279,50.048714],[14.594079,50.048863],[14.594485,50.048902],[14.594866,50.048861],[14.595216,50.048811],[14.59555,50.048783],[14.595888,50.048695],[14.595973,50.04853],[14.596265,50.04848],[14.59664,50.048308],[14.596931,50.048198],[14.597151,50.048125],[14.597429,50.048048],[14.597679,50.047984],[14.598018,50.047893],[14.598376,50.047824],[14.598996,50.047752],[14.599401,50.047705],[14.600876,50.047525],[14.602742,50.047297],[14.604835,50.047052],[14.604778,50.047019],[14.6047,50.046953],[14.604693,50.046843],[14.60468,50.046454],[14.604673,50.046256],[14.60466,50.045875],[14.604647,50.045533],[14.604638,50.045321],[14.604637,50.045286],[14.604383,50.045301],[14.603776,50.045007],[14.6038,50.044965],[14.603838,50.044699],[14.603888,50.044366],[14.603917,50.044157],[14.603955,50.043916],[14.60402,50.043486],[14.604053,50.043259],[14.604084,50.043055],[14.604107,50.042904],[14.604138,50.042685],[14.604148,50.042628],[14.604155,50.042611],[14.604163,50.042607],[14.604156,50.042601],[14.604166,50.042547],[14.604176,50.042541],[14.604172,50.042538],[14.60418,50.0425],[14.604198,50.042422],[14.604182,50.042255],[14.604074,50.042084],[14.603921,50.041842],[14.603891,50.041783],[14.603886,50.041774],[14.603748,50.041429],[14.603403,50.041301],[14.60318,50.04115],[14.602861,50.041084],[14.602636,50.040978],[14.602554,50.040718],[14.602469,50.04045],[14.602093,50.040115],[14.601988,50.040021],[14.601704,50.040023],[14.601588,50.039938],[14.601425,50.039873],[14.601248,50.039737],[14.601029,50.039636],[14.600992,50.039642],[14.600198,50.039761],[14.600197,50.039759],[14.600176,50.039731],[14.600158,50.039702],[14.600103,50.039584],[14.600046,50.039458],[14.600033,50.039435],[14.599964,50.039349],[14.599878,50.039235],[14.599794,50.03913],[14.599762,50.039073],[14.599725,50.039047],[14.599584,50.038925],[14.599563,50.038845],[14.59958,50.038831],[14.599675,50.038732],[14.599757,50.038614],[14.599778,50.038551],[14.59977,50.038306],[14.599544,50.038166],[14.599509,50.038144],[14.598983,50.037847],[14.598829,50.037759],[14.598288,50.037472],[14.598192,50.037421],[14.598123,50.037384],[14.597885,50.037249],[14.597536,50.037051],[14.597504,50.037032],[14.597053,50.036676],[14.596715,50.036411],[14.596089,50.035903],[14.595726,50.035617],[14.595038,50.035076],[14.595013,50.035056],[14.594545,50.034693],[14.594461,50.034628],[14.594535,50.034574],[14.594814,50.034374],[14.595732,50.033712],[14.595653,50.033678],[14.595358,50.033548],[14.594623,50.033226],[14.594466,50.033155],[14.593868,50.032885],[14.593448,50.032696],[14.592739,50.033019],[14.592272,50.033232],[14.589763,50.034559],[14.589421,50.03474],[14.586206,50.036453],[14.584444,50.037392],[14.583601,50.037841],[14.582135,50.038623],[14.578494,50.040514],[14.575679,50.041992]]]}},{"type":"Feature","properties":{"cislo":22006,"kod":27911,"mestskaCast":"praha-22"},"geometry":{"type":"Polygon","coordinates":[[[14.589763,50.034559],[14.592272,50.033232],[14.592739,50.033019],[14.593448,50.032696],[14.5887,50.030647],[14.588542,50.030926],[14.588436,50.031108],[14.588276,50.031384],[14.588057,50.031692],[14.587775,50.031837],[14.587757,50.031847],[14.587458,50.03193],[14.587091,50.031955],[14.586947,50.031965],[14.586686,50.031983],[14.585542,50.032062],[14.584627,50.032123],[14.584093,50.032158],[14.584011,50.032163],[14.583885,50.032172],[14.583467,50.032205],[14.583259,50.032217],[14.58318,50.032222],[14.582986,50.032224],[14.582938,50.032219],[14.582814,50.032206],[14.582639,50.032169],[14.582465,50.032103],[14.582221,50.031997],[14.581953,50.031871],[14.581827,50.031804],[14.581743,50.031768],[14.581598,50.031706],[14.581485,50.031669],[14.581325,50.031644],[14.581217,50.031642],[14.581182,50.031641],[14.581066,50.031645],[14.580901,50.031672],[14.580797,50.031701],[14.580724,50.031733],[14.580499,50.031854],[14.579976,50.032148],[14.579374,50.032486],[14.57934,50.032499],[14.578631,50.03277],[14.578593,50.032785],[14.578179,50.032943],[14.577687,50.033132],[14.577659,50.033147],[14.577643,50.033155],[14.577436,50.033266],[14.57738,50.033297],[14.577327,50.033334],[14.577267,50.033378],[14.576896,50.033579],[14.576216,50.033989],[14.576193,50.033972],[14.576136,50.033931],[14.576117,50.033917],[14.576109,50.033911],[14.57575,50.034079],[14.575737,50.034087],[14.575723,50.034096],[14.575713,50.034103],[14.575699,50.034112],[14.575395,50.034309],[14.575368,50.034297],[14.574928,50.034107],[14.574583,50.033979],[14.574388,50.033918],[14.574072,50.034227],[14.573704,50.034566],[14.573607,50.034655],[14.573268,50.034967],[14.573904,50.035238],[14.573921,50.035245],[14.573876,50.035291],[14.573647,50.035522],[14.573361,50.035759],[14.573069,50.035952],[14.57216,50.036489],[14.572159,50.036489],[14.571948,50.036614],[14.571956,50.03662],[14.572043,50.036683],[14.57191,50.036739],[14.571789,50.0368],[14.571679,50.036865],[14.571124,50.037188],[14.570913,50.037309],[14.570808,50.037369],[14.570217,50.037657],[14.570182,50.037674],[14.570181,50.037674],[14.57006,50.037732],[14.569167,50.038077],[14.569192,50.038175],[14.569208,50.038303],[14.569208,50.038385],[14.569019,50.03943],[14.569106,50.039545],[14.569138,50.039578],[14.569235,50.039681],[14.569495,50.039956],[14.569612,50.040048],[14.569889,50.04021],[14.570077,50.040301],[14.570165,50.040337],[14.570189,50.040346],[14.570278,50.040383],[14.57068,50.040507],[14.570953,50.040568],[14.571279,50.040606],[14.571327,50.04062],[14.571362,50.040644],[14.571385,50.040687],[14.571398,50.040763],[14.571391,50.040922],[14.571456,50.041004],[14.571461,50.041005],[14.572109,50.041099],[14.572247,50.041128],[14.572519,50.041186],[14.572813,50.041269],[14.573489,50.041351],[14.573665,50.041393],[14.573717,50.041405],[14.573727,50.041408],[14.573893,50.041447],[14.573962,50.041464],[14.574126,50.041503],[14.574172,50.041444],[14.574518,50.041549],[14.574726,50.04164],[14.575565,50.041934],[14.575679,50.041992],[14.578494,50.040514],[14.582135,50.038623],[14.583601,50.037841],[14.584444,50.037392],[14.586206,50.036453],[14.589421,50.03474],[14.589763,50.034559]]]}},{"type":"Feature","properties":{"cislo":22007,"kod":165270,"mestskaCast":"praha-22"},"geometry":{"type":"Polygon","coordinates":[[[14.593448,50.032696],[14.593723,50.032571],[14.595073,50.03193],[14.595779,50.031549],[14.596215,50.031311],[14.596199,50.030705],[14.597014,50.030644],[14.598042,50.029708],[14.597711,50.0296],[14.597977,50.029303],[14.597937,50.029292],[14.597857,50.029272],[14.59715,50.029106],[14.596827,50.029031],[14.595929,50.028821],[14.595934,50.028227],[14.59393,50.027747],[14.593279,50.028176],[14.591369,50.027711],[14.590881,50.028109],[14.590645,50.028255],[14.590394,50.028423],[14.589628,50.028752],[14.588936,50.029043],[14.588806,50.029086],[14.588921,50.029371],[14.588962,50.029921],[14.588923,50.030252],[14.5887,50.030647],[14.593448,50.032696]]]}},{"type":"Feature","properties":{"cislo":22008,"kod":27913,"mestskaCast":"praha-22"},"geometry":{"type":"Polygon","coordinates":[[[14.579374,50.032486],[14.579976,50.032148],[14.580499,50.031854],[14.580724,50.031733],[14.580797,50.031701],[14.580901,50.031672],[14.581066,50.031645],[14.581182,50.031641],[14.581217,50.031642],[14.581325,50.031644],[14.581485,50.031669],[14.581598,50.031706],[14.581743,50.031768],[14.581827,50.031804],[14.581953,50.031871],[14.582221,50.031997],[14.582465,50.032103],[14.582639,50.032169],[14.582814,50.032206],[14.582938,50.032219],[14.582986,50.032224],[14.58318,50.032222],[14.583259,50.032217],[14.583467,50.032205],[14.583885,50.032172],[14.584011,50.032163],[14.584093,50.032158],[14.584627,50.032123],[14.585542,50.032062],[14.586686,50.031983],[14.586947,50.031965],[14.587091,50.031955],[14.587458,50.03193],[14.587757,50.031847],[14.587775,50.031837],[14.588057,50.031692],[14.588276,50.031384],[14.588436,50.031108],[14.588542,50.030926],[14.5887,50.030647],[14.588923,50.030252],[14.588962,50.029921],[14.588921,50.029371],[14.588806,50.029086],[14.588936,50.029043],[14.589628,50.028752],[14.590394,50.028423],[14.590645,50.028255],[14.590881,50.028109],[14.591369,50.027711],[14.59144,50.027653],[14.591609,50.027515],[14.591639,50.027487],[14.591685,50.027443],[14.591719,50.027411],[14.591751,50.027357],[14.591808,50.027298],[14.591939,50.027158],[14.592279,50.026821],[14.592242,50.026805],[14.592441,50.026653],[14.592213,50.026546],[14.592127,50.026502],[14.591996,50.026431],[14.591802,50.026309],[14.591795,50.026305],[14.591706,50.026247],[14.591688,50.026236],[14.591615,50.026191],[14.591454,50.026072],[14.591372,50.02601],[14.59129,50.025949],[14.591139,50.025831],[14.591035,50.025747],[14.590931,50.025662],[14.590899,50.025636],[14.590818,50.02557],[14.590747,50.025517],[14.590549,50.025368],[14.590539,50.025361],[14.590331,50.025215],[14.590124,50.025069],[14.589934,50.024936],[14.589859,50.024884],[14.589759,50.024799],[14.589488,50.024573],[14.589444,50.024543],[14.587118,50.022975],[14.587245,50.022904],[14.587245,50.022904],[14.587289,50.022878],[14.587306,50.022871],[14.587385,50.022827],[14.587456,50.022786],[14.587593,50.022709],[14.587701,50.022647],[14.588008,50.022474],[14.588049,50.022451],[14.588121,50.022405],[14.588121,50.022403],[14.587954,50.022147],[14.587852,50.02196],[14.588,50.021914],[14.588298,50.021778],[14.588607,50.02165],[14.589073,50.021403],[14.589569,50.021222],[14.59112,50.021455],[14.591603,50.021362],[14.591766,50.021328],[14.591901,50.0213],[14.592062,50.021266],[14.592533,50.02117],[14.593336,50.020972],[14.593354,50.021011],[14.593462,50.021236],[14.59361,50.021223],[14.593843,50.021202],[14.59419,50.021125],[14.594312,50.021046],[14.594166,50.020863],[14.594021,50.020679],[14.594533,50.020375],[14.595055,50.020116],[14.595396,50.020198],[14.595633,50.020254],[14.595689,50.020268],[14.596009,50.020495],[14.596036,50.020475],[14.596362,50.020234],[14.596286,50.020089],[14.596127,50.019788],[14.596086,50.019711],[14.596526,50.019664],[14.59706,50.019674],[14.597273,50.01963],[14.597309,50.019562],[14.59709,50.019073],[14.596957,50.01912],[14.596557,50.019313],[14.59622,50.019475],[14.596202,50.019462],[14.595918,50.019246],[14.595866,50.019207],[14.59596,50.019118],[14.59607,50.01907],[14.596078,50.01899],[14.596014,50.018884],[14.596191,50.018867],[14.596227,50.018863],[14.596295,50.01883],[14.59634,50.018832],[14.596391,50.018834],[14.596458,50.018799],[14.596553,50.018614],[14.596633,50.018288],[14.596534,50.018191],[14.596519,50.018085],[14.595881,50.01778],[14.594897,50.01907],[14.594341,50.018974],[14.594138,50.018977],[14.593818,50.019031],[14.593556,50.019026],[14.593329,50.018985],[14.593135,50.018908],[14.593415,50.018634],[14.593607,50.018408],[14.5937,50.018289],[14.593785,50.018179],[14.594032,50.017804],[14.594,50.017797],[14.59255,50.017483],[14.59247,50.017308],[14.592461,50.017286],[14.592061,50.0172],[14.591629,50.017099],[14.591001,50.016952],[14.590109,50.016764],[14.590433,50.016007],[14.590471,50.015919],[14.59055,50.015732],[14.590721,50.015334],[14.590787,50.01518],[14.591366,50.015309],[14.59346,50.015828],[14.593603,50.015644],[14.593922,50.015709],[14.5949,50.014647],[14.592858,50.014128],[14.590818,50.013609],[14.591143,50.013053],[14.591469,50.012552],[14.591661,50.012391],[14.590949,50.012175],[14.589446,50.011894],[14.588919,50.011795],[14.588994,50.011578],[14.589008,50.011343],[14.589019,50.011138],[14.589065,50.01101],[14.589091,50.010937],[14.589111,50.01088],[14.589159,50.010277],[14.588258,50.010102],[14.587868,50.010026],[14.587444,50.010868],[14.58739,50.010976],[14.58726,50.011217],[14.587175,50.011343],[14.587088,50.011453],[14.587069,50.01145],[14.587051,50.011447],[14.587034,50.011445],[14.585926,50.011285],[14.584827,50.011164],[14.58456,50.011135],[14.583301,50.011091],[14.582386,50.01106],[14.58204,50.011048],[14.581994,50.010978],[14.581732,50.010953],[14.581715,50.010951],[14.581729,50.011019],[14.581943,50.011853],[14.581994,50.012107],[14.582041,50.012563],[14.582043,50.012672],[14.582029,50.012827],[14.582019,50.012945],[14.581938,50.013889],[14.581946,50.014085],[14.582011,50.014461],[14.582027,50.014555],[14.582086,50.014895],[14.582105,50.014987],[14.582126,50.015085],[14.582199,50.015434],[14.582212,50.015493],[14.582268,50.015759],[14.582278,50.015808],[14.582394,50.016363],[14.582254,50.016301],[14.581982,50.016179],[14.581495,50.015967],[14.58128,50.01586],[14.580949,50.015711],[14.580641,50.015578],[14.58041,50.01548],[14.580077,50.015321],[14.579677,50.015142],[14.579298,50.01497],[14.578891,50.014788],[14.578503,50.014619],[14.57807,50.014419],[14.577769,50.014268],[14.577387,50.0141],[14.577005,50.013923],[14.576627,50.01375],[14.57656,50.013721],[14.576281,50.013597],[14.576091,50.013496],[14.57592,50.013374],[14.575695,50.01314],[14.575483,50.012917],[14.57525,50.012658],[14.575177,50.012604],[14.575095,50.012584],[14.575093,50.012583],[14.574985,50.012557],[14.574961,50.012551],[14.574941,50.012546],[14.574863,50.012527],[14.574175,50.012431],[14.573916,50.012374],[14.573728,50.01256],[14.57359,50.012696],[14.573438,50.01293],[14.573371,50.013078],[14.573307,50.013189],[14.573308,50.013329],[14.573308,50.013353],[14.573311,50.013699],[14.573494,50.013718],[14.573443,50.013922],[14.573397,50.014023],[14.573248,50.014353],[14.573202,50.014458],[14.573094,50.014702],[14.573422,50.014754],[14.573655,50.014943],[14.573691,50.014973],[14.573758,50.015043],[14.573885,50.015251],[14.573991,50.015661],[14.574084,50.015827],[14.574101,50.015861],[14.574148,50.016104],[14.574164,50.016285],[14.57388,50.016304],[14.573881,50.016356],[14.573883,50.016429],[14.573883,50.016447],[14.57389,50.016639],[14.57389,50.016656],[14.573902,50.017022],[14.573893,50.017308],[14.573884,50.017571],[14.572752,50.017689],[14.572449,50.017724],[14.571476,50.017843],[14.571332,50.017861],[14.571312,50.018104],[14.57134,50.018105],[14.571328,50.018349],[14.571368,50.018346],[14.571411,50.019266],[14.571412,50.019271],[14.571555,50.020158],[14.57166,50.020732],[14.571692,50.020938],[14.571756,50.021304],[14.571872,50.02186],[14.57197,50.022215],[14.572033,50.022324],[14.572148,50.0225],[14.572646,50.022323],[14.572982,50.022212],[14.573413,50.022054],[14.57344,50.022073],[14.573462,50.022089],[14.573489,50.022109],[14.57349,50.022109],[14.573522,50.022132],[14.573384,50.022198],[14.573629,50.022939],[14.573215,50.022979],[14.57282,50.023017],[14.572367,50.023048],[14.571903,50.023038],[14.571497,50.023113],[14.571453,50.023132],[14.571228,50.023229],[14.571089,50.023289],[14.57077,50.023862],[14.570731,50.023931],[14.570966,50.024197],[14.571061,50.024305],[14.571439,50.024446],[14.571266,50.024548],[14.571327,50.024622],[14.571437,50.02467],[14.571475,50.024577],[14.571668,50.024561],[14.571756,50.02462],[14.57189,50.024588],[14.571911,50.024583],[14.571914,50.024582],[14.571945,50.024575],[14.571954,50.024573],[14.571958,50.024572],[14.571985,50.024566],[14.571999,50.024562],[14.572038,50.024553],[14.572111,50.024639],[14.572141,50.024737],[14.572178,50.024847],[14.572338,50.024861],[14.572419,50.024963],[14.572338,50.025067],[14.57224,50.025117],[14.572268,50.025156],[14.572287,50.02516],[14.572497,50.025207],[14.572506,50.025209],[14.572588,50.025157],[14.572613,50.025141],[14.572647,50.02512],[14.572743,50.025184],[14.572769,50.025298],[14.572731,50.025373],[14.572838,50.025482],[14.572815,50.025542],[14.572702,50.025629],[14.572555,50.02572],[14.572584,50.025779],[14.572699,50.025911],[14.572551,50.026013],[14.572326,50.026052],[14.572302,50.026035],[14.572249,50.025999],[14.572209,50.025938],[14.572157,50.025922],[14.5721,50.026001],[14.571866,50.026007],[14.571716,50.025977],[14.571648,50.026032],[14.571339,50.026061],[14.571162,50.026064],[14.57108,50.026002],[14.571056,50.026075],[14.57104,50.026121],[14.570974,50.026321],[14.570979,50.026722],[14.570971,50.026814],[14.570961,50.02688],[14.570948,50.026968],[14.570946,50.027004],[14.570944,50.027034],[14.570877,50.02736],[14.57087,50.027393],[14.570868,50.027406],[14.570854,50.027472],[14.570628,50.028093],[14.570601,50.028167],[14.570445,50.028499],[14.570272,50.028869],[14.570083,50.029275],[14.570461,50.029364],[14.57164,50.02964],[14.572688,50.029925],[14.572847,50.029755],[14.572881,50.029773],[14.57292,50.029788],[14.575153,50.030638],[14.575353,50.030801],[14.575648,50.03109],[14.575845,50.031284],[14.576141,50.031542],[14.576162,50.03156],[14.576333,50.031693],[14.576464,50.031766],[14.57651,50.031817],[14.576649,50.031846],[14.576759,50.031895],[14.577051,50.032025],[14.577393,50.03221],[14.57742,50.032201],[14.577474,50.032184],[14.577517,50.03217],[14.57752,50.03217],[14.57755,50.03216],[14.577603,50.03197],[14.577679,50.031762],[14.577743,50.031636],[14.577743,50.031635],[14.578007,50.031736],[14.578232,50.031834],[14.578605,50.032011],[14.578913,50.032174],[14.579067,50.032266],[14.57921,50.032361],[14.579266,50.032408],[14.579292,50.03243],[14.579331,50.032462],[14.579356,50.032477],[14.57937,50.032484],[14.579374,50.032486]]]}},{"type":"Feature","properties":{"cislo":22009,"kod":43619,"mestskaCast":"praha-22"},"geometry":{"type":"Polygon","coordinates":[[[14.622062,50.062909],[14.622058,50.062897],[14.622056,50.062889],[14.622043,50.062843],[14.622042,50.062839],[14.622035,50.062815],[14.622088,50.062814],[14.622117,50.062814],[14.622321,50.062802],[14.622557,50.062788],[14.62273,50.062778],[14.622954,50.062766],[14.623292,50.062749],[14.623306,50.062748],[14.623432,50.062742],[14.623643,50.062733],[14.623722,50.062729],[14.623864,50.06272],[14.624108,50.062706],[14.624373,50.06269],[14.624363,50.062656],[14.624274,50.062357],[14.62426,50.062334],[14.624071,50.062038],[14.623925,50.061809],[14.623921,50.061803],[14.623828,50.061656],[14.623712,50.061474],[14.623709,50.06147],[14.623628,50.061343],[14.623618,50.061328],[14.623498,50.061138],[14.623492,50.06113],[14.623485,50.061118],[14.623372,50.060917],[14.625343,50.060743],[14.627248,50.060572],[14.62724,50.060561],[14.627151,50.060425],[14.627134,50.060406],[14.626997,50.060246],[14.626922,50.060157],[14.626814,50.059993],[14.626739,50.059878],[14.626607,50.059673],[14.626577,50.059626],[14.62654,50.059567],[14.626507,50.059516],[14.626465,50.05945],[14.62643,50.059396],[14.626391,50.059334],[14.625951,50.059338],[14.62546,50.05926],[14.624522,50.05911],[14.625118,50.058057],[14.625211,50.057883],[14.625245,50.057819],[14.625255,50.057799],[14.625274,50.057765],[14.625335,50.057772],[14.62532,50.057741],[14.625199,50.057569],[14.625118,50.0574],[14.625066,50.057292],[14.625127,50.057053],[14.62519,50.056807],[14.625255,50.056495],[14.62529,50.056262],[14.625318,50.056018],[14.625346,50.055802],[14.625371,50.055672],[14.625376,50.055647],[14.625392,50.055561],[14.625445,50.055555],[14.625447,50.055555],[14.625525,50.055547],[14.62556,50.055543],[14.625576,50.055541],[14.6263,50.055355],[14.626624,50.055269],[14.627293,50.055106],[14.627624,50.055016],[14.627947,50.054903],[14.627948,50.054913],[14.627953,50.05496],[14.628549,50.054717],[14.631243,50.053519],[14.631384,50.053591],[14.631757,50.053951],[14.632532,50.054648],[14.632571,50.054666],[14.6326,50.054682],[14.632617,50.054692],[14.63263,50.054699],[14.63265,50.054709],[14.632706,50.054796],[14.632885,50.054929],[14.633116,50.054986],[14.634047,50.055214],[14.634097,50.055226],[14.634136,50.055236],[14.635062,50.055462],[14.636075,50.055722],[14.6376,50.056113],[14.637601,50.056113],[14.637753,50.056771],[14.637829,50.057097],[14.637866,50.057094],[14.637903,50.05709],[14.638683,50.057019],[14.638552,50.057294],[14.63889,50.05735],[14.639584,50.057396],[14.639763,50.057354],[14.63997,50.057165],[14.640055,50.057052],[14.640087,50.057008],[14.64014,50.056885],[14.640193,50.056894],[14.640361,50.056195],[14.64045,50.055732],[14.640602,50.054988],[14.640673,50.05486],[14.640766,50.054787],[14.640898,50.054752],[14.641085,50.054743],[14.64126,50.054758],[14.641273,50.054734],[14.641291,50.054702],[14.64133,50.054632],[14.641343,50.054312],[14.64135,50.05413],[14.641325,50.053671],[14.641316,50.053545],[14.641283,50.053119],[14.641243,50.052903],[14.641216,50.052757],[14.641028,50.052139],[14.640805,50.051689],[14.640676,50.051439],[14.64063,50.05124],[14.640628,50.050851],[14.640668,50.050476],[14.640657,50.050322],[14.640675,50.050174],[14.640681,50.050125],[14.640734,50.049697],[14.640805,50.049441],[14.640931,50.049101],[14.640977,50.04898],[14.640985,50.048848],[14.640966,50.048825],[14.64081,50.048643],[14.640787,50.048616],[14.640599,50.04853],[14.640266,50.048427],[14.640221,50.048413],[14.640161,50.048399],[14.639818,50.048357],[14.639473,50.048328],[14.639279,50.048314],[14.638932,50.048299],[14.638584,50.048294],[14.638347,50.04829],[14.637963,50.048279],[14.637922,50.048278],[14.637838,50.048197],[14.637729,50.047956],[14.637633,50.047706],[14.637543,50.047451],[14.637503,50.047303],[14.637455,50.047277],[14.637334,50.047243],[14.636998,50.047194],[14.636628,50.047129],[14.636249,50.047051],[14.635921,50.046972],[14.635581,50.046879],[14.63522,50.046782],[14.634867,50.046657],[14.63469,50.04658],[14.634528,50.04649],[14.634315,50.046347],[14.63415,50.046216],[14.633956,50.046056],[14.63383,50.045933],[14.633709,50.045837],[14.633646,50.045834],[14.633599,50.045832],[14.633587,50.045926],[14.633406,50.045878],[14.633165,50.045887],[14.63228,50.04615],[14.631691,50.046225],[14.631647,50.046231],[14.63164,50.046232],[14.631515,50.046252],[14.631491,50.046177],[14.631488,50.046167],[14.631269,50.045476],[14.631257,50.045438],[14.631222,50.045327],[14.63121,50.04529],[14.631179,50.045194],[14.631098,50.045105],[14.630265,50.044751],[14.629485,50.044566],[14.629429,50.044552],[14.62886,50.044415],[14.628635,50.044361],[14.628423,50.044229],[14.628399,50.044181],[14.628291,50.044176],[14.628278,50.044175],[14.628197,50.044171],[14.628185,50.044171],[14.627896,50.044157],[14.627889,50.044156],[14.627792,50.044152],[14.627714,50.044148],[14.627591,50.044163],[14.627388,50.044162],[14.627398,50.044136],[14.627457,50.043983],[14.627539,50.043786],[14.62762,50.043685],[14.627975,50.043344],[14.628071,50.043183],[14.628124,50.043062],[14.628151,50.042787],[14.628173,50.042485],[14.628121,50.042194],[14.628009,50.041844],[14.627896,50.041678],[14.627849,50.041624],[14.627544,50.041406],[14.627517,50.041296],[14.62746,50.041333],[14.627404,50.04137],[14.627361,50.041399],[14.627172,50.041501],[14.626767,50.041759],[14.626668,50.041818],[14.626248,50.042034],[14.626158,50.042078],[14.626102,50.042105],[14.625931,50.042187],[14.625044,50.042595],[14.624581,50.04299],[14.624334,50.043295],[14.623985,50.043682],[14.623504,50.044094],[14.623063,50.044319],[14.622081,50.044769],[14.621243,50.045068],[14.621206,50.045081],[14.620193,50.045439],[14.620099,50.045467],[14.619779,50.045561],[14.619383,50.045678],[14.618359,50.045788],[14.617796,50.045921],[14.616599,50.046252],[14.616265,50.046368],[14.615943,50.046495],[14.615254,50.046888],[14.615236,50.046894],[14.615164,50.046917],[14.615057,50.046917],[14.615037,50.046913],[14.614073,50.046739],[14.613739,50.046679],[14.613455,50.046624],[14.612509,50.046441],[14.612118,50.046365],[14.610916,50.046133],[14.610838,50.046114],[14.610389,50.046375],[14.609898,50.046432],[14.608395,50.04661],[14.606569,50.04685],[14.605271,50.047001],[14.604835,50.047052],[14.602742,50.047297],[14.600876,50.047525],[14.599401,50.047705],[14.598996,50.047752],[14.598376,50.047824],[14.598018,50.047893],[14.597679,50.047984],[14.597429,50.048048],[14.597151,50.048125],[14.596931,50.048198],[14.59664,50.048308],[14.596265,50.04848],[14.596438,50.048984],[14.596296,50.049275],[14.596119,50.04949],[14.596541,50.05023],[14.596696,50.050439],[14.596517,50.051372],[14.596485,50.05154],[14.596391,50.051689],[14.596215,50.051849],[14.596015,50.052007],[14.595962,50.052069],[14.595943,50.052093],[14.595842,50.052764],[14.595785,50.05321],[14.595742,50.05357],[14.595763,50.053573],[14.596272,50.053652],[14.597251,50.053863],[14.597881,50.053965],[14.59797,50.053971],[14.598939,50.054029],[14.598974,50.054032],[14.599315,50.053601],[14.599767,50.053091],[14.599947,50.053121],[14.599947,50.053121],[14.600314,50.053181],[14.600499,50.0532],[14.600557,50.053199],[14.600859,50.053193],[14.601019,50.053218],[14.601073,50.053227],[14.601226,50.053266],[14.601344,50.053298],[14.601357,50.053302],[14.601737,50.053406],[14.601968,50.053408],[14.602111,50.053373],[14.602369,50.053307],[14.602602,50.053316],[14.602902,50.053393],[14.603116,50.053599],[14.602547,50.054462],[14.602134,50.055171],[14.602111,50.055211],[14.602181,50.055222],[14.602201,50.055226],[14.602221,50.05523],[14.602247,50.055235],[14.602301,50.055245],[14.602337,50.055252],[14.60238,50.055203],[14.602407,50.055174],[14.602412,50.055174],[14.602827,50.055243],[14.603257,50.055333],[14.604317,50.05556],[14.604951,50.055686],[14.605835,50.05584],[14.606748,50.055978],[14.606914,50.055968],[14.608188,50.056136],[14.608308,50.056145],[14.608741,50.056179],[14.609804,50.056261],[14.609915,50.05627],[14.60999,50.056276],[14.610014,50.056278],[14.610037,50.05628],[14.610233,50.056297],[14.610458,50.056316],[14.610704,50.056338],[14.610719,50.056339],[14.610875,50.056351],[14.611025,50.056362],[14.6112,50.056376],[14.611327,50.056385],[14.611483,50.056397],[14.611492,50.056398],[14.611785,50.056402],[14.611802,50.05632],[14.612089,50.056288],[14.612152,50.056281],[14.612248,50.056272],[14.612413,50.056255],[14.612449,50.056252],[14.612724,50.056195],[14.612736,50.056192],[14.613006,50.056136],[14.613348,50.056065],[14.613374,50.056059],[14.613953,50.05592],[14.613988,50.055912],[14.614275,50.055842],[14.614343,50.055826],[14.614381,50.05582],[14.614384,50.05582],[14.614625,50.055786],[14.615304,50.055691],[14.615532,50.05566],[14.615713,50.055656],[14.615728,50.056256],[14.615685,50.05655],[14.615674,50.057115],[14.61573,50.05754],[14.616092,50.057445],[14.616143,50.057434],[14.616187,50.057425],[14.616583,50.057339],[14.616597,50.057336],[14.616787,50.057294],[14.616982,50.057252],[14.617254,50.057192],[14.617824,50.057129],[14.617882,50.057124],[14.618142,50.057103],[14.618299,50.057091],[14.61852,50.057073],[14.618735,50.057056],[14.619032,50.057033],[14.619038,50.057032],[14.619336,50.057006],[14.619671,50.056976],[14.619674,50.056976],[14.620124,50.056936],[14.620161,50.056933],[14.620356,50.056916],[14.620608,50.056895],[14.621229,50.056842],[14.621231,50.056884],[14.621213,50.057081],[14.621211,50.057104],[14.621209,50.057126],[14.621243,50.057128],[14.62109,50.057766],[14.62109,50.057768],[14.621031,50.058148],[14.62101,50.058529],[14.621012,50.058974],[14.621015,50.059313],[14.621015,50.059322],[14.621014,50.059329],[14.620962,50.06025],[14.620962,50.060256],[14.620957,50.060281],[14.620877,50.060687],[14.620812,50.061016],[14.620784,50.061157],[14.620669,50.061449],[14.620651,50.061494],[14.620541,50.061696],[14.620222,50.062283],[14.619954,50.062776],[14.619941,50.062804],[14.61992,50.062848],[14.619905,50.062881],[14.620172,50.062895],[14.620381,50.062909],[14.621095,50.062922],[14.621606,50.062926],[14.622016,50.062911],[14.622062,50.062909]]]}}]}
