{"type":"FeatureCollection","features":[{"type":"Feature","properties":{"cislo":43001,"kod":27781,"mestskaCast":"praha-nedvezi"},"geometry":{"type":"Polygon","coordinates":[[[14.661349,50.025758],[14.661511,50.025594],[14.661654,50.025447],[14.661788,50.025311],[14.661816,50.025283],[14.66205,50.025044],[14.662617,50.024467],[14.663476,50.023592],[14.664256,50.022797],[14.664996,50.022044],[14.665051,50.021988],[14.665343,50.021691],[14.66604,50.020981],[14.666056,50.020964],[14.666434,50.02058],[14.666602,50.020408],[14.666782,50.020225],[14.666965,50.020039],[14.667375,50.019622],[14.667868,50.019119],[14.668035,50.018949],[14.669512,50.018842],[14.669538,50.01884],[14.669533,50.018812],[14.669528,50.018784],[14.669439,50.018307],[14.669099,50.017469],[14.669018,50.017239],[14.668968,50.016425],[14.668966,50.016395],[14.668964,50.01638],[14.668947,50.016259],[14.668911,50.01601],[14.668877,50.015777],[14.668865,50.015732],[14.668807,50.015521],[14.668789,50.015454],[14.668758,50.015342],[14.668701,50.015052],[14.668662,50.0149],[14.668657,50.014881],[14.668593,50.014627],[14.668566,50.014462],[14.668545,50.014332],[14.668533,50.014091],[14.668528,50.014003],[14.668549,50.013434],[14.667974,50.013476],[14.667603,50.013527],[14.667423,50.013552],[14.667277,50.013572],[14.667205,50.013438],[14.667172,50.013376],[14.667079,50.013203],[14.666983,50.013205],[14.666817,50.01321],[14.666725,50.013212],[14.666266,50.012964],[14.666134,50.012889],[14.666011,50.012819],[14.665648,50.013156],[14.665618,50.013183],[14.665415,50.01337],[14.665304,50.01341],[14.665199,50.01342],[14.665164,50.013423],[14.665106,50.013435],[14.664431,50.013567],[14.664196,50.013607],[14.66397,50.013593],[14.663745,50.013581],[14.663194,50.013589],[14.663086,50.01334],[14.663091,50.013196],[14.663039,50.013161],[14.662705,50.013173],[14.66257,50.012991],[14.662538,50.012947],[14.662295,50.012921],[14.662173,50.01289],[14.662098,50.012862],[14.661951,50.012808],[14.66163,50.01282],[14.661586,50.012783],[14.66146,50.012613],[14.661278,50.012399],[14.661454,50.012341],[14.661684,50.012244],[14.66206,50.012122],[14.6622,50.012053],[14.662366,50.011909],[14.662534,50.011772],[14.662785,50.011641],[14.662777,50.011507],[14.662822,50.01136],[14.662879,50.011212],[14.66267,50.010866],[14.662764,50.01078],[14.662784,50.010762],[14.662896,50.010658],[14.662904,50.010591],[14.662865,50.010509],[14.662599,50.010249],[14.66217,50.009813],[14.66215,50.009794],[14.66184,50.009505],[14.661817,50.009483],[14.66162,50.0093],[14.661633,50.009281],[14.661707,50.009171],[14.661819,50.00891],[14.661963,50.008571],[14.662616,50.008403],[14.662599,50.008379],[14.662421,50.008146],[14.662368,50.008077],[14.662354,50.008056],[14.662346,50.008044],[14.662341,50.008037],[14.66233,50.008022],[14.662324,50.008012],[14.66225,50.007903],[14.66212,50.007714],[14.662058,50.007623],[14.661999,50.007536],[14.661977,50.007504],[14.661883,50.007366],[14.661812,50.007301],[14.661474,50.007179],[14.661428,50.007158],[14.661215,50.00706],[14.660953,50.006901],[14.660802,50.006808],[14.6608,50.006808],[14.660794,50.006803],[14.660522,50.006607],[14.66047,50.006548],[14.660446,50.006521],[14.660413,50.006495],[14.660273,50.006384],[14.658791,50.005229],[14.657921,50.004467],[14.657886,50.004436],[14.657825,50.004383],[14.657786,50.004349],[14.657259,50.004641],[14.656641,50.004985],[14.656588,50.005015],[14.656399,50.00512],[14.655888,50.005405],[14.65571,50.005504],[14.655691,50.005515],[14.655662,50.005531],[14.655496,50.005624],[14.655376,50.00569],[14.65357,50.006698],[14.651487,50.007861],[14.651304,50.007962],[14.650793,50.008246],[14.649914,50.008733],[14.649805,50.008794],[14.649054,50.008073],[14.648822,50.007851],[14.648793,50.007824],[14.648776,50.007807],[14.648578,50.00794],[14.648517,50.007972],[14.648152,50.008159],[14.647593,50.008426],[14.647193,50.008629],[14.647053,50.008685],[14.6469,50.008779],[14.646754,50.008868],[14.646722,50.008892],[14.64642,50.009117],[14.645843,50.009491],[14.645697,50.009583],[14.645373,50.009789],[14.645068,50.009967],[14.644638,50.01012],[14.644353,50.010231],[14.644218,50.010286],[14.643905,50.010418],[14.643739,50.010484],[14.643321,50.010631],[14.643102,50.010701],[14.643108,50.010719],[14.643132,50.010789],[14.643221,50.010994],[14.643482,50.011425],[14.643703,50.011788],[14.64375,50.011865],[14.643887,50.012089],[14.64389,50.012094],[14.643908,50.012125],[14.643934,50.012172],[14.643952,50.012204],[14.643974,50.012243],[14.643974,50.012244],[14.643974,50.012245],[14.644174,50.01268],[14.644213,50.012765],[14.643928,50.012802],[14.643754,50.012824],[14.643683,50.012831],[14.64359,50.012839],[14.643084,50.012885],[14.643126,50.013455],[14.643114,50.013781],[14.643095,50.014225],[14.643015,50.014209],[14.642752,50.0142],[14.642433,50.014188],[14.642367,50.014192],[14.641851,50.014222],[14.641408,50.014245],[14.640337,50.0143],[14.640298,50.014299],[14.640208,50.014298],[14.64004,50.014296],[14.640035,50.014296],[14.639931,50.014294],[14.639349,50.014286],[14.639327,50.014286],[14.639175,50.014283],[14.639084,50.014283],[14.639052,50.014456],[14.638978,50.014607],[14.638966,50.014631],[14.638839,50.014913],[14.638826,50.014938],[14.638816,50.014958],[14.638805,50.014978],[14.638732,50.01512],[14.638693,50.015194],[14.638677,50.015224],[14.638662,50.015252],[14.638418,50.015699],[14.638846,50.015758],[14.63863,50.016524],[14.638622,50.016553],[14.638475,50.017041],[14.638472,50.017054],[14.638469,50.017064],[14.63844,50.017116],[14.638428,50.017138],[14.638414,50.017163],[14.638383,50.017383],[14.638342,50.017683],[14.638319,50.017838],[14.638318,50.017858],[14.638278,50.018115],[14.638255,50.018266],[14.638415,50.018277],[14.638476,50.018281],[14.638966,50.018313],[14.639519,50.018335],[14.639545,50.019168],[14.639485,50.019913],[14.639444,50.020086],[14.63907,50.020059],[14.638931,50.020584],[14.63887,50.020814],[14.638109,50.020719],[14.637938,50.020691],[14.637876,50.021058],[14.637856,50.021596],[14.637855,50.021628],[14.637897,50.021847],[14.637921,50.021919],[14.638102,50.022457],[14.638635,50.022522],[14.639526,50.022658],[14.639851,50.022706],[14.639921,50.022716],[14.640211,50.022759],[14.64072,50.022834],[14.641106,50.0229],[14.641315,50.022949],[14.641084,50.023312],[14.641076,50.023329],[14.640879,50.023733],[14.640862,50.023755],[14.640663,50.023747],[14.64048,50.023726],[14.639689,50.023609],[14.639509,50.023582],[14.639399,50.023565],[14.63874,50.023465],[14.638657,50.023456],[14.6384,50.023444],[14.638199,50.023473],[14.638188,50.023536],[14.638045,50.023573],[14.63796,50.023641],[14.637672,50.023908],[14.637558,50.024022],[14.637454,50.024097],[14.637349,50.024214],[14.637152,50.024438],[14.637092,50.024577],[14.637023,50.024664],[14.6368,50.025043],[14.636862,50.025091],[14.637003,50.025111],[14.636574,50.025999],[14.636721,50.026025],[14.637147,50.026101],[14.637157,50.026104],[14.63774,50.026248],[14.63784,50.026273],[14.637927,50.026295],[14.638046,50.026329],[14.638073,50.026337],[14.638674,50.026513],[14.639286,50.026668],[14.640141,50.026817],[14.6405,50.02688],[14.640596,50.026889],[14.640649,50.026895],[14.640694,50.026904],[14.640746,50.026908],[14.640828,50.026631],[14.640839,50.026448],[14.641552,50.026515],[14.642442,50.026611],[14.642791,50.026651],[14.643322,50.02671],[14.642876,50.027518],[14.642849,50.027595],[14.64338,50.027656],[14.644024,50.027855],[14.644703,50.02812],[14.645328,50.028423],[14.645495,50.028503],[14.645812,50.028619],[14.646128,50.028126],[14.646285,50.027881],[14.64664,50.027223],[14.646892,50.027279],[14.647148,50.027336],[14.64827,50.027605],[14.648279,50.027599],[14.648506,50.027447],[14.649048,50.027221],[14.649872,50.027047],[14.649896,50.027042],[14.64988,50.027025],[14.650273,50.026948],[14.65042,50.026923],[14.650415,50.026893],[14.651061,50.026551],[14.651088,50.026531],[14.6511,50.026524],[14.651118,50.026512],[14.65113,50.026505],[14.651134,50.026479],[14.651174,50.026248],[14.651443,50.026271],[14.652157,50.026275],[14.653579,50.026207],[14.654796,50.026193],[14.654971,50.026191],[14.65502,50.026192],[14.65539,50.0262],[14.655393,50.02617],[14.655394,50.026159],[14.65542,50.025898],[14.655531,50.025872],[14.655551,50.025873],[14.655798,50.025878],[14.65664,50.025897],[14.656977,50.025905],[14.657079,50.025907],[14.65737,50.025928],[14.657861,50.025961],[14.657983,50.025577],[14.657997,50.025525],[14.658018,50.025452],[14.65803,50.025409],[14.65828,50.025429],[14.659555,50.025686],[14.659788,50.025706],[14.660224,50.025743],[14.661167,50.025795],[14.661349,50.025758]]]}}]}
