{"type":"FeatureCollection","features":[{"type":"Feature","properties":{"cislo":33001,"kod":27783,"mestskaCast":"praha-kolodeje"},"geometry":{"type":"Polygon","coordinates":[[[14.639338,50.072482],[14.639893,50.072229],[14.640217,50.072103],[14.640504,50.072013],[14.640716,50.071973],[14.640753,50.071969],[14.641353,50.071898],[14.641388,50.071892],[14.641593,50.071852],[14.641794,50.071778],[14.64217,50.071638],[14.642279,50.071597],[14.643048,50.071297],[14.643178,50.071187],[14.64326,50.071159],[14.64328,50.07115],[14.643302,50.07114],[14.64334,50.07112],[14.643407,50.071084],[14.643864,50.070933],[14.643993,50.070878],[14.64441,50.070703],[14.644446,50.070687],[14.645409,50.070274],[14.645769,50.070178],[14.646234,50.070202],[14.646878,50.070225],[14.647854,50.070215],[14.65015,50.070127],[14.650168,50.070121],[14.650189,50.070113],[14.65026,50.070086],[14.650277,50.07008],[14.650309,50.070068],[14.65028,50.070029],[14.650246,50.069986],[14.650563,50.069807],[14.650699,50.06973],[14.650848,50.069646],[14.650882,50.069627],[14.650919,50.069604],[14.651077,50.069515],[14.651252,50.069417],[14.651602,50.069176],[14.651815,50.069027],[14.651851,50.069001],[14.652232,50.068762],[14.652525,50.068559],[14.652667,50.068461],[14.652706,50.068433],[14.652834,50.068374],[14.653088,50.068256],[14.653366,50.068144],[14.65365,50.068012],[14.654,50.067865],[14.654346,50.067715],[14.65461,50.067552],[14.654853,50.067364],[14.654932,50.06716],[14.655096,50.067003],[14.655311,50.066796],[14.655429,50.066683],[14.655751,50.066605],[14.655956,50.066494],[14.656175,50.066339],[14.656262,50.066279],[14.656508,50.066068],[14.65664,50.065826],[14.656851,50.065707],[14.656944,50.065655],[14.657061,50.06558],[14.657253,50.065456],[14.657275,50.065437],[14.657289,50.065426],[14.657486,50.065261],[14.657668,50.065014],[14.65783,50.064819],[14.657862,50.06478],[14.658319,50.064339],[14.658525,50.064124],[14.658614,50.064054],[14.658656,50.06408],[14.658922,50.063835],[14.659328,50.063582],[14.659967,50.063185],[14.660246,50.062954],[14.660607,50.06275],[14.660622,50.062742],[14.660578,50.062732],[14.660443,50.062701],[14.659988,50.062636],[14.659581,50.062528],[14.659308,50.062456],[14.659118,50.062422],[14.658752,50.062356],[14.65841,50.062335],[14.658379,50.062329],[14.658171,50.062284],[14.657797,50.062122],[14.657832,50.062091],[14.658022,50.061926],[14.658436,50.061957],[14.658426,50.061822],[14.658416,50.06169],[14.658835,50.06173],[14.658945,50.06174],[14.658894,50.061637],[14.658882,50.061612],[14.658791,50.061427],[14.658316,50.061463],[14.658103,50.061066],[14.657875,50.061277],[14.656734,50.061269],[14.656722,50.061269],[14.656419,50.061285],[14.656366,50.061288],[14.655962,50.06126],[14.655638,50.061307],[14.655416,50.061318],[14.655084,50.061333],[14.654525,50.06136],[14.654245,50.061402],[14.653999,50.06144],[14.653751,50.061558],[14.653689,50.061588],[14.653204,50.061666],[14.652969,50.061704],[14.652034,50.061909],[14.651591,50.061943],[14.651452,50.061953],[14.651604,50.061103],[14.651696,50.060824],[14.651767,50.060605],[14.652136,50.059538],[14.651671,50.059571],[14.651669,50.059571],[14.651384,50.059591],[14.651328,50.059595],[14.651023,50.059617],[14.650971,50.05962],[14.650671,50.059642],[14.650656,50.059643],[14.649919,50.059695],[14.649211,50.059746],[14.648297,50.05981],[14.647663,50.059855],[14.647613,50.059859],[14.647307,50.059881],[14.647245,50.059885],[14.646899,50.05991],[14.646553,50.059934],[14.646275,50.059954],[14.646213,50.059958],[14.645868,50.059983],[14.645525,50.060007],[14.645182,50.060032],[14.644838,50.060056],[14.644859,50.060028],[14.644862,50.060025],[14.6449,50.059974],[14.644916,50.059952],[14.644918,50.059949],[14.644943,50.059916],[14.645789,50.058787],[14.645828,50.058735],[14.645789,50.058726],[14.645433,50.058647],[14.645034,50.058557],[14.64478,50.0585],[14.644685,50.05847],[14.644307,50.058351],[14.644036,50.058266],[14.644014,50.058259],[14.643904,50.058211],[14.64389,50.058204],[14.643625,50.058088],[14.643571,50.058015],[14.643427,50.057823],[14.643356,50.057773],[14.643223,50.057684],[14.64307,50.05757],[14.64305,50.057555],[14.643006,50.057543],[14.642691,50.057451],[14.642672,50.057446],[14.642581,50.057419],[14.640207,50.056897],[14.640193,50.056894],[14.64014,50.056885],[14.640087,50.057008],[14.640055,50.057052],[14.63997,50.057165],[14.639763,50.057354],[14.639584,50.057396],[14.63889,50.05735],[14.638552,50.057294],[14.638683,50.057019],[14.637903,50.05709],[14.637866,50.057094],[14.637829,50.057097],[14.637753,50.056771],[14.637601,50.056113],[14.6376,50.056113],[14.636075,50.055722],[14.635062,50.055462],[14.634136,50.055236],[14.634097,50.055226],[14.634047,50.055214],[14.633116,50.054986],[14.632885,50.054929],[14.632706,50.054796],[14.63265,50.054709],[14.63263,50.054699],[14.632617,50.054692],[14.6326,50.054682],[14.632571,50.054666],[14.632532,50.054648],[14.631757,50.053951],[14.631384,50.053591],[14.631243,50.053519],[14.628549,50.054717],[14.627953,50.05496],[14.627948,50.054913],[14.627947,50.054903],[14.627624,50.055016],[14.627293,50.055106],[14.626624,50.055269],[14.6263,50.055355],[14.625576,50.055541],[14.62556,50.055543],[14.625525,50.055547],[14.625447,50.055555],[14.625445,50.055555],[14.625392,50.055561],[14.625376,50.055647],[14.625371,50.055672],[14.625346,50.055802],[14.625318,50.056018],[14.62529,50.056262],[14.625255,50.056495],[14.62519,50.056807],[14.625127,50.057053],[14.625066,50.057292],[14.625118,50.0574],[14.625199,50.057569],[14.62532,50.057741],[14.625335,50.057772],[14.625274,50.057765],[14.625255,50.057799],[14.625245,50.057819],[14.625211,50.057883],[14.625118,50.058057],[14.624522,50.05911],[14.62546,50.05926],[14.625951,50.059338],[14.626391,50.059334],[14.62643,50.059396],[14.626465,50.05945],[14.626507,50.059516],[14.62654,50.059567],[14.626577,50.059626],[14.626607,50.059673],[14.626739,50.059878],[14.626814,50.059993],[14.626922,50.060157],[14.626997,50.060246],[14.627134,50.060406],[14.627151,50.060425],[14.62724,50.060561],[14.627248,50.060572],[14.625343,50.060743],[14.623372,50.060917],[14.623485,50.061118],[14.623492,50.06113],[14.623498,50.061138],[14.623618,50.061328],[14.623628,50.061343],[14.623709,50.06147],[14.623712,50.061474],[14.623828,50.061656],[14.623921,50.061803],[14.623925,50.061809],[14.624071,50.062038],[14.62426,50.062334],[14.624274,50.062357],[14.624363,50.062656],[14.624373,50.06269],[14.624108,50.062706],[14.623864,50.06272],[14.623722,50.062729],[14.623643,50.062733],[14.623432,50.062742],[14.623306,50.062748],[14.623292,50.062749],[14.622954,50.062766],[14.62273,50.062778],[14.622557,50.062788],[14.622321,50.062802],[14.622117,50.062814],[14.622088,50.062814],[14.622035,50.062815],[14.622042,50.062839],[14.622043,50.062843],[14.622056,50.062889],[14.622058,50.062897],[14.622062,50.062909],[14.622077,50.063219],[14.622498,50.064218],[14.622513,50.064329],[14.622301,50.064367],[14.622235,50.064481],[14.622204,50.064631],[14.621803,50.064706],[14.621744,50.064717],[14.621534,50.064767],[14.62112,50.064795],[14.621055,50.064799],[14.620863,50.064818],[14.620793,50.064825],[14.620565,50.06485],[14.620076,50.064884],[14.619246,50.064864],[14.619133,50.064768],[14.61909,50.064764],[14.619077,50.064762],[14.618759,50.065156],[14.618007,50.066024],[14.617938,50.066209],[14.617938,50.067107],[14.617756,50.067768],[14.617691,50.067885],[14.617423,50.068361],[14.617469,50.068369],[14.617856,50.068455],[14.618235,50.068551],[14.618619,50.068673],[14.619057,50.068811],[14.619408,50.068929],[14.619811,50.069047],[14.620199,50.069144],[14.620611,50.069244],[14.621024,50.069353],[14.621477,50.069474],[14.621851,50.069593],[14.622218,50.069707],[14.622576,50.069826],[14.623012,50.069967],[14.623346,50.070078],[14.623725,50.070201],[14.624043,50.070311],[14.624359,50.07042],[14.624308,50.070548],[14.624296,50.07058],[14.624034,50.070855],[14.623692,50.071123],[14.623583,50.071208],[14.623399,50.071456],[14.62333,50.07155],[14.623231,50.071796],[14.623083,50.072099],[14.623022,50.072223],[14.623336,50.072354],[14.623811,50.072553],[14.623847,50.072568],[14.623873,50.072579],[14.623709,50.072811],[14.623591,50.073036],[14.623435,50.0732],[14.623194,50.073549],[14.623192,50.073552],[14.623043,50.073779],[14.622899,50.073923],[14.62259,50.074143],[14.622288,50.07427],[14.6219,50.074429],[14.622001,50.074475],[14.622681,50.074782],[14.62304,50.074628],[14.62329,50.074503],[14.623514,50.074374],[14.62366,50.074293],[14.623827,50.074226],[14.624028,50.074167],[14.624172,50.074127],[14.624325,50.074083],[14.625244,50.074588],[14.62612,50.07357],[14.625793,50.073419],[14.62602,50.0731],[14.626247,50.072927],[14.626358,50.072753],[14.626026,50.072599],[14.625717,50.072532],[14.625562,50.07246],[14.625619,50.072432],[14.625854,50.072364],[14.62589,50.072354],[14.625921,50.072316],[14.625972,50.072255],[14.62641,50.071732],[14.626957,50.071897],[14.62702,50.071916],[14.627101,50.071941],[14.627739,50.072138],[14.629069,50.072633],[14.629126,50.07259],[14.629297,50.072441],[14.629398,50.072352],[14.629457,50.072302],[14.629672,50.072123],[14.629962,50.071859],[14.630216,50.071619],[14.630461,50.07139],[14.630721,50.071133],[14.630982,50.07088],[14.63122,50.070639],[14.631455,50.070402],[14.631498,50.070414],[14.631557,50.07043],[14.631585,50.070438],[14.633903,50.071292],[14.634658,50.07157],[14.634725,50.071595],[14.636493,50.072185],[14.636536,50.072272],[14.636556,50.072652],[14.637013,50.072621],[14.637088,50.072616],[14.637406,50.072551],[14.637415,50.072549],[14.637834,50.072524],[14.638132,50.072506],[14.638437,50.072443],[14.638977,50.07229],[14.639156,50.07224],[14.639338,50.072482]]]}}]}
