{"type":"FeatureCollection","features":[{"type":"Feature","properties":{"cislo":20001,"kod":38507,"mestskaCast":"praha-20"},"geometry":{"type":"Polygon","coordinates":[[[14.602645,50.121404],[14.602579,50.120846],[14.602812,50.118934],[14.602729,50.117919],[14.603231,50.117945],[14.603228,50.117827],[14.603148,50.117266],[14.60311,50.117045],[14.603033,50.116539],[14.602977,50.116135],[14.602949,50.115933],[14.602895,50.115584],[14.602897,50.115575],[14.602731,50.115288],[14.602441,50.114791],[14.602223,50.114419],[14.601837,50.113768],[14.601477,50.113737],[14.601231,50.114033],[14.601218,50.114032],[14.600564,50.113921],[14.600431,50.114217],[14.600417,50.114216],[14.599917,50.114109],[14.599487,50.114008],[14.599446,50.114005],[14.598806,50.113895],[14.598342,50.113818],[14.598279,50.113649],[14.598281,50.11364],[14.598555,50.11361],[14.599737,50.113422],[14.599887,50.113181],[14.60253,50.113629],[14.602514,50.112765],[14.602504,50.112746],[14.602305,50.112348],[14.600576,50.112252],[14.600216,50.112557],[14.598328,50.112138],[14.599514,50.111198],[14.599957,50.111373],[14.600545,50.110988],[14.600298,50.110622],[14.600258,50.11041],[14.60163,50.108914],[14.600969,50.108703],[14.600001,50.108609],[14.598856,50.108555],[14.598662,50.108538],[14.598634,50.108536],[14.598237,50.108547],[14.597423,50.108594],[14.597216,50.108839],[14.596683,50.108892],[14.596336,50.108998],[14.596143,50.108909],[14.595352,50.108913],[14.594997,50.108927],[14.594911,50.109065],[14.594727,50.109067],[14.594584,50.109009],[14.594497,50.108956],[14.594441,50.108952],[14.594412,50.108958],[14.59426,50.109008],[14.594244,50.109016],[14.594134,50.109006],[14.593974,50.109029],[14.594012,50.108715],[14.594013,50.108706],[14.593339,50.108493],[14.593335,50.108647],[14.593324,50.1089],[14.593007,50.108863],[14.592841,50.108849],[14.592726,50.108857],[14.592546,50.108841],[14.592543,50.108723],[14.592549,50.108624],[14.592608,50.108547],[14.592737,50.108404],[14.593017,50.108211],[14.593257,50.108077],[14.59353,50.10792],[14.59374,50.107793],[14.593742,50.107784],[14.59393,50.107628],[14.593999,50.107434],[14.594029,50.107355],[14.594264,50.107112],[14.594433,50.106909],[14.594422,50.106899],[14.593724,50.106793],[14.592849,50.106663],[14.591688,50.10648],[14.590676,50.106328],[14.589474,50.106142],[14.589106,50.106083],[14.588559,50.105999],[14.588466,50.105982],[14.588229,50.106705],[14.58818,50.10683],[14.588161,50.106879],[14.588152,50.106903],[14.588147,50.106973],[14.588138,50.106988],[14.588136,50.106994],[14.588131,50.107003],[14.588102,50.107058],[14.588032,50.10724],[14.587978,50.107418],[14.587882,50.107748],[14.587749,50.108207],[14.587723,50.108319],[14.587654,50.108485],[14.587615,50.108656],[14.587536,50.10883],[14.587379,50.109086],[14.587251,50.109229],[14.587106,50.109357],[14.586927,50.109482],[14.586554,50.109707],[14.586425,50.109814],[14.586376,50.10983],[14.586318,50.10985],[14.586317,50.10985],[14.586138,50.109911],[14.585906,50.110004],[14.585909,50.110053],[14.585859,50.110064],[14.585834,50.110069],[14.585798,50.110077],[14.585708,50.110096],[14.58565,50.110048],[14.585395,50.110079],[14.585352,50.110077],[14.585177,50.110099],[14.585072,50.110112],[14.584777,50.110128],[14.584621,50.110124],[14.584404,50.110117],[14.584322,50.110115],[14.583564,50.110033],[14.583104,50.109999],[14.583077,50.109994],[14.582921,50.109968],[14.582694,50.109936],[14.58243,50.109904],[14.582249,50.109881],[14.582233,50.109879],[14.581451,50.109775],[14.580449,50.109647],[14.580351,50.109634],[14.580239,50.10962],[14.580246,50.109597],[14.580196,50.109591],[14.580152,50.109585],[14.580145,50.109608],[14.580028,50.109591],[14.579923,50.109577],[14.57985,50.109569],[14.579369,50.109507],[14.579208,50.109486],[14.578985,50.109456],[14.578375,50.109376],[14.577554,50.109269],[14.5775,50.109262],[14.577063,50.109205],[14.575582,50.109011],[14.57544,50.108992],[14.575445,50.108969],[14.575424,50.108879],[14.57542,50.108863],[14.575418,50.108857],[14.575412,50.108833],[14.575412,50.108832],[14.575407,50.10881],[14.575405,50.108796],[14.575388,50.108697],[14.575384,50.108678],[14.575381,50.10862],[14.575374,50.10861],[14.575373,50.108608],[14.575362,50.108592],[14.5753,50.108502],[14.575212,50.108375],[14.57521,50.108372],[14.575138,50.108314],[14.57507,50.108259],[14.574964,50.10821],[14.574863,50.10819],[14.574778,50.108173],[14.574777,50.108173],[14.574618,50.108168],[14.574617,50.108169],[14.574617,50.108169],[14.574598,50.108212],[14.574563,50.108288],[14.574528,50.108366],[14.574517,50.10839],[14.574501,50.108426],[14.574459,50.108519],[14.574439,50.108563],[14.574435,50.108572],[14.574406,50.108638],[14.574379,50.108659],[14.574361,50.108672],[14.574252,50.108755],[14.574226,50.108775],[14.574225,50.108776],[14.574221,50.108778],[14.574194,50.108799],[14.574193,50.1088],[14.57419,50.108802],[14.574149,50.108834],[14.574133,50.108845],[14.574123,50.108852],[14.574117,50.108856],[14.574104,50.108864],[14.5741,50.108867],[14.574099,50.108868],[14.574096,50.10887],[14.574095,50.108871],[14.573969,50.108958],[14.573964,50.108962],[14.57404,50.108971],[14.574128,50.108982],[14.574677,50.109055],[14.575344,50.109142],[14.575564,50.109171],[14.575566,50.1092],[14.575571,50.109303],[14.575572,50.109309],[14.575572,50.109324],[14.575572,50.109329],[14.575572,50.109331],[14.575572,50.109333],[14.575576,50.109463],[14.575578,50.109572],[14.575582,50.109729],[14.575582,50.109729],[14.575579,50.109762],[14.575584,50.10979],[14.575584,50.109794],[14.575584,50.109816],[14.575587,50.109908],[14.575587,50.10993],[14.575587,50.110005],[14.575591,50.110186],[14.575591,50.110201],[14.575597,50.110452],[14.5756,50.110512],[14.575602,50.110548],[14.575606,50.11063],[14.575606,50.110673],[14.575613,50.11098],[14.575614,50.111008],[14.575614,50.111013],[14.575611,50.111036],[14.575595,50.111175],[14.575592,50.111205],[14.575588,50.111236],[14.575586,50.111257],[14.575571,50.111394],[14.575561,50.111476],[14.575551,50.111568],[14.575524,50.111806],[14.575487,50.112131],[14.575484,50.112157],[14.575484,50.112159],[14.575473,50.112257],[14.57546,50.112374],[14.575433,50.112611],[14.57542,50.112721],[14.575412,50.112799],[14.575411,50.1128],[14.575405,50.112855],[14.575362,50.113235],[14.575362,50.113237],[14.575351,50.11329],[14.575994,50.113304],[14.57647,50.113286],[14.576963,50.113237],[14.577535,50.113202],[14.577867,50.113179],[14.578089,50.113115],[14.578285,50.113055],[14.578474,50.113012],[14.578631,50.112985],[14.578637,50.113109],[14.578658,50.113524],[14.57866,50.113544],[14.578313,50.113673],[14.578247,50.113681],[14.577782,50.113808],[14.577774,50.114097],[14.577772,50.114404],[14.577936,50.11451],[14.578317,50.114831],[14.578675,50.115164],[14.578708,50.115201],[14.578914,50.115423],[14.578953,50.115472],[14.579096,50.115657],[14.57911,50.115679],[14.579118,50.115691],[14.579219,50.115687],[14.579239,50.115722],[14.57952,50.116202],[14.579532,50.116222],[14.579544,50.116241],[14.579633,50.116466],[14.579633,50.116467],[14.579662,50.116539],[14.579699,50.116657],[14.579876,50.117215],[14.580264,50.117213],[14.580916,50.11721],[14.581645,50.117206],[14.581874,50.117205],[14.581942,50.117204],[14.582203,50.117203],[14.582263,50.117203],[14.583853,50.117195],[14.584878,50.11719],[14.584906,50.11719],[14.586496,50.11718],[14.587082,50.117177],[14.587082,50.117184],[14.587087,50.117639],[14.587098,50.118582],[14.587098,50.118644],[14.587099,50.118723],[14.5871,50.118754],[14.587101,50.118854],[14.587101,50.118883],[14.587103,50.118994],[14.587104,50.119117],[14.587106,50.119226],[14.58712,50.12035],[14.587125,50.120728],[14.587217,50.120727],[14.588335,50.120721],[14.589067,50.120717],[14.589178,50.120716],[14.589206,50.120716],[14.589214,50.120716],[14.589239,50.120716],[14.589566,50.120714],[14.589581,50.120714],[14.589617,50.120714],[14.589635,50.120713],[14.589927,50.120712],[14.589952,50.120712],[14.589981,50.120712],[14.590037,50.120711],[14.590541,50.120708],[14.590576,50.120708],[14.590596,50.120708],[14.590608,50.120708],[14.590894,50.120706],[14.590908,50.120706],[14.590916,50.120706],[14.59097,50.120706],[14.591377,50.120704],[14.592685,50.120696],[14.59284,50.120696],[14.59284,50.120696],[14.592528,50.121532],[14.592247,50.122219],[14.592219,50.122277],[14.592099,50.122471],[14.591985,50.122614],[14.591868,50.122729],[14.59186,50.122736],[14.591857,50.122739],[14.591783,50.122802],[14.591956,50.122801],[14.592092,50.122802],[14.59213,50.122802],[14.592624,50.122804],[14.593083,50.122806],[14.593109,50.122806],[14.593199,50.122806],[14.593201,50.122807],[14.593348,50.122809],[14.593349,50.122809],[14.594745,50.12283],[14.594789,50.122829],[14.595851,50.122791],[14.596892,50.12266],[14.5969,50.122659],[14.597925,50.122471],[14.597974,50.122462],[14.597998,50.122457],[14.598652,50.122297],[14.598947,50.122228],[14.599442,50.122097],[14.599524,50.122077],[14.600225,50.121907],[14.60038,50.121869],[14.600912,50.121745],[14.601042,50.121714],[14.602053,50.121478],[14.602285,50.121424],[14.602317,50.121416],[14.602378,50.121397],[14.602522,50.121364],[14.602531,50.121367],[14.60261,50.121395],[14.602613,50.121396],[14.602638,50.121405],[14.602645,50.121404]]]}},{"type":"Feature","properties":{"cislo":20002,"kod":38509,"mestskaCast":"praha-20"},"geometry":{"type":"Polygon","coordinates":[[[14.602305,50.112348],[14.602346,50.112288],[14.602012,50.11166],[14.601399,50.111761],[14.601267,50.111514],[14.601871,50.111394],[14.601711,50.111081],[14.601614,50.110936],[14.601058,50.111033],[14.600928,50.110777],[14.600367,50.110492],[14.600908,50.109868],[14.601345,50.109398],[14.601564,50.109163],[14.601786,50.10891],[14.601036,50.108654],[14.601008,50.108652],[14.601269,50.108284],[14.601469,50.108002],[14.601489,50.107977],[14.601579,50.107748],[14.601675,50.107494],[14.601567,50.107403],[14.601486,50.107387],[14.600387,50.107246],[14.599809,50.107177],[14.599256,50.10712],[14.597845,50.106988],[14.596671,50.106868],[14.594964,50.106466],[14.594433,50.106909],[14.594264,50.107112],[14.594029,50.107355],[14.593999,50.107434],[14.59393,50.107628],[14.593742,50.107784],[14.59374,50.107793],[14.59353,50.10792],[14.593257,50.108077],[14.593017,50.108211],[14.592737,50.108404],[14.592608,50.108547],[14.592549,50.108624],[14.592543,50.108723],[14.592546,50.108841],[14.592726,50.108857],[14.592841,50.108849],[14.593007,50.108863],[14.593324,50.1089],[14.593335,50.108647],[14.593339,50.108493],[14.594013,50.108706],[14.594012,50.108715],[14.593974,50.109029],[14.594134,50.109006],[14.594244,50.109016],[14.59426,50.109008],[14.594412,50.108958],[14.594441,50.108952],[14.594497,50.108956],[14.594584,50.109009],[14.594727,50.109067],[14.594911,50.109065],[14.594997,50.108927],[14.595352,50.108913],[14.596143,50.108909],[14.596336,50.108998],[14.596683,50.108892],[14.597216,50.108839],[14.597423,50.108594],[14.598237,50.108547],[14.598634,50.108536],[14.598662,50.108538],[14.598856,50.108555],[14.600001,50.108609],[14.600969,50.108703],[14.60163,50.108914],[14.600258,50.11041],[14.600298,50.110622],[14.600545,50.110988],[14.599957,50.111373],[14.599514,50.111198],[14.598328,50.112138],[14.600216,50.112557],[14.600576,50.112252],[14.602305,50.112348]]]}},{"type":"Feature","properties":{"cislo":20003,"kod":38511,"mestskaCast":"praha-20"},"geometry":{"type":"Polygon","coordinates":[[[14.594433,50.106909],[14.594964,50.106466],[14.596671,50.106868],[14.597845,50.106988],[14.599256,50.10712],[14.599809,50.107177],[14.600387,50.107246],[14.601486,50.107387],[14.601567,50.107403],[14.601675,50.107494],[14.601579,50.107748],[14.601489,50.107977],[14.601469,50.108002],[14.601269,50.108284],[14.601008,50.108652],[14.601036,50.108654],[14.601786,50.10891],[14.602316,50.108402],[14.603064,50.108404],[14.603059,50.108358],[14.603074,50.108151],[14.603359,50.108139],[14.603996,50.108131],[14.604901,50.108119],[14.60551,50.108108],[14.605692,50.106772],[14.605635,50.10664],[14.605055,50.106445],[14.605276,50.106201],[14.605383,50.106092],[14.605556,50.105808],[14.605696,50.105611],[14.605797,50.105466],[14.605877,50.105355],[14.606015,50.105231],[14.606127,50.105168],[14.606314,50.105084],[14.60657,50.105007],[14.606769,50.104933],[14.606734,50.105302],[14.606825,50.105274],[14.607037,50.105202],[14.607218,50.105145],[14.607232,50.105146],[14.607471,50.105085],[14.60753,50.105072],[14.607532,50.105063],[14.607555,50.105219],[14.607597,50.105559],[14.607621,50.105715],[14.607443,50.105754],[14.607386,50.105758],[14.607151,50.105801],[14.607623,50.106377],[14.608064,50.106897],[14.608551,50.107465],[14.608818,50.10747],[14.60934,50.107606],[14.609442,50.107452],[14.609555,50.107453],[14.609878,50.107462],[14.609874,50.10748],[14.610059,50.107406],[14.610242,50.10734],[14.610427,50.107265],[14.610429,50.107256],[14.610754,50.107185],[14.610822,50.1072],[14.611121,50.107253],[14.611541,50.106999],[14.612209,50.106703],[14.612847,50.106486],[14.61288,50.106399],[14.612836,50.106204],[14.612838,50.106195],[14.61314,50.106167],[14.613128,50.106157],[14.613093,50.105991],[14.613389,50.105989],[14.6137,50.105989],[14.613713,50.10599],[14.614068,50.106048],[14.614272,50.106084],[14.61445,50.106045],[14.614429,50.106007],[14.614356,50.105819],[14.614829,50.105715],[14.614858,50.105645],[14.614904,50.105558],[14.615897,50.105263],[14.615889,50.105235],[14.615903,50.105237],[14.616179,50.105197],[14.616193,50.105198],[14.616306,50.105535],[14.616438,50.10551],[14.616937,50.105417],[14.618001,50.10492],[14.61857,50.104896],[14.618726,50.104892],[14.619595,50.104849],[14.620619,50.104811],[14.621174,50.104787],[14.621473,50.104776],[14.621729,50.104762],[14.622654,50.104725],[14.623749,50.104684],[14.624314,50.104615],[14.625078,50.104536],[14.625787,50.104452],[14.62703,50.104306],[14.628387,50.10416],[14.629342,50.104044],[14.629356,50.104045],[14.629947,50.103379],[14.629978,50.103364],[14.630199,50.103319],[14.632293,50.10282],[14.634012,50.103233],[14.636709,50.103893],[14.637835,50.104172],[14.639648,50.10461],[14.639665,50.104593],[14.641424,50.102995],[14.645352,50.102963],[14.647713,50.10294],[14.648015,50.102168],[14.648059,50.102163],[14.649128,50.102173],[14.649779,50.100479],[14.649837,50.100344],[14.649837,50.100303],[14.649838,50.100267],[14.64984,50.100094],[14.64984,50.100083],[14.649842,50.099948],[14.649844,50.09982],[14.649844,50.099813],[14.649848,50.099501],[14.649848,50.099475],[14.649852,50.099213],[14.649735,50.098576],[14.64972,50.098506],[14.649773,50.0985],[14.64961,50.098235],[14.64959,50.098207],[14.649224,50.0977],[14.649118,50.097506],[14.64891,50.097286],[14.64884,50.097192],[14.648728,50.097003],[14.648709,50.09697],[14.648643,50.096979],[14.648358,50.096988],[14.648283,50.09699],[14.647894,50.097028],[14.64721,50.097123],[14.646894,50.097158],[14.646562,50.097205],[14.646017,50.097301],[14.645944,50.097315],[14.645496,50.097382],[14.644594,50.097534],[14.644305,50.09758],[14.643921,50.097684],[14.643735,50.097728],[14.643686,50.097729],[14.64362,50.097731],[14.643522,50.097734],[14.643398,50.096903],[14.643105,50.094811],[14.643023,50.094199],[14.642915,50.093303],[14.642797,50.092376],[14.642628,50.092334],[14.642532,50.092258],[14.642492,50.092156],[14.642504,50.0921],[14.642514,50.092057],[14.642515,50.092054],[14.641793,50.091755],[14.641078,50.091465],[14.639882,50.090976],[14.639427,50.090788],[14.638452,50.090387],[14.637688,50.090074],[14.637636,50.09011],[14.637687,50.090238],[14.637798,50.090549],[14.637778,50.09084],[14.63772,50.091101],[14.637772,50.091389],[14.637863,50.09164],[14.637928,50.09175],[14.638003,50.091874],[14.638009,50.09217],[14.637922,50.092416],[14.636654,50.092119],[14.636081,50.092007],[14.635769,50.091953],[14.635239,50.091888],[14.634297,50.091786],[14.634019,50.091747],[14.633165,50.091592],[14.633163,50.091592],[14.632918,50.09213],[14.632338,50.092069],[14.631738,50.092292],[14.631177,50.09254],[14.630453,50.092919],[14.630429,50.093004],[14.629425,50.093288],[14.629101,50.093363],[14.629085,50.093367],[14.629062,50.093372],[14.629042,50.09338],[14.628927,50.093426],[14.628911,50.093432],[14.628864,50.093451],[14.62883,50.093464],[14.628698,50.093518],[14.628064,50.093776],[14.628028,50.093792],[14.627707,50.093935],[14.62769,50.093945],[14.627085,50.094276],[14.62705,50.094295],[14.626812,50.094441],[14.626734,50.094478],[14.626275,50.094696],[14.626221,50.094712],[14.625968,50.094788],[14.625939,50.094796],[14.625915,50.094803],[14.625915,50.094805],[14.625954,50.09501],[14.625964,50.095062],[14.625965,50.095187],[14.625943,50.09519],[14.625932,50.095191],[14.625847,50.095202],[14.625813,50.095207],[14.625779,50.095218],[14.625566,50.095284],[14.624435,50.095636],[14.624402,50.095583],[14.624204,50.095655],[14.623738,50.095722],[14.623507,50.095727],[14.623119,50.095933],[14.622436,50.09608],[14.62229,50.096131],[14.621924,50.096394],[14.621477,50.096814],[14.6209,50.097128],[14.620805,50.097295],[14.620758,50.097357],[14.620706,50.097426],[14.620642,50.097484],[14.620279,50.097709],[14.620119,50.097786],[14.619504,50.098118],[14.619094,50.098312],[14.618741,50.098479],[14.61867,50.098478],[14.618666,50.098478],[14.618082,50.098467],[14.617434,50.098454],[14.617227,50.098412],[14.616498,50.098258],[14.615988,50.098209],[14.615733,50.098184],[14.615611,50.098173],[14.615412,50.098136],[14.61539,50.098132],[14.614868,50.098001],[14.614585,50.097967],[14.613717,50.097934],[14.613224,50.097907],[14.612537,50.097788],[14.612031,50.097741],[14.611149,50.097655],[14.610946,50.097621],[14.610613,50.097566],[14.610507,50.097548],[14.610075,50.097476],[14.6098,50.097414],[14.609632,50.097376],[14.6093,50.097302],[14.608945,50.097224],[14.608343,50.097132],[14.606959,50.096919],[14.606716,50.096839],[14.605221,50.096748],[14.605002,50.096724],[14.604999,50.096724],[14.603777,50.096659],[14.603768,50.096659],[14.603751,50.096658],[14.603626,50.096654],[14.603404,50.096648],[14.603387,50.096648],[14.603072,50.096644],[14.602267,50.096635],[14.601343,50.096624],[14.600766,50.096602],[14.600555,50.096584],[14.600196,50.096552],[14.599141,50.096446],[14.598623,50.096391],[14.597763,50.096312],[14.59647,50.096152],[14.596464,50.096151],[14.596447,50.096149],[14.596445,50.096149],[14.596323,50.096096],[14.596296,50.096084],[14.596293,50.096083],[14.596248,50.096063],[14.596008,50.095958],[14.596002,50.095956],[14.594438,50.095237],[14.594398,50.095219],[14.594375,50.095208],[14.59435,50.095197],[14.594343,50.095193],[14.594336,50.09519],[14.594328,50.095187],[14.594113,50.095088],[14.594062,50.095065],[14.594028,50.095049],[14.593975,50.095027],[14.593821,50.094964],[14.593817,50.094963],[14.593812,50.094961],[14.593693,50.094921],[14.593583,50.094884],[14.592361,50.094575],[14.592308,50.094658],[14.592269,50.094716],[14.592258,50.094733],[14.592219,50.094791],[14.592183,50.094842],[14.592132,50.094917],[14.592113,50.094946],[14.591891,50.095278],[14.59175,50.095489],[14.591422,50.095978],[14.591199,50.096312],[14.591105,50.096452],[14.590599,50.097209],[14.590573,50.097248],[14.590189,50.097817],[14.590111,50.097934],[14.589976,50.098133],[14.58991,50.098232],[14.589892,50.098258],[14.589851,50.098319],[14.589837,50.09834],[14.589805,50.098388],[14.589802,50.098391],[14.589802,50.098392],[14.589789,50.098412],[14.589772,50.098442],[14.589736,50.09849],[14.589458,50.098903],[14.5892,50.099286],[14.588024,50.098957],[14.587801,50.098895],[14.586921,50.098648],[14.584942,50.098098],[14.584612,50.098006],[14.584489,50.097971],[14.584453,50.097961],[14.584083,50.097858],[14.583818,50.097784],[14.583431,50.097675],[14.583397,50.097666],[14.58305,50.097569],[14.58291,50.09753],[14.582238,50.097342],[14.582003,50.097646],[14.581892,50.097791],[14.580992,50.098959],[14.580889,50.099094],[14.580876,50.09911],[14.580783,50.09923],[14.580727,50.099305],[14.580716,50.099318],[14.580706,50.099332],[14.580678,50.099368],[14.58067,50.099394],[14.580652,50.099402],[14.580651,50.099404],[14.58065,50.099405],[14.580627,50.099435],[14.580623,50.09944],[14.580619,50.099445],[14.580511,50.099587],[14.580498,50.099604],[14.58049,50.099615],[14.580249,50.099931],[14.580204,50.09999],[14.579393,50.101055],[14.579577,50.101056],[14.579625,50.101056],[14.579727,50.101056],[14.580941,50.10104],[14.582342,50.100985],[14.582705,50.10096],[14.583394,50.100912],[14.58346,50.100907],[14.583634,50.100894],[14.583724,50.100887],[14.584433,50.100839],[14.584444,50.100838],[14.585155,50.10079],[14.585253,50.10078],[14.585402,50.100767],[14.585459,50.100761],[14.585784,50.100731],[14.586537,50.10066],[14.586577,50.100658],[14.586619,50.100656],[14.586733,50.100649],[14.587094,50.100627],[14.587183,50.100631],[14.587481,50.100642],[14.587603,50.100646],[14.587616,50.100647],[14.587639,50.100648],[14.587791,50.10068],[14.588166,50.100761],[14.588627,50.100915],[14.588665,50.100935],[14.58904,50.101132],[14.589095,50.101176],[14.589158,50.101227],[14.589195,50.101255],[14.58936,50.101387],[14.589622,50.101682],[14.589645,50.101737],[14.589658,50.101768],[14.58969,50.101848],[14.589699,50.101858],[14.589724,50.101909],[14.589727,50.101913],[14.589771,50.102013],[14.589838,50.102315],[14.58982,50.102664],[14.589812,50.102724],[14.58981,50.102789],[14.589804,50.102861],[14.589709,50.103066],[14.589721,50.103071],[14.589706,50.103102],[14.589686,50.103142],[14.589678,50.103159],[14.589665,50.103186],[14.589654,50.103154],[14.589628,50.103176],[14.589628,50.10319],[14.589547,50.103358],[14.589354,50.1037],[14.58893,50.10469],[14.588913,50.104733],[14.588585,50.10562],[14.588584,50.105623],[14.588466,50.105981],[14.588466,50.105982],[14.588559,50.105999],[14.589106,50.106083],[14.589474,50.106142],[14.590676,50.106328],[14.591688,50.10648],[14.592849,50.106663],[14.593724,50.106793],[14.594422,50.106899],[14.594433,50.106909]]]}},{"type":"Feature","properties":{"cislo":20004,"kod":38513,"mestskaCast":"praha-20"},"geometry":{"type":"Polygon","coordinates":[[[14.602012,50.11166],[14.602026,50.111661],[14.603544,50.111421],[14.603238,50.110796],[14.605337,50.110343],[14.605375,50.110428],[14.605565,50.110799],[14.605589,50.110819],[14.605762,50.11107],[14.606032,50.111465],[14.606054,50.111494],[14.606278,50.11184],[14.606291,50.111842],[14.606517,50.111843],[14.606555,50.111529],[14.607306,50.111512],[14.607818,50.111493],[14.60779,50.111827],[14.608322,50.111846],[14.608314,50.111618],[14.608484,50.111615],[14.608782,50.111604],[14.608784,50.111595],[14.608796,50.111469],[14.608982,50.111458],[14.608973,50.111566],[14.609448,50.111726],[14.609442,50.111888],[14.609596,50.111893],[14.610174,50.111961],[14.610561,50.112067],[14.610688,50.111733],[14.610602,50.1112],[14.6103,50.10955],[14.610282,50.109503],[14.610823,50.109477],[14.610828,50.109523],[14.610889,50.1099],[14.610976,50.10989],[14.611105,50.109883],[14.611204,50.109882],[14.611334,50.109866],[14.611575,50.10986],[14.611686,50.109869],[14.611688,50.109861],[14.611814,50.109863],[14.611941,50.109864],[14.612055,50.109856],[14.612005,50.109425],[14.612489,50.109404],[14.612358,50.107741],[14.612407,50.107646],[14.611541,50.106999],[14.611121,50.107253],[14.610822,50.1072],[14.610754,50.107185],[14.610429,50.107256],[14.610427,50.107265],[14.610242,50.10734],[14.610059,50.107406],[14.609874,50.10748],[14.609878,50.107462],[14.609555,50.107453],[14.609442,50.107452],[14.60934,50.107606],[14.608818,50.10747],[14.608551,50.107465],[14.608064,50.106897],[14.607623,50.106377],[14.607151,50.105801],[14.607386,50.105758],[14.607443,50.105754],[14.607621,50.105715],[14.607597,50.105559],[14.607555,50.105219],[14.607532,50.105063],[14.60753,50.105072],[14.607471,50.105085],[14.607232,50.105146],[14.607218,50.105145],[14.607037,50.105202],[14.606825,50.105274],[14.606734,50.105302],[14.606769,50.104933],[14.60657,50.105007],[14.606314,50.105084],[14.606127,50.105168],[14.606015,50.105231],[14.605877,50.105355],[14.605797,50.105466],[14.605696,50.105611],[14.605556,50.105808],[14.605383,50.106092],[14.605276,50.106201],[14.605055,50.106445],[14.605635,50.10664],[14.605692,50.106772],[14.60551,50.108108],[14.604901,50.108119],[14.603996,50.108131],[14.603359,50.108139],[14.603074,50.108151],[14.603059,50.108358],[14.603064,50.108404],[14.602316,50.108402],[14.601786,50.10891],[14.601564,50.109163],[14.601345,50.109398],[14.600908,50.109868],[14.600367,50.110492],[14.600928,50.110777],[14.601058,50.111033],[14.601614,50.110936],[14.601711,50.111081],[14.601871,50.111394],[14.601267,50.111514],[14.601399,50.111761],[14.602012,50.11166]]]}},{"type":"Feature","properties":{"cislo":20005,"kod":38515,"mestskaCast":"praha-20"},"geometry":{"type":"Polygon","coordinates":[[[14.602305,50.112348],[14.602504,50.112746],[14.602514,50.112765],[14.602541,50.112768],[14.603492,50.112742],[14.603607,50.112534],[14.60365,50.112528],[14.604015,50.112469],[14.60406,50.112591],[14.604076,50.112584],[14.605068,50.112425],[14.60523,50.112394],[14.605508,50.112345],[14.605536,50.112348],[14.605884,50.112305],[14.605898,50.112306],[14.605834,50.112138],[14.605864,50.112131],[14.606342,50.112073],[14.606291,50.111842],[14.606278,50.11184],[14.606054,50.111494],[14.606032,50.111465],[14.605762,50.11107],[14.605589,50.110819],[14.605565,50.110799],[14.605375,50.110428],[14.605337,50.110343],[14.603238,50.110796],[14.603544,50.111421],[14.602026,50.111661],[14.602012,50.11166],[14.602346,50.112288],[14.602305,50.112348]]]}},{"type":"Feature","properties":{"cislo":20006,"kod":38517,"mestskaCast":"praha-20"},"geometry":{"type":"Polygon","coordinates":[[[14.616552,50.114111],[14.616538,50.11411],[14.616417,50.114082],[14.616107,50.114009],[14.616094,50.114008],[14.615622,50.113904],[14.615542,50.113879],[14.615285,50.113829],[14.615108,50.113796],[14.614918,50.113761],[14.614403,50.113662],[14.614494,50.113225],[14.614264,50.113178],[14.614282,50.113161],[14.614007,50.113128],[14.613924,50.113121],[14.613925,50.113112],[14.613484,50.113065],[14.613428,50.11306],[14.613236,50.113034],[14.612781,50.112986],[14.612587,50.112969],[14.612145,50.112922],[14.611645,50.112887],[14.611118,50.112841],[14.610283,50.112787],[14.610561,50.112067],[14.610174,50.111961],[14.609596,50.111893],[14.609442,50.111888],[14.609448,50.111726],[14.608973,50.111566],[14.608982,50.111458],[14.608796,50.111469],[14.608784,50.111595],[14.608782,50.111604],[14.608484,50.111615],[14.608314,50.111618],[14.608322,50.111846],[14.60779,50.111827],[14.607818,50.111493],[14.607306,50.111512],[14.606555,50.111529],[14.606517,50.111843],[14.606291,50.111842],[14.606342,50.112073],[14.605864,50.112131],[14.605834,50.112138],[14.605898,50.112306],[14.605884,50.112305],[14.605536,50.112348],[14.605508,50.112345],[14.60523,50.112394],[14.605068,50.112425],[14.604076,50.112584],[14.60406,50.112591],[14.604015,50.112469],[14.60365,50.112528],[14.603607,50.112534],[14.603492,50.112742],[14.602541,50.112768],[14.602514,50.112765],[14.60253,50.113629],[14.599887,50.113181],[14.599737,50.113422],[14.598555,50.11361],[14.598281,50.11364],[14.598279,50.113649],[14.598342,50.113818],[14.598806,50.113895],[14.599446,50.114005],[14.599487,50.114008],[14.599917,50.114109],[14.600417,50.114216],[14.600431,50.114217],[14.600564,50.113921],[14.601218,50.114032],[14.601231,50.114033],[14.601477,50.113737],[14.601837,50.113768],[14.602223,50.114419],[14.602441,50.114791],[14.602731,50.115288],[14.602897,50.115575],[14.602895,50.115584],[14.602949,50.115933],[14.602977,50.116135],[14.603033,50.116539],[14.60311,50.117045],[14.603148,50.117266],[14.603228,50.117827],[14.603231,50.117945],[14.605076,50.120246],[14.608582,50.121022],[14.609436,50.119373],[14.610318,50.11954],[14.610488,50.119201],[14.61136,50.117335],[14.611643,50.116725],[14.61192,50.116749],[14.615401,50.117377],[14.615618,50.117079],[14.615883,50.116694],[14.615952,50.116563],[14.615966,50.116565],[14.616161,50.116509],[14.616207,50.116359],[14.616236,50.116289],[14.61627,50.116192],[14.61633,50.116043],[14.616345,50.116035],[14.616555,50.115908],[14.616559,50.11589],[14.616545,50.115889],[14.616555,50.115845],[14.616627,50.115633],[14.616605,50.115604],[14.616715,50.11535],[14.616705,50.115331],[14.616652,50.115245],[14.616656,50.115227],[14.616685,50.115157],[14.616704,50.115132],[14.616717,50.115069],[14.616768,50.114965],[14.616802,50.114868],[14.616885,50.114676],[14.616897,50.114686],[14.61703,50.114588],[14.617036,50.114562],[14.617072,50.114456],[14.617095,50.114413],[14.617101,50.114386],[14.617116,50.114378],[14.617147,50.114299],[14.617155,50.114264],[14.617158,50.114246],[14.616605,50.114125],[14.616552,50.114111]]]}},{"type":"Feature","properties":{"cislo":20007,"kod":38519,"mestskaCast":"praha-20"},"geometry":{"type":"Polygon","coordinates":[[[14.616552,50.114111],[14.616711,50.11369],[14.61767,50.113891],[14.617968,50.113146],[14.617212,50.11298],[14.61743,50.112546],[14.613387,50.111714],[14.613564,50.111003],[14.612597,50.111037],[14.610602,50.1112],[14.610688,50.111733],[14.610561,50.112067],[14.610283,50.112787],[14.611118,50.112841],[14.611645,50.112887],[14.612145,50.112922],[14.612587,50.112969],[14.612781,50.112986],[14.613236,50.113034],[14.613428,50.11306],[14.613484,50.113065],[14.613925,50.113112],[14.613924,50.113121],[14.614007,50.113128],[14.614282,50.113161],[14.614264,50.113178],[14.614494,50.113225],[14.614403,50.113662],[14.614918,50.113761],[14.615108,50.113796],[14.615285,50.113829],[14.615542,50.113879],[14.615622,50.113904],[14.616094,50.114008],[14.616107,50.114009],[14.616417,50.114082],[14.616538,50.11411],[14.616552,50.114111]]]}},{"type":"Feature","properties":{"cislo":20008,"kod":38521,"mestskaCast":"praha-20"},"geometry":{"type":"Polygon","coordinates":[[[14.610602,50.1112],[14.612597,50.111037],[14.613564,50.111003],[14.613387,50.111714],[14.61743,50.112546],[14.617212,50.11298],[14.617968,50.113146],[14.618459,50.111945],[14.620039,50.112282],[14.620206,50.111961],[14.618614,50.111614],[14.619108,50.110468],[14.620365,50.110732],[14.6206,50.11028],[14.62172,50.109516],[14.622986,50.109734],[14.623164,50.109359],[14.621686,50.109005],[14.621788,50.108787],[14.620981,50.108599],[14.621003,50.108428],[14.621201,50.108091],[14.62099,50.108019],[14.621029,50.107968],[14.621031,50.107959],[14.621136,50.107796],[14.621202,50.107747],[14.621166,50.107717],[14.621091,50.107674],[14.620991,50.107611],[14.620939,50.107588],[14.620748,50.10749],[14.620405,50.107378],[14.620087,50.107278],[14.620075,50.107268],[14.619851,50.107194],[14.619458,50.107051],[14.619142,50.106942],[14.618803,50.106813],[14.618737,50.106789],[14.618487,50.106704],[14.617937,50.106502],[14.617992,50.106307],[14.618095,50.106017],[14.618126,50.105938],[14.618156,50.105859],[14.618168,50.105805],[14.618157,50.105723],[14.618171,50.105588],[14.618173,50.105443],[14.618138,50.10534],[14.618083,50.105199],[14.618001,50.10492],[14.616937,50.105417],[14.616438,50.10551],[14.616306,50.105535],[14.616193,50.105198],[14.616179,50.105197],[14.615903,50.105237],[14.615889,50.105235],[14.615897,50.105263],[14.614904,50.105558],[14.614858,50.105645],[14.614829,50.105715],[14.614356,50.105819],[14.614429,50.106007],[14.61445,50.106045],[14.614272,50.106084],[14.614068,50.106048],[14.613713,50.10599],[14.6137,50.105989],[14.613389,50.105989],[14.613093,50.105991],[14.613128,50.106157],[14.61314,50.106167],[14.612838,50.106195],[14.612836,50.106204],[14.61288,50.106399],[14.612847,50.106486],[14.612209,50.106703],[14.611541,50.106999],[14.612407,50.107646],[14.612358,50.107741],[14.612489,50.109404],[14.612005,50.109425],[14.612055,50.109856],[14.611941,50.109864],[14.611814,50.109863],[14.611688,50.109861],[14.611686,50.109869],[14.611575,50.10986],[14.611334,50.109866],[14.611204,50.109882],[14.611105,50.109883],[14.610976,50.10989],[14.610889,50.1099],[14.610828,50.109523],[14.610823,50.109477],[14.610282,50.109503],[14.6103,50.10955],[14.610602,50.1112]]]}},{"type":"Feature","properties":{"cislo":20009,"kod":38523,"mestskaCast":"praha-20"},"geometry":{"type":"Polygon","coordinates":[[[14.632301,50.129903],[14.632492,50.129786],[14.632683,50.129571],[14.63295,50.129268],[14.633322,50.128943],[14.633684,50.128706],[14.634276,50.128236],[14.634442,50.128065],[14.634533,50.127958],[14.63473,50.127598],[14.634787,50.127533],[14.634798,50.12752],[14.634873,50.127356],[14.635143,50.126758],[14.63542,50.126375],[14.63542,50.12637],[14.635443,50.126145],[14.635284,50.125311],[14.635173,50.124728],[14.635123,50.124032],[14.635118,50.123973],[14.635162,50.123944],[14.635202,50.123918],[14.635373,50.123916],[14.63554,50.123909],[14.635811,50.123898],[14.636244,50.12387],[14.636682,50.123827],[14.63712,50.123771],[14.637577,50.123715],[14.638062,50.123654],[14.638077,50.123653],[14.638444,50.123607],[14.638531,50.123644],[14.638593,50.12367],[14.638915,50.123806],[14.639446,50.12403],[14.63977,50.124168],[14.639795,50.124143],[14.639845,50.124096],[14.639849,50.124092],[14.64006,50.123887],[14.640304,50.12365],[14.640324,50.123641],[14.640405,50.123602],[14.640495,50.123559],[14.640629,50.123529],[14.642646,50.123467],[14.644432,50.123412],[14.645383,50.12341],[14.645777,50.123463],[14.646008,50.123524],[14.64658,50.123743],[14.647445,50.124148],[14.64752,50.124183],[14.647652,50.124144],[14.649961,50.123501],[14.650074,50.123471],[14.65217,50.123536],[14.652354,50.123525],[14.652451,50.123515],[14.652885,50.123411],[14.654265,50.123197],[14.654718,50.123118],[14.656448,50.122907],[14.657863,50.122733],[14.659116,50.122604],[14.659107,50.122568],[14.659056,50.122359],[14.659045,50.122311],[14.65899,50.122088],[14.658924,50.12182],[14.658895,50.121703],[14.658784,50.121252],[14.65878,50.121236],[14.658767,50.121182],[14.658605,50.12052],[14.658665,50.120529],[14.659584,50.120662],[14.659576,50.120626],[14.659561,50.12055],[14.659554,50.120513],[14.659553,50.120509],[14.65955,50.120493],[14.659484,50.120152],[14.659434,50.119894],[14.659383,50.119633],[14.659357,50.119499],[14.659308,50.119314],[14.659195,50.118893],[14.659102,50.118546],[14.6589,50.117748],[14.658861,50.117749],[14.658669,50.117118],[14.658662,50.117095],[14.658659,50.117085],[14.658649,50.117047],[14.658644,50.117031],[14.658397,50.116213],[14.658378,50.116149],[14.658023,50.11483],[14.657787,50.114106],[14.657717,50.113893],[14.657657,50.113708],[14.657614,50.113578],[14.657573,50.11345],[14.657558,50.113405],[14.657532,50.113326],[14.657481,50.113168],[14.657476,50.113154],[14.65742,50.11298],[14.657423,50.112695],[14.657427,50.11228],[14.657429,50.112123],[14.657427,50.112116],[14.657321,50.111751],[14.657255,50.111519],[14.657203,50.111341],[14.657121,50.111056],[14.657118,50.111045],[14.657114,50.11103],[14.65709,50.110948],[14.657065,50.110862],[14.657057,50.110836],[14.657057,50.110834],[14.657054,50.110825],[14.657048,50.110806],[14.657044,50.110792],[14.656964,50.110536],[14.656953,50.110502],[14.656872,50.110244],[14.656834,50.110125],[14.656825,50.110095],[14.656761,50.10989],[14.656773,50.10983],[14.656773,50.109827],[14.656855,50.109417],[14.656862,50.109381],[14.656963,50.108874],[14.656969,50.108845],[14.657003,50.108673],[14.65701,50.108641],[14.657061,50.108386],[14.657067,50.108354],[14.657123,50.108073],[14.657129,50.108045],[14.657235,50.107512],[14.657319,50.107091],[14.657322,50.107074],[14.657434,50.106511],[14.657437,50.1065],[14.657434,50.106479],[14.657433,50.106473],[14.657405,50.10628],[14.657334,50.106183],[14.657328,50.106176],[14.657057,50.10581],[14.656635,50.105242],[14.655868,50.104375],[14.655861,50.104367],[14.655851,50.104355],[14.655833,50.104335],[14.658302,50.10338],[14.658096,50.103245],[14.657224,50.102671],[14.657035,50.102547],[14.65553,50.101644],[14.655517,50.101636],[14.655496,50.101623],[14.65549,50.101617],[14.655451,50.101596],[14.655437,50.101588],[14.655435,50.101587],[14.654526,50.101159],[14.653824,50.101005],[14.653037,50.100857],[14.651464,50.100595],[14.649837,50.100344],[14.649779,50.100479],[14.649128,50.102173],[14.648059,50.102163],[14.648015,50.102168],[14.647713,50.10294],[14.645352,50.102963],[14.641424,50.102995],[14.639665,50.104593],[14.639648,50.10461],[14.637835,50.104172],[14.636709,50.103893],[14.634012,50.103233],[14.632293,50.10282],[14.630199,50.103319],[14.629978,50.103364],[14.629947,50.103379],[14.629356,50.104045],[14.629342,50.104044],[14.628387,50.10416],[14.62703,50.104306],[14.625787,50.104452],[14.625078,50.104536],[14.624314,50.104615],[14.623749,50.104684],[14.622654,50.104725],[14.621729,50.104762],[14.621473,50.104776],[14.62212,50.104987],[14.623408,50.105371],[14.624818,50.105774],[14.62718,50.106351],[14.63148,50.107304],[14.636232,50.108324],[14.635104,50.110476],[14.634623,50.111024],[14.634022,50.111535],[14.63357,50.112212],[14.633601,50.112333],[14.63301,50.115085],[14.631221,50.115139],[14.630158,50.114756],[14.628431,50.114516],[14.628145,50.114736],[14.628086,50.114749],[14.627922,50.114789],[14.627857,50.114765],[14.627491,50.114897],[14.627492,50.114888],[14.627453,50.11454],[14.627454,50.114531],[14.627338,50.114548],[14.626186,50.114593],[14.62603,50.114598],[14.626028,50.114607],[14.626049,50.114772],[14.626048,50.114781],[14.626061,50.114782],[14.626617,50.114758],[14.626688,50.114755],[14.627101,50.114736],[14.627415,50.114718],[14.627447,50.114902],[14.627437,50.115019],[14.626927,50.115029],[14.626769,50.115043],[14.626067,50.115091],[14.62598,50.115102],[14.626039,50.115832],[14.62601,50.116039],[14.625863,50.116534],[14.625598,50.11652],[14.625584,50.116519],[14.625381,50.116547],[14.625286,50.117001],[14.625464,50.117026],[14.625413,50.117203],[14.625388,50.117255],[14.62538,50.117291],[14.625361,50.117316],[14.625346,50.117387],[14.625315,50.117466],[14.622765,50.117046],[14.622601,50.117422],[14.622669,50.117436],[14.622942,50.117478],[14.622996,50.117492],[14.622967,50.117562],[14.622961,50.117589],[14.622944,50.117605],[14.622942,50.117614],[14.62294,50.117623],[14.622912,50.117621],[14.622857,50.117752],[14.622803,50.117738],[14.622801,50.117747],[14.622796,50.117774],[14.622794,50.117783],[14.622536,50.117733],[14.622482,50.11772],[14.622415,50.117705],[14.622332,50.117897],[14.622213,50.118132],[14.622134,50.118306],[14.621916,50.118269],[14.621739,50.118236],[14.62098,50.118088],[14.620817,50.118056],[14.620764,50.118042],[14.620489,50.118345],[14.620476,50.118408],[14.620358,50.118697],[14.620183,50.119199],[14.620064,50.11956],[14.619881,50.120098],[14.619711,50.120573],[14.619566,50.120996],[14.61949,50.121289],[14.619464,50.121413],[14.624464,50.1224],[14.623871,50.12361],[14.623588,50.124221],[14.622941,50.125353],[14.621595,50.127804],[14.621548,50.127842],[14.621664,50.127864],[14.621772,50.127829],[14.621849,50.127844],[14.621856,50.127846],[14.622933,50.128058],[14.623358,50.128141],[14.623502,50.12817],[14.623543,50.128178],[14.624219,50.128311],[14.625044,50.128473],[14.626415,50.128742],[14.62704,50.128865],[14.627156,50.128888],[14.627521,50.12896],[14.627579,50.128971],[14.627623,50.12898],[14.627774,50.129009],[14.629398,50.129328],[14.629849,50.129416],[14.630798,50.129603],[14.632199,50.12988],[14.632253,50.12989],[14.632269,50.129895],[14.632301,50.129903]]]}},{"type":"Feature","properties":{"cislo":20010,"kod":38525,"mestskaCast":"praha-20"},"geometry":{"type":"Polygon","coordinates":[[[14.604569,50.128413],[14.60711,50.127847],[14.6072,50.127827],[14.607513,50.127734],[14.607706,50.127642],[14.608517,50.127124],[14.608635,50.127115],[14.609059,50.127197],[14.609072,50.1272],[14.610639,50.127506],[14.610647,50.127507],[14.611754,50.127723],[14.612628,50.127894],[14.612634,50.127895],[14.612974,50.127961],[14.612985,50.127963],[14.613876,50.128137],[14.614247,50.128209],[14.615188,50.128392],[14.615188,50.128392],[14.615791,50.128509],[14.616812,50.128708],[14.61779,50.128899],[14.617857,50.128912],[14.618339,50.129006],[14.618374,50.129013],[14.619037,50.129142],[14.619126,50.129159],[14.620541,50.129435],[14.62059,50.129499],[14.620665,50.129343],[14.620778,50.129141],[14.621505,50.127833],[14.621548,50.127842],[14.621595,50.127804],[14.622941,50.125353],[14.623588,50.124221],[14.623871,50.12361],[14.624464,50.1224],[14.619464,50.121413],[14.61949,50.121289],[14.619566,50.120996],[14.619711,50.120573],[14.619881,50.120098],[14.620064,50.11956],[14.620183,50.119199],[14.620358,50.118697],[14.620476,50.118408],[14.620489,50.118345],[14.620764,50.118042],[14.620817,50.118056],[14.62098,50.118088],[14.621739,50.118236],[14.621916,50.118269],[14.622134,50.118306],[14.622213,50.118132],[14.622332,50.117897],[14.622415,50.117705],[14.622482,50.11772],[14.622536,50.117733],[14.622794,50.117783],[14.622796,50.117774],[14.622801,50.117747],[14.622803,50.117738],[14.622857,50.117752],[14.622912,50.117621],[14.62294,50.117623],[14.622942,50.117614],[14.622944,50.117605],[14.622961,50.117589],[14.622967,50.117562],[14.622996,50.117492],[14.622942,50.117478],[14.622669,50.117436],[14.622601,50.117422],[14.622765,50.117046],[14.625315,50.117466],[14.625346,50.117387],[14.625361,50.117316],[14.62538,50.117291],[14.625388,50.117255],[14.625413,50.117203],[14.625464,50.117026],[14.625286,50.117001],[14.625381,50.116547],[14.625584,50.116519],[14.625598,50.11652],[14.625863,50.116534],[14.62601,50.116039],[14.626039,50.115832],[14.625074,50.115722],[14.624951,50.115702],[14.624854,50.115694],[14.62473,50.115683],[14.624645,50.115684],[14.624508,50.115663],[14.624397,50.115654],[14.624316,50.115638],[14.624084,50.1156],[14.624007,50.115566],[14.623937,50.11556],[14.623971,50.115399],[14.624145,50.114906],[14.624755,50.115023],[14.624747,50.114859],[14.624692,50.114854],[14.62426,50.114762],[14.623998,50.11473],[14.623715,50.114669],[14.623548,50.114655],[14.623414,50.114625],[14.623437,50.114582],[14.62346,50.114538],[14.623488,50.114541],[14.623507,50.114515],[14.6234,50.114488],[14.623404,50.11447],[14.623283,50.114441],[14.623269,50.11444],[14.623288,50.114415],[14.622924,50.114338],[14.622912,50.114328],[14.622842,50.114458],[14.622477,50.114381],[14.62236,50.114334],[14.62209,50.114274],[14.622049,50.114271],[14.621866,50.114201],[14.621735,50.114153],[14.621694,50.114213],[14.621655,50.114264],[14.621232,50.114127],[14.621709,50.11347],[14.622076,50.112731],[14.621132,50.112522],[14.621205,50.112174],[14.620206,50.111961],[14.620039,50.112282],[14.618459,50.111945],[14.617968,50.113146],[14.61767,50.113891],[14.616711,50.11369],[14.616552,50.114111],[14.616605,50.114125],[14.617158,50.114246],[14.617155,50.114264],[14.617147,50.114299],[14.617116,50.114378],[14.617101,50.114386],[14.617095,50.114413],[14.617072,50.114456],[14.617036,50.114562],[14.61703,50.114588],[14.616897,50.114686],[14.616885,50.114676],[14.616802,50.114868],[14.616768,50.114965],[14.616717,50.115069],[14.616704,50.115132],[14.616685,50.115157],[14.616656,50.115227],[14.616652,50.115245],[14.616705,50.115331],[14.616715,50.11535],[14.616605,50.115604],[14.616627,50.115633],[14.616555,50.115845],[14.616545,50.115889],[14.616559,50.11589],[14.616555,50.115908],[14.616345,50.116035],[14.61633,50.116043],[14.61627,50.116192],[14.616236,50.116289],[14.616207,50.116359],[14.616161,50.116509],[14.615966,50.116565],[14.615952,50.116563],[14.615883,50.116694],[14.615618,50.117079],[14.615401,50.117377],[14.61192,50.116749],[14.611643,50.116725],[14.61136,50.117335],[14.610488,50.119201],[14.610318,50.11954],[14.609436,50.119373],[14.608582,50.121022],[14.605076,50.120246],[14.603231,50.117945],[14.602729,50.117919],[14.602812,50.118934],[14.602579,50.120846],[14.602645,50.121404],[14.602731,50.121396],[14.602735,50.121395],[14.602764,50.121392],[14.602789,50.12139],[14.602795,50.121412],[14.602814,50.121483],[14.603008,50.122235],[14.603058,50.122431],[14.603059,50.122436],[14.603072,50.122484],[14.603072,50.122485],[14.603081,50.122519],[14.603083,50.122529],[14.603084,50.122531],[14.603085,50.122534],[14.603086,50.12254],[14.603114,50.122647],[14.603115,50.122654],[14.603123,50.122681],[14.603124,50.122687],[14.603152,50.122794],[14.603153,50.122798],[14.603153,50.1228],[14.603154,50.122802],[14.603157,50.122815],[14.603165,50.122846],[14.603165,50.122847],[14.603166,50.122847],[14.603174,50.12288],[14.603175,50.122885],[14.603175,50.122886],[14.603206,50.123003],[14.603244,50.12315],[14.603421,50.123824],[14.603451,50.123937],[14.603613,50.124554],[14.603643,50.124705],[14.603711,50.125172],[14.603717,50.125217],[14.603718,50.125222],[14.603852,50.126112],[14.603866,50.126174],[14.604006,50.126839],[14.604443,50.128333],[14.604475,50.128354],[14.604538,50.128394],[14.604569,50.128413]]]}},{"type":"Feature","properties":{"cislo":20011,"kod":38527,"mestskaCast":"praha-20"},"geometry":{"type":"Polygon","coordinates":[[[14.626039,50.115832],[14.62598,50.115102],[14.626067,50.115091],[14.626769,50.115043],[14.626927,50.115029],[14.627437,50.115019],[14.627447,50.114902],[14.627415,50.114718],[14.627101,50.114736],[14.626688,50.114755],[14.626617,50.114758],[14.626061,50.114782],[14.626048,50.114781],[14.626049,50.114772],[14.626028,50.114607],[14.62603,50.114598],[14.626186,50.114593],[14.627338,50.114548],[14.627454,50.114531],[14.627453,50.11454],[14.627492,50.114888],[14.627491,50.114897],[14.627857,50.114765],[14.627922,50.114789],[14.628086,50.114749],[14.628145,50.114736],[14.628431,50.114516],[14.630158,50.114756],[14.631221,50.115139],[14.63301,50.115085],[14.633601,50.112333],[14.63357,50.112212],[14.634022,50.111535],[14.634623,50.111024],[14.635104,50.110476],[14.636232,50.108324],[14.63148,50.107304],[14.62718,50.106351],[14.624818,50.105774],[14.623408,50.105371],[14.62212,50.104987],[14.621473,50.104776],[14.621174,50.104787],[14.620619,50.104811],[14.619595,50.104849],[14.618726,50.104892],[14.61857,50.104896],[14.618001,50.10492],[14.618083,50.105199],[14.618138,50.10534],[14.618173,50.105443],[14.618171,50.105588],[14.618157,50.105723],[14.618168,50.105805],[14.618156,50.105859],[14.618126,50.105938],[14.618095,50.106017],[14.617992,50.106307],[14.617937,50.106502],[14.618487,50.106704],[14.618737,50.106789],[14.618803,50.106813],[14.619142,50.106942],[14.619458,50.107051],[14.619851,50.107194],[14.620075,50.107268],[14.620087,50.107278],[14.620405,50.107378],[14.620748,50.10749],[14.620939,50.107588],[14.620991,50.107611],[14.621091,50.107674],[14.621166,50.107717],[14.621202,50.107747],[14.623835,50.108647],[14.623807,50.108916],[14.623063,50.109841],[14.622837,50.110311],[14.622725,50.11051],[14.621254,50.110192],[14.620874,50.110857],[14.622452,50.111203],[14.622335,50.111764],[14.6215,50.111574],[14.621205,50.112174],[14.621132,50.112522],[14.622076,50.112731],[14.621709,50.11347],[14.621232,50.114127],[14.621655,50.114264],[14.621694,50.114213],[14.621735,50.114153],[14.621866,50.114201],[14.622049,50.114271],[14.62209,50.114274],[14.62236,50.114334],[14.622477,50.114381],[14.622842,50.114458],[14.622912,50.114328],[14.622924,50.114338],[14.623288,50.114415],[14.623269,50.11444],[14.623283,50.114441],[14.623404,50.11447],[14.6234,50.114488],[14.623507,50.114515],[14.623488,50.114541],[14.62346,50.114538],[14.623437,50.114582],[14.623414,50.114625],[14.623548,50.114655],[14.623715,50.114669],[14.623998,50.11473],[14.62426,50.114762],[14.624692,50.114854],[14.624747,50.114859],[14.624755,50.115023],[14.624145,50.114906],[14.623971,50.115399],[14.623937,50.11556],[14.624007,50.115566],[14.624084,50.1156],[14.624316,50.115638],[14.624397,50.115654],[14.624508,50.115663],[14.624645,50.115684],[14.62473,50.115683],[14.624854,50.115694],[14.624951,50.115702],[14.625074,50.115722],[14.626039,50.115832]]]}},{"type":"Feature","properties":{"cislo":20012,"kod":38529,"mestskaCast":"praha-20"},"geometry":{"type":"Polygon","coordinates":[[[14.620206,50.111961],[14.621205,50.112174],[14.6215,50.111574],[14.622335,50.111764],[14.622452,50.111203],[14.620874,50.110857],[14.621254,50.110192],[14.622725,50.11051],[14.622837,50.110311],[14.623063,50.109841],[14.623807,50.108916],[14.623835,50.108647],[14.621202,50.107747],[14.621136,50.107796],[14.621031,50.107959],[14.621029,50.107968],[14.62099,50.108019],[14.621201,50.108091],[14.621003,50.108428],[14.620981,50.108599],[14.621788,50.108787],[14.621686,50.109005],[14.623164,50.109359],[14.622986,50.109734],[14.62172,50.109516],[14.6206,50.11028],[14.620365,50.110732],[14.619108,50.110468],[14.618614,50.111614],[14.620206,50.111961]]]}}]}
