{"type":"FeatureCollection","features":[{"type":"Feature","properties":{"cislo":54001,"kod":30711,"mestskaCast":"praha-velka-chuchle"},"geometry":{"type":"Polygon","coordinates":[[[14.388609,50.011912],[14.388607,50.012447],[14.38861,50.012502],[14.388613,50.012683],[14.388583,50.01269],[14.3885,50.013472],[14.388496,50.01349],[14.388404,50.014117],[14.388391,50.014243],[14.388381,50.01436],[14.388316,50.014726],[14.388362,50.015103],[14.388459,50.015438],[14.388494,50.015541],[14.388704,50.016004],[14.388772,50.016147],[14.388797,50.016294],[14.388858,50.016472],[14.388914,50.016668],[14.389202,50.016639],[14.389419,50.016613],[14.38949,50.01661],[14.389664,50.016589],[14.389707,50.016584],[14.389723,50.016576],[14.38978,50.016572],[14.389794,50.016573],[14.390245,50.016505],[14.390533,50.016476],[14.390762,50.01646],[14.390993,50.016435],[14.391336,50.016411],[14.391565,50.016395],[14.39189,50.016388],[14.391947,50.016384],[14.392387,50.016368],[14.392599,50.016369],[14.392922,50.01637],[14.393204,50.016368],[14.393386,50.016375],[14.393765,50.016382],[14.393864,50.016382],[14.393905,50.016385],[14.394018,50.016386],[14.394059,50.01639],[14.394171,50.016391],[14.394213,50.016394],[14.394424,50.016395],[14.394493,50.016401],[14.394936,50.016441],[14.394977,50.016444],[14.395005,50.016447],[14.395076,50.016444],[14.396226,50.016401],[14.396231,50.016399],[14.396425,50.015062],[14.396816,50.013759],[14.397321,50.012206],[14.397911,50.01029],[14.398367,50.008893],[14.397871,50.008787],[14.397807,50.008773],[14.397778,50.008766],[14.39774,50.008758],[14.397516,50.00871],[14.397442,50.008694],[14.397379,50.008681],[14.397019,50.008603],[14.396897,50.008577],[14.396815,50.008559],[14.39695,50.008324],[14.396959,50.00831],[14.396974,50.008286],[14.39714,50.008026],[14.397092,50.008025],[14.396961,50.008021],[14.397018,50.007958],[14.397909,50.006999],[14.398254,50.006626],[14.398288,50.00659],[14.398443,50.006422],[14.39847,50.006385],[14.398633,50.006149],[14.398635,50.006147],[14.398188,50.006118],[14.398113,50.006115],[14.397592,50.006102],[14.396803,50.006069],[14.396786,50.006068],[14.39603,50.006042],[14.395967,50.00604],[14.395978,50.005935],[14.395998,50.005771],[14.396016,50.005623],[14.396022,50.005585],[14.396058,50.005305],[14.396084,50.005101],[14.396101,50.004956],[14.396119,50.004833],[14.396129,50.004756],[14.396043,50.004745],[14.395943,50.004729],[14.395929,50.004723],[14.395896,50.004714],[14.395856,50.004701],[14.395788,50.004664],[14.395758,50.004644],[14.395724,50.004615],[14.395673,50.004559],[14.39562,50.004489],[14.395617,50.004483],[14.395593,50.004423],[14.395573,50.004361],[14.395573,50.004345],[14.395573,50.00429],[14.395592,50.004219],[14.395631,50.004144],[14.395668,50.004096],[14.395729,50.004033],[14.395806,50.003966],[14.395967,50.003852],[14.396145,50.003857],[14.396258,50.00386],[14.396289,50.00386],[14.396522,50.003867],[14.396551,50.003868],[14.396605,50.00387],[14.396695,50.003872],[14.397059,50.004028],[14.397076,50.004032],[14.397325,50.003826],[14.397829,50.003411],[14.39766,50.003346],[14.397115,50.003135],[14.396992,50.003087],[14.396883,50.003045],[14.396868,50.003039],[14.396697,50.002973],[14.396669,50.002958],[14.396675,50.00295],[14.396614,50.002931],[14.396396,50.00282],[14.39614,50.002711],[14.39612,50.002705],[14.396393,50.002236],[14.39637,50.002225],[14.396017,50.002241],[14.39569,50.002255],[14.39559,50.00226],[14.395522,50.002263],[14.395462,50.002265],[14.39542,50.002263],[14.395407,50.002263],[14.395275,50.002257],[14.395264,50.002256],[14.395188,50.002253],[14.395112,50.002252],[14.39509,50.002252],[14.395001,50.002251],[14.394985,50.00225],[14.393302,50.00223],[14.39121,50.002206],[14.391189,50.002205],[14.391204,50.001825],[14.391187,50.001826],[14.391169,50.001829],[14.390772,50.001904],[14.389618,50.002194],[14.389575,50.002205],[14.389515,50.002139],[14.389513,50.002136],[14.388269,50.000809],[14.387359,49.999857],[14.386359,49.998799],[14.386333,49.99881],[14.385849,49.999005],[14.385464,49.999147],[14.385087,49.999278],[14.384638,49.999422],[14.384126,49.999572],[14.383388,49.999802],[14.382733,49.999977],[14.381745,50.000299],[14.381253,50.000501],[14.381087,50.000562],[14.38067,49.999981],[14.380176,49.999377],[14.379671,49.998735],[14.379271,49.998183],[14.379041,49.997892],[14.378732,49.997518],[14.378324,49.996982],[14.378058,49.996622],[14.377844,49.996378],[14.377403,49.995956],[14.377121,49.995618],[14.376802,49.995346],[14.376518,49.995099],[14.376217,49.994892],[14.375986,49.995],[14.375793,49.995094],[14.375696,49.995141],[14.375691,49.995144],[14.374849,49.995553],[14.37468,49.995928],[14.374561,49.996027],[14.374466,49.996105],[14.374367,49.996188],[14.374263,49.996275],[14.37424,49.996294],[14.374073,49.996433],[14.374046,49.996456],[14.37382,49.996643],[14.373807,49.996654],[14.373667,49.996771],[14.373562,49.996858],[14.373423,49.996974],[14.373277,49.997095],[14.373273,49.997098],[14.373122,49.997221],[14.37296,49.997355],[14.37278,49.997501],[14.372757,49.99752],[14.372691,49.997574],[14.372577,49.997669],[14.372368,49.997842],[14.372228,49.997958],[14.372005,49.998143],[14.371993,49.998153],[14.371833,49.998285],[14.371653,49.998434],[14.371628,49.998455],[14.371449,49.998603],[14.371367,49.998671],[14.371255,49.998748],[14.37125,49.998752],[14.37114,49.998827],[14.371088,49.998876],[14.370744,49.999198],[14.370726,49.999214],[14.370721,49.999219],[14.370703,49.999237],[14.370613,49.999294],[14.370509,49.999362],[14.369943,49.999676],[14.369893,49.999706],[14.369029,50.000106],[14.369087,50.000165],[14.369167,50.000245],[14.369493,50.000574],[14.369833,50.000917],[14.370004,50.001089],[14.370176,50.001262],[14.370475,50.001563],[14.370538,50.00163],[14.370678,50.001778],[14.370819,50.001928],[14.370992,50.002111],[14.371186,50.002317],[14.37138,50.002522],[14.371573,50.00271],[14.371679,50.002813],[14.37168,50.002815],[14.371408,50.003069],[14.371253,50.003218],[14.371094,50.003367],[14.37092,50.003532],[14.370867,50.003583],[14.370649,50.003792],[14.370408,50.004024],[14.370175,50.004249],[14.36994,50.004485],[14.369917,50.004509],[14.369885,50.004541],[14.369825,50.004602],[14.369823,50.004602],[14.36854,50.004552],[14.368506,50.00455],[14.368492,50.004585],[14.368112,50.00554],[14.368146,50.00555],[14.368248,50.00558],[14.369156,50.005896],[14.369152,50.005935],[14.369104,50.00639],[14.369141,50.006411],[14.369232,50.006446],[14.369501,50.006507],[14.369795,50.006578],[14.369973,50.006603],[14.371324,50.006805],[14.371474,50.006828],[14.372347,50.00696],[14.372483,50.006981],[14.372685,50.007026],[14.372873,50.00707],[14.372993,50.006772],[14.373131,50.006785],[14.37352,50.00681],[14.373538,50.006857],[14.373701,50.006817],[14.37475,50.00672],[14.374904,50.006725],[14.375321,50.006753],[14.376008,50.006832],[14.376119,50.006842],[14.376308,50.006877],[14.376524,50.006924],[14.376694,50.006984],[14.377326,50.007322],[14.377316,50.007366],[14.377186,50.007645],[14.377372,50.007825],[14.377604,50.007927],[14.377939,50.008075],[14.378135,50.008211],[14.378206,50.008272],[14.378397,50.008434],[14.378654,50.008484],[14.378669,50.008476],[14.379198,50.008505],[14.37992,50.008488],[14.380019,50.008487],[14.380246,50.00848],[14.38012,50.008805],[14.380985,50.008973],[14.381203,50.00901],[14.38223,50.009211],[14.382426,50.009219],[14.38251,50.009218],[14.382752,50.009275],[14.383668,50.009466],[14.383937,50.009526],[14.384026,50.00957],[14.384288,50.00973],[14.384328,50.009806],[14.384538,50.010206],[14.38459,50.010356],[14.384597,50.010393],[14.384619,50.010422],[14.384629,50.010504],[14.384639,50.010523],[14.384637,50.010532],[14.384633,50.01055],[14.384661,50.010553],[14.38473,50.010495],[14.384743,50.010496],[14.384687,50.010564],[14.384665,50.010598],[14.384648,50.010679],[14.385007,50.010711],[14.385004,50.010728],[14.385073,50.010735],[14.385063,50.010779],[14.385101,50.010801],[14.385218,50.010847],[14.385255,50.010805],[14.385439,50.010867],[14.385456,50.01085],[14.385793,50.010989],[14.386026,50.011083],[14.386245,50.011111],[14.386249,50.011093],[14.386263,50.011095],[14.386385,50.011051],[14.386815,50.011216],[14.386902,50.011269],[14.386946,50.011328],[14.387048,50.01131],[14.387445,50.011363],[14.387877,50.011383],[14.387905,50.011386],[14.388156,50.011399],[14.388355,50.01139],[14.388631,50.011414],[14.388631,50.011614],[14.388651,50.011716],[14.388658,50.011816],[14.388654,50.011834],[14.38865,50.011852],[14.388609,50.011912]]]}},{"type":"Feature","properties":{"cislo":54002,"kod":30713,"mestskaCast":"praha-velka-chuchle"},"geometry":{"type":"Polygon","coordinates":[[[14.376303,50.023723],[14.37633,50.023717],[14.376481,50.023866],[14.376622,50.023933],[14.377262,50.023972],[14.377876,50.024063],[14.378253,50.024278],[14.379043,50.02473],[14.37924,50.024602],[14.379553,50.024258],[14.380111,50.02389],[14.380145,50.023866],[14.380594,50.023542],[14.380897,50.023379],[14.381448,50.023174],[14.381712,50.023061],[14.382194,50.02285],[14.382673,50.02252],[14.382738,50.022481],[14.382957,50.022246],[14.383087,50.022103],[14.383249,50.021873],[14.38338,50.021521],[14.383415,50.021425],[14.38347,50.021302],[14.383494,50.021123],[14.383483,50.02104],[14.383344,50.020901],[14.383344,50.020837],[14.383363,50.020421],[14.383502,50.020098],[14.383526,50.020055],[14.383675,50.019687],[14.38369,50.019352],[14.384001,50.018627],[14.384114,50.018491],[14.38417,50.018496],[14.385034,50.018537],[14.385384,50.01855],[14.385453,50.018556],[14.38626,50.018601],[14.386329,50.018607],[14.386622,50.018624],[14.387233,50.018597],[14.387375,50.018591],[14.388001,50.018565],[14.389121,50.018528],[14.389475,50.018524],[14.389674,50.018514],[14.390029,50.0185],[14.39025,50.01852],[14.390461,50.018521],[14.39053,50.018527],[14.390645,50.018519],[14.390706,50.018497],[14.390713,50.018398],[14.390703,50.018315],[14.390706,50.018297],[14.390694,50.018287],[14.390686,50.018259],[14.390642,50.018137],[14.390578,50.017977],[14.390505,50.017789],[14.390507,50.01778],[14.390428,50.017692],[14.39025,50.017467],[14.390228,50.017438],[14.389995,50.017081],[14.389955,50.017005],[14.389957,50.016996],[14.389887,50.016927],[14.389875,50.016916],[14.38985,50.016905],[14.389764,50.016843],[14.38974,50.016823],[14.389691,50.016791],[14.38958,50.016718],[14.38949,50.01661],[14.389419,50.016613],[14.389202,50.016639],[14.388914,50.016668],[14.388858,50.016472],[14.388797,50.016294],[14.388772,50.016147],[14.388704,50.016004],[14.388494,50.015541],[14.388459,50.015438],[14.388362,50.015103],[14.388316,50.014726],[14.388381,50.01436],[14.388391,50.014243],[14.388404,50.014117],[14.388496,50.01349],[14.3885,50.013472],[14.388583,50.01269],[14.388613,50.012683],[14.38861,50.012502],[14.388607,50.012447],[14.388609,50.011912],[14.38865,50.011852],[14.388654,50.011834],[14.388658,50.011816],[14.388651,50.011716],[14.388631,50.011614],[14.388631,50.011414],[14.388355,50.01139],[14.388156,50.011399],[14.387905,50.011386],[14.387877,50.011383],[14.387445,50.011363],[14.387048,50.01131],[14.386946,50.011328],[14.386902,50.011269],[14.386815,50.011216],[14.386385,50.011051],[14.386263,50.011095],[14.386249,50.011093],[14.386245,50.011111],[14.386026,50.011083],[14.385793,50.010989],[14.385456,50.01085],[14.385439,50.010867],[14.385255,50.010805],[14.385218,50.010847],[14.385101,50.010801],[14.385063,50.010779],[14.385073,50.010735],[14.385004,50.010728],[14.385007,50.010711],[14.384648,50.010679],[14.384665,50.010598],[14.384687,50.010564],[14.384743,50.010496],[14.38473,50.010495],[14.384661,50.010553],[14.384633,50.01055],[14.384637,50.010532],[14.384639,50.010523],[14.384629,50.010504],[14.384619,50.010422],[14.384597,50.010393],[14.38459,50.010356],[14.384538,50.010206],[14.384328,50.009806],[14.384288,50.00973],[14.384026,50.00957],[14.383937,50.009526],[14.383668,50.009466],[14.382752,50.009275],[14.38251,50.009218],[14.382426,50.009219],[14.38223,50.009211],[14.381203,50.00901],[14.380985,50.008973],[14.38012,50.008805],[14.380246,50.00848],[14.380019,50.008487],[14.37992,50.008488],[14.379198,50.008505],[14.378669,50.008476],[14.378654,50.008484],[14.378397,50.008434],[14.378206,50.008272],[14.378135,50.008211],[14.377939,50.008075],[14.377604,50.007927],[14.377372,50.007825],[14.377186,50.007645],[14.377316,50.007366],[14.377326,50.007322],[14.376694,50.006984],[14.376524,50.006924],[14.376308,50.006877],[14.376119,50.006842],[14.376008,50.006832],[14.375321,50.006753],[14.374904,50.006725],[14.37475,50.00672],[14.373701,50.006817],[14.373538,50.006857],[14.37352,50.00681],[14.373131,50.006785],[14.372993,50.006772],[14.372873,50.00707],[14.372685,50.007026],[14.372483,50.006981],[14.372347,50.00696],[14.371474,50.006828],[14.371324,50.006805],[14.369973,50.006603],[14.369795,50.006578],[14.369501,50.006507],[14.369232,50.006446],[14.369141,50.006411],[14.369104,50.00639],[14.368987,50.007482],[14.368701,50.007449],[14.368247,50.00738],[14.367573,50.007247],[14.366884,50.007175],[14.367015,50.007868],[14.367013,50.00837],[14.36698,50.008845],[14.366962,50.0091],[14.366964,50.009431],[14.366966,50.009719],[14.366933,50.009988],[14.366863,50.010205],[14.366842,50.010269],[14.366841,50.010481],[14.36713,50.010797],[14.367306,50.011007],[14.367455,50.011208],[14.367675,50.011458],[14.367965,50.011638],[14.368157,50.011874],[14.367872,50.012279],[14.368196,50.012893],[14.36821,50.013091],[14.368229,50.013274],[14.368352,50.013541],[14.368461,50.013561],[14.368317,50.013776],[14.368256,50.014085],[14.368218,50.014363],[14.367855,50.014994],[14.36786,50.015035],[14.367997,50.015475],[14.368003,50.015495],[14.36803,50.015581],[14.368228,50.016202],[14.368326,50.016736],[14.368621,50.017385],[14.368755,50.017599],[14.368762,50.017607],[14.368819,50.01767],[14.368848,50.017702],[14.369398,50.018094],[14.369812,50.018226],[14.370025,50.018414],[14.370497,50.01873],[14.371024,50.01909],[14.371518,50.019334],[14.371914,50.019539],[14.372389,50.019643],[14.372853,50.019739],[14.373167,50.019907],[14.373406,50.019984],[14.373426,50.019994],[14.372831,50.020361],[14.372101,50.020889],[14.371927,50.021015],[14.371545,50.021329],[14.371574,50.021343],[14.371559,50.021366],[14.372084,50.021404],[14.373066,50.021609],[14.373761,50.021827],[14.374481,50.022105],[14.37485,50.022299],[14.375402,50.022716],[14.375963,50.023323],[14.376303,50.023723]]]}},{"type":"Feature","properties":{"cislo":54003,"kod":30715,"mestskaCast":"praha-velka-chuchle"},"geometry":{"type":"Polygon","coordinates":[[[14.379159,50.02905],[14.37966,50.02915],[14.379699,50.029153],[14.379807,50.029163],[14.379863,50.029168],[14.380491,50.028595],[14.380969,50.028063],[14.381021,50.028005],[14.381242,50.027773],[14.381636,50.027421],[14.381839,50.027273],[14.382058,50.027162],[14.382201,50.027054],[14.38241,50.0268],[14.382478,50.026649],[14.382494,50.026612],[14.383467,50.026631],[14.38385,50.026675],[14.38471,50.026892],[14.385773,50.027076],[14.387626,50.027281],[14.388675,50.027418],[14.38875,50.027435],[14.388769,50.027404],[14.388805,50.027409],[14.388993,50.027216],[14.389367,50.02703],[14.389823,50.026963],[14.390257,50.027077],[14.390521,50.027303],[14.390615,50.027615],[14.392183,50.028416],[14.392303,50.028477],[14.392485,50.028576],[14.392548,50.028512],[14.393248,50.028951],[14.39311,50.029127],[14.393127,50.029149],[14.393336,50.029351],[14.393444,50.029393],[14.393575,50.029442],[14.393906,50.029483],[14.394134,50.029512],[14.394408,50.029538],[14.394406,50.029592],[14.394512,50.029609],[14.394553,50.029632],[14.394598,50.029656],[14.394643,50.029716],[14.394651,50.029726],[14.394856,50.029899],[14.394941,50.029937],[14.39501,50.02996],[14.395396,50.03002],[14.395516,50.030053],[14.395716,50.030107],[14.395881,50.030152],[14.395933,50.030179],[14.39602,50.030224],[14.3964,50.030353],[14.396756,50.030468],[14.397022,50.030554],[14.397176,50.030628],[14.397605,50.03077],[14.397804,50.030856],[14.398711,50.031322],[14.398891,50.031377],[14.398913,50.03137],[14.399014,50.031317],[14.399047,50.031301],[14.399151,50.031253],[14.399238,50.031223],[14.399639,50.031084],[14.399698,50.031064],[14.399728,50.031054],[14.399994,50.030962],[14.398939,50.029688],[14.397919,50.02845],[14.397919,50.028449],[14.39743,50.026879],[14.397397,50.026774],[14.397394,50.026764],[14.397091,50.025756],[14.396709,50.024403],[14.396363,50.023129],[14.396144,50.022233],[14.395955,50.021292],[14.395884,50.02023],[14.395871,50.018966],[14.395871,50.018852],[14.395892,50.017668],[14.39644,50.016391],[14.396231,50.016399],[14.396226,50.016401],[14.395076,50.016444],[14.395005,50.016447],[14.394977,50.016444],[14.394936,50.016441],[14.394493,50.016401],[14.394424,50.016395],[14.394213,50.016394],[14.394171,50.016391],[14.394059,50.01639],[14.394018,50.016386],[14.393905,50.016385],[14.393864,50.016382],[14.393765,50.016382],[14.393386,50.016375],[14.393204,50.016368],[14.392922,50.01637],[14.392599,50.016369],[14.392387,50.016368],[14.391947,50.016384],[14.39189,50.016388],[14.391565,50.016395],[14.391336,50.016411],[14.390993,50.016435],[14.390762,50.01646],[14.390533,50.016476],[14.390245,50.016505],[14.389794,50.016573],[14.38978,50.016572],[14.389723,50.016576],[14.389707,50.016584],[14.389664,50.016589],[14.38949,50.01661],[14.38958,50.016718],[14.389691,50.016791],[14.38974,50.016823],[14.389764,50.016843],[14.38985,50.016905],[14.389875,50.016916],[14.389887,50.016927],[14.389957,50.016996],[14.389955,50.017005],[14.389995,50.017081],[14.390228,50.017438],[14.39025,50.017467],[14.390428,50.017692],[14.390507,50.01778],[14.390505,50.017789],[14.390578,50.017977],[14.390642,50.018137],[14.390686,50.018259],[14.390694,50.018287],[14.390706,50.018297],[14.390703,50.018315],[14.390713,50.018398],[14.390706,50.018497],[14.390645,50.018519],[14.39053,50.018527],[14.390461,50.018521],[14.39025,50.01852],[14.390029,50.0185],[14.389674,50.018514],[14.389475,50.018524],[14.389121,50.018528],[14.388001,50.018565],[14.387375,50.018591],[14.387233,50.018597],[14.386622,50.018624],[14.386329,50.018607],[14.38626,50.018601],[14.385453,50.018556],[14.385384,50.01855],[14.385034,50.018537],[14.38417,50.018496],[14.384114,50.018491],[14.384001,50.018627],[14.38369,50.019352],[14.383675,50.019687],[14.383526,50.020055],[14.383502,50.020098],[14.383363,50.020421],[14.383344,50.020837],[14.383344,50.020901],[14.383483,50.02104],[14.383494,50.021123],[14.38347,50.021302],[14.383415,50.021425],[14.38338,50.021521],[14.383249,50.021873],[14.383087,50.022103],[14.382957,50.022246],[14.382738,50.022481],[14.382673,50.02252],[14.382194,50.02285],[14.381712,50.023061],[14.381448,50.023174],[14.380897,50.023379],[14.380594,50.023542],[14.380145,50.023866],[14.380111,50.02389],[14.379553,50.024258],[14.37924,50.024602],[14.379043,50.02473],[14.378253,50.024278],[14.377876,50.024063],[14.377262,50.023972],[14.376622,50.023933],[14.376481,50.023866],[14.37633,50.023717],[14.376303,50.023723],[14.376305,50.023725],[14.376283,50.023733],[14.376479,50.024164],[14.376461,50.02419],[14.375896,50.024936],[14.375721,50.025158],[14.375096,50.026052],[14.374654,50.026653],[14.374596,50.02674],[14.374535,50.026834],[14.374531,50.026839],[14.374509,50.026873],[14.374463,50.026944],[14.374427,50.026999],[14.374748,50.027086],[14.374803,50.027102],[14.375186,50.027219],[14.376175,50.027557],[14.376577,50.027703],[14.376924,50.027854],[14.376948,50.027867],[14.377983,50.028395],[14.378762,50.028789],[14.379043,50.028937],[14.379142,50.02901],[14.379159,50.02905]]]}}]}
