{"type":"FeatureCollection","features":[{"type":"Feature","properties":{"cislo":31001,"kod":27859,"mestskaCast":"praha-dubec"},"geometry":{"type":"MultiPolygon","coordinates":[[[[14.58537,50.082526],[14.585424,50.082513],[14.585503,50.082492],[14.585703,50.082231],[14.585746,50.082175],[14.585843,50.082049],[14.585922,50.081946],[14.585963,50.081893],[14.586001,50.081831],[14.586226,50.081473],[14.586309,50.08133],[14.586366,50.081234],[14.58704,50.080492],[14.587301,50.079992],[14.587631,50.079506],[14.587755,50.079306],[14.588044,50.078909],[14.58809,50.078845],[14.588239,50.078598],[14.588586,50.078214],[14.588705,50.078037],[14.589023,50.077568],[14.589027,50.077561],[14.589095,50.077423],[14.589174,50.077164],[14.589254,50.076824],[14.589259,50.076805],[14.589278,50.076725],[14.589284,50.076703],[14.589289,50.076687],[14.589311,50.076611],[14.589338,50.07652],[14.589347,50.076495],[14.589415,50.076297],[14.589485,50.07614],[14.589495,50.076118],[14.589607,50.075955],[14.590157,50.075458],[14.590537,50.075019],[14.590659,50.074808],[14.590772,50.07454],[14.591007,50.073859],[14.591107,50.073634],[14.59126,50.073362],[14.591412,50.073022],[14.591603,50.072577],[14.59193,50.071825],[14.592002,50.07173],[14.592041,50.07168],[14.592041,50.07168],[14.59204,50.071679],[14.592057,50.071327],[14.592175,50.070902],[14.592282,50.070394],[14.592485,50.069831],[14.592647,50.069328],[14.592947,50.068501],[14.593074,50.068167],[14.593225,50.067781],[14.593229,50.067763],[14.593393,50.067251],[14.593528,50.066946],[14.593607,50.066771],[14.593696,50.066616],[14.59389,50.066297],[14.593915,50.066244],[14.594164,50.06593],[14.594306,50.065725],[14.593452,50.065496],[14.59386,50.064761],[14.594674,50.064913],[14.596454,50.065295],[14.597061,50.065493],[14.597495,50.06564],[14.598128,50.065849],[14.598366,50.065924],[14.598975,50.066113],[14.599145,50.066173],[14.599304,50.066224],[14.599484,50.066303],[14.599544,50.066353],[14.59958,50.066384],[14.599641,50.066498],[14.599714,50.066686],[14.599961,50.067324],[14.600012,50.067483],[14.600226,50.068073],[14.60052,50.068888],[14.601172,50.07075],[14.601436,50.071508],[14.602692,50.075129],[14.602797,50.075501],[14.602795,50.075503],[14.602868,50.075529],[14.602918,50.075547],[14.604263,50.075888],[14.604921,50.076048],[14.605283,50.076139],[14.605694,50.076224],[14.605749,50.076262],[14.606329,50.076711],[14.606401,50.076788],[14.606613,50.077016],[14.606795,50.07708],[14.606918,50.077102],[14.607207,50.077155],[14.60762,50.077214],[14.607743,50.076998],[14.607831,50.076787],[14.607964,50.07651],[14.60805,50.076302],[14.608098,50.076183],[14.608169,50.076199],[14.608258,50.075875],[14.608459,50.075566],[14.608823,50.075265],[14.608969,50.075109],[14.609203,50.074807],[14.609586,50.074109],[14.609806,50.073733],[14.60985,50.07352],[14.609679,50.073148],[14.609726,50.07314],[14.609819,50.073156],[14.610699,50.073306],[14.610743,50.073314],[14.611167,50.073386],[14.611273,50.073404],[14.611641,50.07304],[14.611943,50.072512],[14.611976,50.072318],[14.611931,50.071993],[14.611976,50.071832],[14.612062,50.071659],[14.612113,50.071557],[14.612136,50.071511],[14.612203,50.071337],[14.612179,50.071314],[14.612126,50.071263],[14.611877,50.071184],[14.611678,50.071057],[14.611341,50.070778],[14.61152,50.070273],[14.611939,50.069787],[14.612045,50.069679],[14.612119,50.069603],[14.612348,50.069393],[14.612571,50.068863],[14.612623,50.06866],[14.612643,50.068385],[14.612629,50.068276],[14.612668,50.06821],[14.612779,50.068021],[14.613003,50.067854],[14.61327,50.067778],[14.613678,50.067673],[14.613885,50.067581],[14.61347,50.067439],[14.613304,50.06735],[14.613484,50.066894],[14.613659,50.066764],[14.614555,50.067058],[14.61525,50.067257],[14.617649,50.067875],[14.617691,50.067885],[14.617756,50.067768],[14.617938,50.067107],[14.617938,50.066209],[14.618007,50.066024],[14.618759,50.065156],[14.619077,50.064762],[14.61909,50.064764],[14.619133,50.064768],[14.619246,50.064864],[14.620076,50.064884],[14.620565,50.06485],[14.620793,50.064825],[14.620863,50.064818],[14.621055,50.064799],[14.62112,50.064795],[14.621534,50.064767],[14.621744,50.064717],[14.621803,50.064706],[14.622204,50.064631],[14.622235,50.064481],[14.622301,50.064367],[14.622513,50.064329],[14.622498,50.064218],[14.622077,50.063219],[14.622062,50.062909],[14.622016,50.062911],[14.621606,50.062926],[14.621095,50.062922],[14.620381,50.062909],[14.620172,50.062895],[14.619905,50.062881],[14.61992,50.062848],[14.619941,50.062804],[14.619954,50.062776],[14.620222,50.062283],[14.620541,50.061696],[14.620651,50.061494],[14.620669,50.061449],[14.620784,50.061157],[14.620812,50.061016],[14.620877,50.060687],[14.620957,50.060281],[14.620962,50.060256],[14.620962,50.06025],[14.621014,50.059329],[14.621015,50.059322],[14.621015,50.059313],[14.621012,50.058974],[14.62101,50.058529],[14.621031,50.058148],[14.62109,50.057768],[14.62109,50.057766],[14.621243,50.057128],[14.621209,50.057126],[14.621211,50.057104],[14.621213,50.057081],[14.621231,50.056884],[14.621229,50.056842],[14.620608,50.056895],[14.620356,50.056916],[14.620161,50.056933],[14.620124,50.056936],[14.619674,50.056976],[14.619671,50.056976],[14.619336,50.057006],[14.619038,50.057032],[14.619032,50.057033],[14.618735,50.057056],[14.61852,50.057073],[14.618299,50.057091],[14.618142,50.057103],[14.617882,50.057124],[14.617824,50.057129],[14.617254,50.057192],[14.616982,50.057252],[14.616787,50.057294],[14.616597,50.057336],[14.616583,50.057339],[14.616187,50.057425],[14.616143,50.057434],[14.616092,50.057445],[14.61573,50.05754],[14.615674,50.057115],[14.615685,50.05655],[14.615728,50.056256],[14.615713,50.055656],[14.615532,50.05566],[14.615304,50.055691],[14.614625,50.055786],[14.614384,50.05582],[14.614381,50.05582],[14.614343,50.055826],[14.614275,50.055842],[14.613988,50.055912],[14.613953,50.05592],[14.613374,50.056059],[14.613348,50.056065],[14.613006,50.056136],[14.612736,50.056192],[14.612724,50.056195],[14.612449,50.056252],[14.612413,50.056255],[14.612248,50.056272],[14.612152,50.056281],[14.612089,50.056288],[14.611802,50.05632],[14.611785,50.056402],[14.611492,50.056398],[14.611483,50.056397],[14.611327,50.056385],[14.6112,50.056376],[14.611025,50.056362],[14.610875,50.056351],[14.610719,50.056339],[14.610704,50.056338],[14.610458,50.056316],[14.610233,50.056297],[14.610037,50.05628],[14.610014,50.056278],[14.60999,50.056276],[14.609915,50.05627],[14.609804,50.056261],[14.608741,50.056179],[14.608308,50.056145],[14.608188,50.056136],[14.606914,50.055968],[14.606748,50.055978],[14.605835,50.05584],[14.604951,50.055686],[14.604317,50.05556],[14.603257,50.055333],[14.602827,50.055243],[14.602412,50.055174],[14.602407,50.055174],[14.60238,50.055203],[14.602337,50.055252],[14.602301,50.055245],[14.602247,50.055235],[14.602221,50.05523],[14.602201,50.055226],[14.602181,50.055222],[14.602111,50.055211],[14.602134,50.055171],[14.602547,50.054462],[14.603116,50.053599],[14.602902,50.053393],[14.602602,50.053316],[14.602369,50.053307],[14.602111,50.053373],[14.601968,50.053408],[14.601737,50.053406],[14.601357,50.053302],[14.601344,50.053298],[14.601226,50.053266],[14.601073,50.053227],[14.601019,50.053218],[14.600859,50.053193],[14.600557,50.053199],[14.600499,50.0532],[14.600314,50.053181],[14.599947,50.053121],[14.599947,50.053121],[14.599767,50.053091],[14.599315,50.053601],[14.598974,50.054032],[14.598939,50.054029],[14.59797,50.053971],[14.597881,50.053965],[14.597251,50.053863],[14.596272,50.053652],[14.595763,50.053573],[14.595742,50.05357],[14.595785,50.05321],[14.595842,50.052764],[14.595943,50.052093],[14.595962,50.052069],[14.595962,50.052069],[14.595683,50.052126],[14.595089,50.052138],[14.594868,50.052183],[14.594595,50.05234],[14.59414,50.052564],[14.593891,50.052878],[14.593914,50.05317],[14.59312,50.053391],[14.592692,50.053617],[14.59195,50.053997],[14.591817,50.05443],[14.589558,50.054651],[14.589169,50.055833],[14.588754,50.056667],[14.588444,50.057003],[14.588242,50.057158],[14.587881,50.057535],[14.586757,50.058589],[14.586856,50.058389],[14.586957,50.058244],[14.586919,50.058086],[14.586852,50.057935],[14.586733,50.057834],[14.586495,50.057759],[14.586215,50.05768],[14.586017,50.057618],[14.585821,50.057546],[14.585625,50.057474],[14.585498,50.057472],[14.585426,50.057412],[14.585254,50.05736],[14.585038,50.057314],[14.584865,50.057336],[14.584709,50.05734],[14.584215,50.057742],[14.583552,50.057412],[14.582945,50.05715],[14.582789,50.057155],[14.582483,50.057201],[14.581879,50.057257],[14.58156,50.057102],[14.581434,50.056964],[14.581102,50.056999],[14.580781,50.057052],[14.580586,50.057108],[14.580421,50.057157],[14.580336,50.057222],[14.580243,50.057395],[14.580237,50.057495],[14.580218,50.057584],[14.580192,50.057709],[14.580191,50.057781],[14.580185,50.057808],[14.580143,50.05814],[14.580088,50.058471],[14.580066,50.058641],[14.580015,50.059018],[14.579965,50.059322],[14.579951,50.059457],[14.579923,50.059654],[14.579875,50.059949],[14.579835,50.060209],[14.579796,50.06046],[14.579787,50.060504],[14.579762,50.060756],[14.579725,50.060998],[14.579674,50.061374],[14.579655,50.0616],[14.579653,50.061608],[14.5797,50.061721],[14.579597,50.06174],[14.579307,50.061778],[14.579007,50.061797],[14.578964,50.061802],[14.578754,50.061793],[14.578683,50.061796],[14.578391,50.06178],[14.578235,50.061784],[14.578077,50.061798],[14.577848,50.061814],[14.577688,50.061836],[14.577617,50.061839],[14.577374,50.061854],[14.577179,50.061846],[14.57708,50.061847],[14.576942,50.061835],[14.576885,50.061776],[14.576866,50.061787],[14.575361,50.061445],[14.574799,50.061313],[14.574111,50.06115],[14.573453,50.060995],[14.573142,50.060947],[14.572704,50.060903],[14.572516,50.060889],[14.572349,50.060877],[14.572261,50.06088],[14.572052,50.060886],[14.571684,50.060934],[14.571592,50.060946],[14.571589,50.060962],[14.571589,50.061016],[14.57159,50.061039],[14.57148,50.061588],[14.571152,50.062656],[14.571003,50.062828],[14.570899,50.062934],[14.570763,50.06321],[14.570583,50.063573],[14.570395,50.063952],[14.570231,50.064443],[14.570181,50.064747],[14.570168,50.064825],[14.570086,50.06497],[14.570006,50.06511],[14.56994,50.065192],[14.569652,50.065545],[14.569619,50.065585],[14.569283,50.066215],[14.569067,50.066621],[14.569035,50.066681],[14.568952,50.066836],[14.568928,50.066882],[14.568895,50.066945],[14.568862,50.067006],[14.568842,50.067043],[14.568821,50.067082],[14.568784,50.067151],[14.568755,50.067181],[14.568646,50.067432],[14.568539,50.067678],[14.568367,50.068072],[14.56823,50.068388],[14.568161,50.068545],[14.568081,50.068729],[14.568017,50.068874],[14.567657,50.0697],[14.567807,50.070341],[14.567881,50.070489],[14.567896,50.070521],[14.568006,50.070781],[14.568078,50.071062],[14.568053,50.071094],[14.568019,50.071134],[14.567998,50.071161],[14.567992,50.07118],[14.567909,50.071462],[14.567903,50.071481],[14.56785,50.071743],[14.567784,50.072064],[14.567664,50.072502],[14.567586,50.072787],[14.56752,50.073014],[14.567385,50.073463],[14.567374,50.073499],[14.567209,50.073818],[14.567131,50.073969],[14.567122,50.073986],[14.567046,50.074134],[14.56696,50.074299],[14.567659,50.074459],[14.567834,50.074499],[14.56829,50.074604],[14.568477,50.074646],[14.568746,50.074708],[14.569219,50.074816],[14.56932,50.074839],[14.570243,50.07505],[14.570768,50.07517],[14.571348,50.075303],[14.571499,50.075338],[14.571514,50.075341],[14.571543,50.075348],[14.571572,50.075354],[14.571735,50.075392],[14.571888,50.075427],[14.571929,50.075429],[14.571975,50.075431],[14.571997,50.075433],[14.572003,50.075434],[14.572626,50.075509],[14.5758,50.07589],[14.577249,50.075975],[14.577242,50.076078],[14.577224,50.07635],[14.577211,50.076528],[14.57722,50.076562],[14.577236,50.07662],[14.577237,50.076624],[14.577221,50.07667],[14.577206,50.076713],[14.5772,50.076729],[14.577183,50.076779],[14.577176,50.076799],[14.577147,50.076881],[14.577146,50.076884],[14.577142,50.076894],[14.577133,50.076919],[14.57711,50.076985],[14.577106,50.077016],[14.577104,50.077031],[14.577102,50.077047],[14.577095,50.077093],[14.577087,50.077154],[14.577085,50.077168],[14.577049,50.077426],[14.576981,50.077935],[14.576961,50.078085],[14.576882,50.078708],[14.576797,50.079378],[14.576789,50.079548],[14.576771,50.07998],[14.576782,50.08052],[14.576836,50.08053],[14.578338,50.080756],[14.578747,50.080754],[14.580054,50.080716],[14.580681,50.080698],[14.580787,50.080696],[14.583449,50.080778],[14.584389,50.08082],[14.585536,50.081086],[14.58561,50.081111],[14.585667,50.081128],[14.585369,50.082484],[14.585367,50.082527],[14.58537,50.082526]]],[[[14.578313,50.057264],[14.577881,50.057235],[14.577842,50.057422],[14.577797,50.0575],[14.577756,50.057632],[14.577963,50.05765],[14.577968,50.057652],[14.577968,50.057652],[14.577969,50.057651],[14.578071,50.05751],[14.578092,50.05748],[14.57811,50.057455],[14.578129,50.057429],[14.578138,50.057416],[14.578216,50.057309],[14.578227,50.057293],[14.578313,50.057264]]]]}},{"type":"Feature","properties":{"cislo":31002,"kod":27861,"mestskaCast":"praha-dubec"},"geometry":{"type":"MultiPolygon","coordinates":[[[[14.602795,50.075503],[14.602797,50.075501],[14.602692,50.075129],[14.601436,50.071508],[14.601172,50.07075],[14.60052,50.068888],[14.600226,50.068073],[14.600012,50.067483],[14.599961,50.067324],[14.599714,50.066686],[14.599641,50.066498],[14.59958,50.066384],[14.599544,50.066353],[14.599484,50.066303],[14.599304,50.066224],[14.599145,50.066173],[14.598975,50.066113],[14.598366,50.065924],[14.598128,50.065849],[14.597495,50.06564],[14.597061,50.065493],[14.596454,50.065295],[14.594674,50.064913],[14.59386,50.064761],[14.593452,50.065496],[14.594306,50.065725],[14.594164,50.06593],[14.593915,50.066244],[14.59389,50.066297],[14.593696,50.066616],[14.593607,50.066771],[14.593528,50.066946],[14.593393,50.067251],[14.593229,50.067763],[14.593225,50.067781],[14.593074,50.068167],[14.592947,50.068501],[14.592647,50.069328],[14.592485,50.069831],[14.592282,50.070394],[14.592175,50.070902],[14.592057,50.071327],[14.59204,50.071679],[14.592041,50.07168],[14.592041,50.07168],[14.592074,50.071637],[14.592093,50.07157],[14.595729,50.07242],[14.595764,50.07243],[14.595876,50.072462],[14.595999,50.072508],[14.596148,50.072579],[14.59625,50.072652],[14.596332,50.072742],[14.596403,50.07286],[14.596531,50.073292],[14.596552,50.073341],[14.596755,50.073951],[14.596772,50.073994],[14.596789,50.074035],[14.59687,50.074112],[14.597724,50.074812],[14.597747,50.074864],[14.597744,50.074941],[14.599617,50.075166],[14.602703,50.07547],[14.602745,50.075485],[14.602753,50.075488],[14.602795,50.075503]]],[[[14.595962,50.052069],[14.596015,50.052007],[14.596215,50.051849],[14.596391,50.051689],[14.596485,50.05154],[14.596517,50.051372],[14.596696,50.050439],[14.596541,50.05023],[14.596119,50.04949],[14.596296,50.049275],[14.596438,50.048984],[14.596265,50.04848],[14.595973,50.04853],[14.595888,50.048695],[14.59555,50.048783],[14.595216,50.048811],[14.594866,50.048861],[14.594485,50.048902],[14.594079,50.048863],[14.593279,50.048714],[14.593195,50.048684],[14.593078,50.048641],[14.592857,50.048831],[14.592851,50.048836],[14.592785,50.048893],[14.592734,50.048937],[14.592611,50.04892],[14.592513,50.048906],[14.592234,50.048819],[14.592081,50.048791],[14.59192,50.048761],[14.591805,50.04874],[14.59137,50.048688],[14.590814,50.048626],[14.590267,50.048578],[14.58971,50.048535],[14.588625,50.048481],[14.588598,50.048479],[14.588068,50.048463],[14.587603,50.048449],[14.587196,50.048407],[14.58675,50.048344],[14.586716,50.048334],[14.586685,50.048324],[14.586387,50.04823],[14.586364,50.048217],[14.586152,50.048104],[14.585886,50.047914],[14.58587,50.047903],[14.585521,50.047639],[14.585514,50.047634],[14.585176,50.047356],[14.58515,50.047335],[14.584959,50.04719],[14.584802,50.047109],[14.584774,50.047095],[14.584638,50.047047],[14.58445,50.047006],[14.58434,50.046995],[14.584335,50.046996],[14.584243,50.047004],[14.584215,50.047013],[14.584167,50.047313],[14.584036,50.047739],[14.583727,50.04837],[14.583561,50.048541],[14.583495,50.048609],[14.583488,50.048617],[14.583487,50.048617],[14.583336,50.048774],[14.583323,50.048779],[14.58312,50.048852],[14.583117,50.048853],[14.582248,50.049082],[14.582213,50.04909],[14.582111,50.049116],[14.581978,50.049235],[14.581925,50.049334],[14.581897,50.049332],[14.581896,50.049331],[14.581862,50.049328],[14.58165,50.049297],[14.580991,50.049199],[14.580747,50.049163],[14.58051,50.049128],[14.580343,50.049103],[14.580187,50.049082],[14.580114,50.049315],[14.579851,50.049536],[14.57951,50.049921],[14.577673,50.050475],[14.577315,50.050584],[14.57699,50.050682],[14.576635,50.050789],[14.576364,50.050871],[14.575911,50.051008],[14.575901,50.051022],[14.575752,50.051253],[14.575577,50.051521],[14.575567,50.051539],[14.575456,50.05172],[14.575447,50.051758],[14.575455,50.051806],[14.575477,50.051868],[14.575482,50.051878],[14.575558,50.052037],[14.575592,50.052105],[14.575623,50.052147],[14.575714,50.052269],[14.575841,50.052439],[14.575898,50.052501],[14.575949,50.052556],[14.576078,50.052697],[14.576207,50.052837],[14.57622,50.05285],[14.576546,50.052953],[14.576615,50.052975],[14.57727,50.053181],[14.57734,50.053209],[14.577599,50.053325],[14.577647,50.053426],[14.577632,50.053564],[14.577588,50.053673],[14.577571,50.053715],[14.577415,50.053854],[14.577259,50.053905],[14.577051,50.053973],[14.576902,50.054038],[14.576731,50.054112],[14.576648,50.054148],[14.576626,50.054158],[14.576563,50.054185],[14.576895,50.054223],[14.577132,50.054353],[14.5774,50.054875],[14.577426,50.054926],[14.577791,50.055354],[14.577842,50.055544],[14.577838,50.055563],[14.577833,50.055585],[14.577807,50.055708],[14.5778,50.055743],[14.577512,50.056061],[14.577483,50.056076],[14.577304,50.056168],[14.576607,50.056391],[14.57605,50.056589],[14.575811,50.056652],[14.57582,50.056672],[14.575839,50.056723],[14.575849,50.056748],[14.575886,50.056974],[14.575893,50.057016],[14.575898,50.057047],[14.5759,50.057093],[14.575909,50.057308],[14.575868,50.057307],[14.575839,50.057709],[14.576164,50.057762],[14.576485,50.057814],[14.576525,50.057821],[14.576866,50.057876],[14.577149,50.057922],[14.577207,50.057932],[14.577505,50.05798],[14.577563,50.05799],[14.577578,50.057991],[14.577812,50.058019],[14.577818,50.058003],[14.577924,50.057713],[14.577925,50.057711],[14.577968,50.057652],[14.577968,50.057652],[14.577963,50.05765],[14.577756,50.057632],[14.577797,50.0575],[14.577842,50.057422],[14.577881,50.057235],[14.578313,50.057264],[14.578382,50.05724],[14.578447,50.057218],[14.578511,50.057196],[14.57852,50.057193],[14.578565,50.057197],[14.578703,50.057207],[14.578904,50.057223],[14.578896,50.057254],[14.57889,50.05728],[14.578869,50.05736],[14.578783,50.0577],[14.578726,50.057941],[14.578468,50.059317],[14.578266,50.060396],[14.57821,50.060693],[14.57816,50.060743],[14.577213,50.060639],[14.577114,50.060986],[14.576924,50.06173],[14.57691,50.061762],[14.576885,50.061776],[14.576942,50.061835],[14.57708,50.061847],[14.577179,50.061846],[14.577374,50.061854],[14.577617,50.061839],[14.577688,50.061836],[14.577848,50.061814],[14.578077,50.061798],[14.578235,50.061784],[14.578391,50.06178],[14.578683,50.061796],[14.578754,50.061793],[14.578964,50.061802],[14.579007,50.061797],[14.579307,50.061778],[14.579597,50.06174],[14.5797,50.061721],[14.579653,50.061608],[14.579655,50.0616],[14.579674,50.061374],[14.579725,50.060998],[14.579762,50.060756],[14.579787,50.060504],[14.579796,50.06046],[14.579835,50.060209],[14.579875,50.059949],[14.579923,50.059654],[14.579951,50.059457],[14.579965,50.059322],[14.580015,50.059018],[14.580066,50.058641],[14.580088,50.058471],[14.580143,50.05814],[14.580185,50.057808],[14.580191,50.057781],[14.580192,50.057709],[14.580218,50.057584],[14.580237,50.057495],[14.580243,50.057395],[14.580336,50.057222],[14.580421,50.057157],[14.580586,50.057108],[14.580781,50.057052],[14.581102,50.056999],[14.581434,50.056964],[14.58156,50.057102],[14.581879,50.057257],[14.582483,50.057201],[14.582789,50.057155],[14.582945,50.05715],[14.583552,50.057412],[14.584215,50.057742],[14.584709,50.05734],[14.584865,50.057336],[14.585038,50.057314],[14.585254,50.05736],[14.585426,50.057412],[14.585498,50.057472],[14.585625,50.057474],[14.585821,50.057546],[14.586017,50.057618],[14.586215,50.05768],[14.586495,50.057759],[14.586733,50.057834],[14.586852,50.057935],[14.586919,50.058086],[14.586957,50.058244],[14.586856,50.058389],[14.586757,50.058589],[14.587881,50.057535],[14.588242,50.057158],[14.588444,50.057003],[14.588754,50.056667],[14.589169,50.055833],[14.589558,50.054651],[14.591817,50.05443],[14.59195,50.053997],[14.592692,50.053617],[14.59312,50.053391],[14.593914,50.05317],[14.593891,50.052878],[14.59414,50.052564],[14.594595,50.05234],[14.594868,50.052183],[14.595089,50.052138],[14.595683,50.052126],[14.595962,50.052069],[14.595962,50.052069]]]]}}]}
