{"type":"FeatureCollection","features":[{"type":"Feature","properties":{"cislo":55001,"kod":27857,"mestskaCast":"praha-vinor"},"geometry":{"type":"Polygon","coordinates":[[[14.560484,50.155364],[14.560681,50.154981],[14.56145,50.153581],[14.562055,50.152449],[14.562782,50.151075],[14.563231,50.15017],[14.565204,50.150698],[14.565927,50.151205],[14.566157,50.151649],[14.566234,50.151621],[14.567047,50.151333],[14.567332,50.151232],[14.56712,50.150995],[14.56755,50.150775],[14.567798,50.150728],[14.568168,50.150786],[14.568315,50.150808],[14.568591,50.150849],[14.568739,50.150405],[14.568768,50.150179],[14.568773,50.150137],[14.568786,50.150037],[14.57063,50.15006],[14.570782,50.150059],[14.571112,50.150054],[14.571682,50.150047],[14.571776,50.150046],[14.571941,50.150045],[14.572187,50.150042],[14.572475,50.150039],[14.572625,50.150038],[14.572704,50.15003],[14.572734,50.150026],[14.573082,50.149989],[14.573599,50.149934],[14.574392,50.150074],[14.574567,50.150107],[14.576045,50.150384],[14.578328,50.150813],[14.578345,50.150762],[14.578534,50.150201],[14.578657,50.150247],[14.578659,50.150248],[14.578686,50.150258],[14.578701,50.150263],[14.579082,50.150404],[14.579142,50.150427],[14.579254,50.150468],[14.57951,50.150563],[14.579579,50.150589],[14.58008,50.150774],[14.580641,50.150982],[14.581331,50.151238],[14.581437,50.151277],[14.58184,50.151426],[14.58242,50.151817],[14.582964,50.152183],[14.582985,50.152197],[14.583658,50.15265],[14.583705,50.152681],[14.584173,50.15317],[14.584119,50.153435],[14.584145,50.153457],[14.58418,50.153488],[14.584196,50.153503],[14.584218,50.153522],[14.584283,50.15358],[14.584353,50.153643],[14.584376,50.153643],[14.584478,50.153642],[14.584614,50.153642],[14.58473,50.153641],[14.58476,50.153641],[14.584906,50.15364],[14.584927,50.15364],[14.584977,50.153648],[14.585048,50.153658],[14.58519,50.15368],[14.585306,50.153697],[14.585367,50.153706],[14.585508,50.153727],[14.585649,50.153748],[14.585797,50.15377],[14.585825,50.153775],[14.585894,50.153788],[14.585964,50.153801],[14.58615,50.153834],[14.586243,50.153851],[14.586466,50.153891],[14.586913,50.153972],[14.587066,50.154014],[14.587345,50.154094],[14.587982,50.154116],[14.588536,50.15414],[14.589111,50.154172],[14.58928,50.154149],[14.589289,50.154148],[14.589311,50.154237],[14.589325,50.154294],[14.590587,50.154196],[14.591218,50.154146],[14.591691,50.154052],[14.59205,50.153976],[14.592224,50.153941],[14.592392,50.153914],[14.592601,50.153881],[14.59289,50.153842],[14.593204,50.153811],[14.59348,50.153788],[14.593588,50.153787],[14.594044,50.153819],[14.59428,50.153795],[14.594482,50.153813],[14.595389,50.153896],[14.596383,50.153986],[14.596595,50.154007],[14.597985,50.154146],[14.598215,50.154158],[14.598321,50.154164],[14.598353,50.154163],[14.598389,50.154161],[14.598597,50.154154],[14.599004,50.154132],[14.599008,50.154116],[14.599052,50.153897],[14.598688,50.153979],[14.598649,50.154008],[14.598497,50.154018],[14.598346,50.154032],[14.597695,50.15385],[14.597079,50.153445],[14.596894,50.15322],[14.596531,50.152775],[14.596337,50.152538],[14.596214,50.152388],[14.595988,50.152215],[14.595347,50.151722],[14.595175,50.15136],[14.594842,50.150964],[14.594738,50.15084],[14.594479,50.150648],[14.594217,50.150454],[14.593498,50.150071],[14.593021,50.149484],[14.592848,50.149095],[14.592702,50.148769],[14.592559,50.148449],[14.592782,50.148415],[14.592901,50.148397],[14.592814,50.148284],[14.592642,50.148063],[14.592519,50.147903],[14.593179,50.14763],[14.59224,50.147349],[14.591718,50.147366],[14.591193,50.14725],[14.590508,50.147171],[14.589923,50.147122],[14.589816,50.147113],[14.589403,50.147242],[14.588958,50.147232],[14.588933,50.147228],[14.588432,50.147154],[14.588285,50.146977],[14.58819,50.146513],[14.58832,50.146051],[14.588223,50.145862],[14.588067,50.145624],[14.58773,50.145243],[14.588037,50.144857],[14.588059,50.14483],[14.588057,50.144814],[14.588016,50.14446],[14.588009,50.1444],[14.588058,50.144364],[14.588627,50.143951],[14.589371,50.143653],[14.589984,50.143386],[14.590023,50.143371],[14.591208,50.142905],[14.591272,50.14288],[14.591287,50.142848],[14.59131,50.142799],[14.59136,50.142691],[14.591192,50.142325],[14.591161,50.142234],[14.591066,50.141956],[14.591008,50.141848],[14.590895,50.141637],[14.590151,50.140312],[14.590029,50.140136],[14.589899,50.139948],[14.589735,50.139672],[14.590272,50.139573],[14.59073,50.139488],[14.590909,50.139455],[14.591191,50.139434],[14.591321,50.13943],[14.591386,50.139428],[14.591387,50.139386],[14.591388,50.139343],[14.591388,50.139316],[14.591975,50.139027],[14.592334,50.138741],[14.592528,50.138521],[14.592705,50.138239],[14.593105,50.137357],[14.593139,50.137282],[14.593543,50.136393],[14.593874,50.135751],[14.594212,50.135268],[14.594931,50.134292],[14.595214,50.133921],[14.595444,50.13367],[14.596051,50.1331],[14.596432,50.132759],[14.59648,50.132718],[14.596558,50.132651],[14.59736,50.131931],[14.59824,50.131187],[14.598742,50.1308],[14.59923,50.130438],[14.599335,50.13036],[14.599581,50.130197],[14.599873,50.129983],[14.600518,50.129523],[14.600637,50.129451],[14.600875,50.129306],[14.600853,50.129285],[14.60081,50.129243],[14.60078,50.129214],[14.599701,50.129332],[14.59911,50.129349],[14.59822,50.12932],[14.598152,50.128661],[14.598019,50.128121],[14.597924,50.12779],[14.596191,50.12793],[14.595894,50.127949],[14.595837,50.127954],[14.595239,50.127997],[14.595184,50.128001],[14.595201,50.128084],[14.595276,50.128458],[14.595291,50.128669],[14.595268,50.128848],[14.595252,50.128846],[14.594883,50.128814],[14.594731,50.128801],[14.594254,50.12874],[14.593881,50.128689],[14.593843,50.128686],[14.593518,50.128657],[14.593209,50.12863],[14.592901,50.128602],[14.592334,50.128615],[14.591364,50.128613],[14.591159,50.128601],[14.590749,50.128576],[14.590448,50.128553],[14.590136,50.128524],[14.590104,50.128519],[14.58994,50.12849],[14.589793,50.128725],[14.589627,50.128894],[14.589152,50.129311],[14.588738,50.129653],[14.588493,50.129567],[14.588364,50.12953],[14.588358,50.129528],[14.588335,50.129566],[14.588312,50.129603],[14.588291,50.129638],[14.58764,50.130603],[14.587492,50.130659],[14.587426,50.130823],[14.586797,50.130686],[14.585929,50.130469],[14.584155,50.130001],[14.584139,50.129995],[14.58408,50.12997],[14.583701,50.130956],[14.583639,50.130946],[14.583565,50.133237],[14.581652,50.13326],[14.580817,50.133309],[14.580492,50.133349],[14.579882,50.133515],[14.579757,50.133551],[14.579702,50.133566],[14.579552,50.133608],[14.57761,50.134136],[14.576248,50.134483],[14.576163,50.134492],[14.575979,50.134546],[14.575866,50.134772],[14.575542,50.135208],[14.574846,50.136097],[14.574811,50.135903],[14.574541,50.135569],[14.574146,50.135213],[14.574048,50.135147],[14.573939,50.135121],[14.572952,50.135075],[14.572381,50.135046],[14.572126,50.135019],[14.571799,50.134931],[14.571463,50.134812],[14.571303,50.134772],[14.571093,50.134749],[14.570734,50.13473],[14.569081,50.134573],[14.568951,50.134553],[14.568679,50.13451],[14.568336,50.134434],[14.568203,50.134364],[14.567923,50.134148],[14.567905,50.134141],[14.56776,50.134082],[14.567626,50.134027],[14.567587,50.134077],[14.567577,50.134089],[14.567496,50.13419],[14.567373,50.134603],[14.567311,50.135024],[14.567233,50.135625],[14.567225,50.135692],[14.567207,50.135829],[14.567156,50.135804],[14.565699,50.135085],[14.564948,50.134713],[14.563924,50.134219],[14.563832,50.134175],[14.562881,50.133707],[14.562299,50.133424],[14.561666,50.133132],[14.561647,50.133147],[14.56159,50.133192],[14.561554,50.133221],[14.561514,50.133253],[14.561516,50.133272],[14.561532,50.133422],[14.561507,50.133624],[14.56121,50.134414],[14.56105,50.134868],[14.560859,50.135408],[14.560865,50.13548],[14.560388,50.13632],[14.560312,50.136431],[14.560143,50.136656],[14.559974,50.136924],[14.559846,50.137242],[14.559704,50.137804],[14.559683,50.1382],[14.559669,50.138672],[14.559685,50.138957],[14.559468,50.140333],[14.559178,50.141716],[14.558993,50.142498],[14.558901,50.14289],[14.558851,50.143101],[14.558649,50.14377],[14.557365,50.143799],[14.557195,50.143803],[14.55635,50.143819],[14.555844,50.143829],[14.555732,50.143815],[14.55569,50.143809],[14.555624,50.143801],[14.55475,50.143918],[14.553483,50.144082],[14.551183,50.144379],[14.550562,50.144459],[14.55023,50.144502],[14.546695,50.14496],[14.546686,50.144961],[14.546683,50.144974],[14.546495,50.145856],[14.54645,50.145963],[14.546353,50.146189],[14.546253,50.146424],[14.546152,50.146659],[14.546053,50.146888],[14.54604,50.146914],[14.546036,50.146924],[14.545941,50.14711],[14.545906,50.147178],[14.545717,50.147558],[14.545501,50.147946],[14.545448,50.148047],[14.545438,50.148066],[14.545349,50.148114],[14.545278,50.148152],[14.544773,50.148562],[14.544304,50.148977],[14.544303,50.148978],[14.544886,50.149295],[14.545443,50.14959],[14.545844,50.149812],[14.546385,50.150084],[14.547484,50.150546],[14.547792,50.15067],[14.548221,50.150836],[14.549038,50.151127],[14.550225,50.151527],[14.551122,50.151828],[14.552033,50.152142],[14.552888,50.152439],[14.553895,50.152798],[14.554609,50.153069],[14.555191,50.153303],[14.555963,50.153632],[14.557052,50.154104],[14.558098,50.154537],[14.558691,50.154773],[14.559218,50.154966],[14.559761,50.155155],[14.560319,50.155323],[14.560464,50.155359],[14.560484,50.155364]],[[14.578926,50.143457],[14.578765,50.143746],[14.578342,50.14383],[14.578524,50.143817],[14.57866,50.143966],[14.578515,50.144028],[14.578643,50.144185],[14.578955,50.144073],[14.579,50.144116],[14.578975,50.144131],[14.579057,50.144215],[14.579344,50.144111],[14.579337,50.144175],[14.579464,50.144217],[14.57973,50.144275],[14.58071,50.145117],[14.582258,50.146133],[14.581905,50.146489],[14.5831,50.146695],[14.584371,50.147541],[14.583986,50.148399],[14.584905,50.148506],[14.584918,50.148473],[14.585112,50.148505],[14.585086,50.148598],[14.585152,50.148608],[14.585591,50.148337],[14.587132,50.149325],[14.587098,50.149363],[14.587102,50.149667],[14.587414,50.149873],[14.587373,50.1499],[14.587548,50.150022],[14.585879,50.151096],[14.585155,50.150433],[14.58479,50.15011],[14.584403,50.149798],[14.583507,50.149585],[14.583146,50.149502],[14.582927,50.149449],[14.583139,50.149152],[14.583031,50.149143],[14.582923,50.149316],[14.582396,50.149364],[14.582055,50.149276],[14.581069,50.148922],[14.581046,50.148972],[14.580687,50.148926],[14.580274,50.149428],[14.580208,50.149618],[14.579631,50.149485],[14.578888,50.149372],[14.578842,50.149667],[14.578674,50.150174],[14.578431,50.150159],[14.578129,50.15069],[14.573653,50.149876],[14.56871,50.149961],[14.568453,50.150647],[14.567839,50.150605],[14.566862,50.150921],[14.567122,50.151222],[14.566238,50.151447],[14.565283,50.150591],[14.563104,50.150032],[14.562373,50.151499],[14.56035,50.155117],[14.544879,50.148936],[14.545625,50.148236],[14.545754,50.147886],[14.546362,50.14631],[14.5469,50.145039],[14.555681,50.143945],[14.558887,50.143887],[14.560057,50.139213],[14.560159,50.137429],[14.561919,50.133634],[14.574648,50.139709],[14.574468,50.139957],[14.574139,50.141168],[14.574461,50.141176],[14.57463,50.140579],[14.574805,50.140151],[14.575686,50.140667],[14.575618,50.140787],[14.575886,50.141167],[14.57638,50.14143],[14.577045,50.140825],[14.57745,50.141044],[14.577607,50.141603],[14.576918,50.141744],[14.577243,50.141941],[14.577569,50.142161],[14.578057,50.142596],[14.578323,50.143565],[14.578885,50.143394],[14.578926,50.143457]]]}},{"type":"Feature","properties":{"cislo":55002,"kod":104441,"mestskaCast":"praha-vinor"},"geometry":{"type":"Polygon","coordinates":[[[14.56871,50.149961],[14.573653,50.149876],[14.578129,50.15069],[14.578431,50.150159],[14.578674,50.150174],[14.578842,50.149667],[14.578888,50.149372],[14.579631,50.149485],[14.580208,50.149618],[14.580274,50.149428],[14.580687,50.148926],[14.581046,50.148972],[14.581069,50.148922],[14.582055,50.149276],[14.582396,50.149364],[14.582923,50.149316],[14.583031,50.149143],[14.583139,50.149152],[14.582927,50.149449],[14.583146,50.149502],[14.583507,50.149585],[14.584403,50.149798],[14.58479,50.15011],[14.585155,50.150433],[14.585879,50.151096],[14.587548,50.150022],[14.587373,50.1499],[14.587414,50.149873],[14.587102,50.149667],[14.587098,50.149363],[14.587132,50.149325],[14.585591,50.148337],[14.585152,50.148608],[14.585086,50.148598],[14.585112,50.148505],[14.584918,50.148473],[14.584905,50.148506],[14.583986,50.148399],[14.584371,50.147541],[14.5831,50.146695],[14.581905,50.146489],[14.582258,50.146133],[14.58071,50.145117],[14.57973,50.144275],[14.579464,50.144217],[14.579337,50.144175],[14.579344,50.144111],[14.579057,50.144215],[14.578975,50.144131],[14.579,50.144116],[14.578955,50.144073],[14.578643,50.144185],[14.578515,50.144028],[14.57866,50.143966],[14.578524,50.143817],[14.578342,50.14383],[14.578224,50.143853],[14.578053,50.143748],[14.577731,50.143825],[14.577775,50.143975],[14.577792,50.144164],[14.577397,50.144182],[14.576853,50.144208],[14.576835,50.144116],[14.576518,50.144367],[14.576334,50.144513],[14.576075,50.144727],[14.576015,50.145235],[14.575626,50.145198],[14.575682,50.14498],[14.575064,50.145278],[14.574725,50.145416],[14.574623,50.145465],[14.574906,50.145745],[14.574587,50.14585],[14.574281,50.145956],[14.573974,50.146071],[14.573722,50.145762],[14.573252,50.145838],[14.57324,50.146153],[14.572977,50.146246],[14.572732,50.145957],[14.572275,50.146098],[14.571724,50.146257],[14.571132,50.1464],[14.571017,50.146427],[14.570444,50.146563],[14.570114,50.146652],[14.569489,50.146719],[14.569121,50.146706],[14.569131,50.147454],[14.569079,50.147709],[14.56904,50.147942],[14.568941,50.148255],[14.568741,50.14843],[14.568717,50.148748],[14.568732,50.149902],[14.56871,50.149961]]]}},{"type":"Feature","properties":{"cislo":55003,"kod":104442,"mestskaCast":"praha-vinor"},"geometry":{"type":"Polygon","coordinates":[[[14.56871,50.149961],[14.568732,50.149902],[14.568717,50.148748],[14.568741,50.14843],[14.568941,50.148255],[14.56904,50.147942],[14.569079,50.147709],[14.569131,50.147454],[14.569121,50.146706],[14.569489,50.146719],[14.570114,50.146652],[14.570444,50.146563],[14.571017,50.146427],[14.571132,50.1464],[14.571724,50.146257],[14.572275,50.146098],[14.572732,50.145957],[14.572977,50.146246],[14.57324,50.146153],[14.573252,50.145838],[14.573722,50.145762],[14.573974,50.146071],[14.574281,50.145956],[14.574587,50.14585],[14.574906,50.145745],[14.574623,50.145465],[14.574725,50.145416],[14.575064,50.145278],[14.575682,50.14498],[14.575626,50.145198],[14.576015,50.145235],[14.576075,50.144727],[14.576334,50.144513],[14.576518,50.144367],[14.576835,50.144116],[14.576853,50.144208],[14.577397,50.144182],[14.577792,50.144164],[14.577775,50.143975],[14.577731,50.143825],[14.578053,50.143748],[14.578224,50.143853],[14.578342,50.14383],[14.578765,50.143746],[14.578926,50.143457],[14.578885,50.143394],[14.578323,50.143565],[14.578057,50.142596],[14.577569,50.142161],[14.577243,50.141941],[14.576918,50.141744],[14.577607,50.141603],[14.57745,50.141044],[14.577045,50.140825],[14.57638,50.14143],[14.575886,50.141167],[14.575618,50.140787],[14.575686,50.140667],[14.574805,50.140151],[14.57463,50.140579],[14.574461,50.141176],[14.574139,50.141168],[14.574468,50.139957],[14.574648,50.139709],[14.561919,50.133634],[14.560159,50.137429],[14.560057,50.139213],[14.558887,50.143887],[14.555681,50.143945],[14.5469,50.145039],[14.546362,50.14631],[14.545754,50.147886],[14.545625,50.148236],[14.544879,50.148936],[14.56035,50.155117],[14.562373,50.151499],[14.563104,50.150032],[14.565283,50.150591],[14.566238,50.151447],[14.567122,50.151222],[14.566862,50.150921],[14.567839,50.150605],[14.568453,50.150647],[14.56871,50.149961]]]}}]}
