{"type":"FeatureCollection","features":[{"type":"Feature","properties":{"cislo":25001,"kod":28297,"mestskaCast":"praha-brezineves"},"geometry":{"type":"Polygon","coordinates":[[[14.466914,50.169543],[14.469043,50.169807],[14.470071,50.169816],[14.472618,50.169839],[14.472746,50.169836],[14.474518,50.169789],[14.47745,50.169759],[14.477493,50.169759],[14.478123,50.169752],[14.480136,50.169877],[14.480151,50.169878],[14.480149,50.169904],[14.480144,50.169967],[14.480136,50.170068],[14.480123,50.17023],[14.480111,50.170391],[14.4801,50.170538],[14.480092,50.170634],[14.480082,50.170769],[14.480076,50.170843],[14.480071,50.170904],[14.480065,50.170979],[14.48,50.171824],[14.479999,50.171835],[14.479523,50.172294],[14.481709,50.172368],[14.483853,50.172355],[14.483873,50.172355],[14.484027,50.17236],[14.484055,50.172359],[14.487397,50.172261],[14.489578,50.172306],[14.490621,50.172323],[14.492188,50.17235],[14.493738,50.172259],[14.494134,50.172236],[14.49417,50.172234],[14.49531,50.172167],[14.495324,50.172166],[14.497067,50.17201],[14.497989,50.171919],[14.499365,50.171848],[14.499673,50.171833],[14.501535,50.171744],[14.503586,50.171649],[14.504639,50.1716],[14.505426,50.171543],[14.50673,50.171449],[14.506822,50.171442],[14.506905,50.171436],[14.506921,50.171433],[14.507067,50.17141],[14.506911,50.170707],[14.506828,50.170332],[14.506726,50.169873],[14.506562,50.169135],[14.506324,50.168059],[14.506306,50.167979],[14.506293,50.167929],[14.506087,50.167195],[14.505949,50.166703],[14.505949,50.166702],[14.505938,50.166663],[14.505934,50.166644],[14.505927,50.166613],[14.505915,50.166569],[14.505909,50.166538],[14.505809,50.166077],[14.505799,50.166033],[14.50579,50.16599],[14.505768,50.165891],[14.505632,50.165262],[14.505582,50.165031],[14.505291,50.163825],[14.505287,50.163793],[14.504986,50.163803],[14.503829,50.163917],[14.502378,50.164013],[14.502379,50.164026],[14.501056,50.164147],[14.499898,50.164305],[14.499473,50.164363],[14.499314,50.164272],[14.49888,50.16402],[14.498432,50.163761],[14.498366,50.163722],[14.498112,50.163563],[14.498069,50.163536],[14.498036,50.163515],[14.497245,50.163017],[14.495825,50.162065],[14.495812,50.162056],[14.495803,50.16205],[14.495758,50.16202],[14.495748,50.162013],[14.495703,50.162024],[14.495634,50.162045],[14.49537,50.162127],[14.495239,50.162168],[14.494795,50.1623],[14.494478,50.162397],[14.494005,50.162534],[14.493803,50.162595],[14.493592,50.162658],[14.493162,50.162789],[14.492745,50.162915],[14.492335,50.163039],[14.491892,50.163165],[14.491885,50.163167],[14.491469,50.163289],[14.491037,50.163415],[14.490931,50.163446],[14.490703,50.163513],[14.490611,50.16354],[14.490208,50.163647],[14.489824,50.163748],[14.489394,50.163855],[14.489306,50.163875],[14.489077,50.163929],[14.489072,50.16339],[14.489066,50.162826],[14.489066,50.162822],[14.489066,50.162819],[14.489065,50.16275],[14.489065,50.16273],[14.489065,50.16272],[14.489061,50.162345],[14.48906,50.162242],[14.489058,50.162238],[14.488989,50.162102],[14.488975,50.162073],[14.488976,50.162047],[14.488979,50.161956],[14.488983,50.161865],[14.488992,50.161634],[14.488976,50.161618],[14.488975,50.161618],[14.48893,50.161575],[14.488803,50.161548],[14.4888,50.161548],[14.488758,50.161548],[14.485869,50.161551],[14.484004,50.161526],[14.483971,50.161526],[14.483864,50.161524],[14.483803,50.161524],[14.483706,50.161522],[14.483636,50.161521],[14.483618,50.161521],[14.483599,50.161521],[14.483573,50.161525],[14.483563,50.161526],[14.483545,50.161529],[14.48345,50.161543],[14.483441,50.161545],[14.483387,50.161553],[14.483367,50.161552],[14.483364,50.161552],[14.483336,50.161551],[14.483275,50.16155],[14.483232,50.161548],[14.483176,50.161547],[14.482185,50.161521],[14.481127,50.161502],[14.4791,50.161437],[14.478389,50.161354],[14.478377,50.161353],[14.47809,50.161319],[14.477938,50.161301],[14.477929,50.1613],[14.47792,50.161299],[14.47789,50.161296],[14.477683,50.161272],[14.477616,50.161264],[14.477406,50.161239],[14.477388,50.161237],[14.477379,50.161236],[14.477369,50.161235],[14.477308,50.161228],[14.477272,50.161224],[14.476659,50.161152],[14.475973,50.161081],[14.474852,50.160963],[14.472467,50.16084],[14.47239,50.160836],[14.469608,50.160565],[14.469611,50.160547],[14.46996,50.158471],[14.469964,50.158434],[14.470003,50.158085],[14.469624,50.158087],[14.469529,50.15676],[14.469538,50.156725],[14.469467,50.156392],[14.469445,50.156312],[14.469365,50.155986],[14.469277,50.155645],[14.469184,50.155285],[14.469098,50.154941],[14.46907,50.154831],[14.469026,50.154614],[14.468986,50.154429],[14.468956,50.154289],[14.468936,50.154171],[14.468899,50.15396],[14.468889,50.153908],[14.468855,50.153627],[14.468846,50.153496],[14.468817,50.153498],[14.46878,50.153501],[14.46701,50.153506],[14.466991,50.154107],[14.466975,50.15461],[14.466817,50.154611],[14.466675,50.154612],[14.466362,50.154614],[14.464631,50.154624],[14.4623,50.154602],[14.461014,50.154589],[14.461006,50.154647],[14.460864,50.155738],[14.46077,50.156452],[14.460485,50.158628],[14.460438,50.158993],[14.460579,50.159029],[14.462122,50.159418],[14.464124,50.159923],[14.464066,50.160111],[14.464043,50.160185],[14.464004,50.160311],[14.464,50.160324],[14.463996,50.160337],[14.463979,50.160392],[14.463976,50.160402],[14.463926,50.160565],[14.463761,50.161096],[14.463756,50.161114],[14.463749,50.161136],[14.46372,50.161228],[14.463848,50.161957],[14.463847,50.163096],[14.463845,50.164231],[14.463845,50.164426],[14.463845,50.164512],[14.463845,50.164551],[14.463845,50.164809],[14.463845,50.16483],[14.463845,50.164836],[14.463845,50.16485],[14.463845,50.164878],[14.463875,50.16489],[14.463934,50.164914],[14.464376,50.165087],[14.464451,50.165117],[14.466045,50.165329],[14.466689,50.165415],[14.46677,50.165426],[14.466773,50.165453],[14.466813,50.165861],[14.466834,50.166069],[14.466843,50.166156],[14.466857,50.166294],[14.466861,50.166332],[14.466874,50.16647],[14.466882,50.166551],[14.466899,50.166714],[14.467009,50.167818],[14.466914,50.169543]]]}}]}
