{"type":"FeatureCollection","features":[{"type":"Feature","properties":{"cislo":41001,"kod":30607,"mestskaCast":"praha-lysolaje"},"geometry":{"type":"Polygon","coordinates":[[[14.357087,50.131278],[14.357167,50.131273],[14.357433,50.13125],[14.357767,50.13122],[14.358454,50.13116],[14.35928,50.131088],[14.3597,50.131111],[14.3599,50.131122],[14.359919,50.131052],[14.360427,50.131088],[14.360906,50.131121],[14.362181,50.131211],[14.362457,50.131231],[14.362918,50.131308],[14.363318,50.131372],[14.364115,50.13144],[14.364983,50.131515],[14.364983,50.131515],[14.365598,50.131567],[14.366183,50.131558],[14.366774,50.131523],[14.366766,50.131445],[14.366753,50.131314],[14.366713,50.130949],[14.366779,50.130589],[14.366871,50.130086],[14.366991,50.129433],[14.367075,50.129286],[14.367211,50.128908],[14.367938,50.129031],[14.368533,50.129054],[14.369057,50.129043],[14.369776,50.128958],[14.369748,50.128629],[14.369722,50.128327],[14.369692,50.127961],[14.37174,50.127807],[14.37172,50.127675],[14.371711,50.127615],[14.37164,50.127146],[14.371643,50.12713],[14.371656,50.127043],[14.371666,50.126963],[14.371714,50.126962],[14.371719,50.126962],[14.37248,50.126949],[14.373746,50.126879],[14.374585,50.126788],[14.375129,50.126747],[14.375324,50.126752],[14.375513,50.126725],[14.375435,50.126389],[14.375606,50.126046],[14.375913,50.125872],[14.375934,50.125861],[14.375971,50.125856],[14.376285,50.125822],[14.376382,50.125811],[14.376474,50.125825],[14.376711,50.125861],[14.376985,50.125952],[14.377488,50.126191],[14.377796,50.126401],[14.378026,50.126668],[14.378068,50.126646],[14.3781,50.12663],[14.378127,50.126616],[14.378294,50.126519],[14.378406,50.126667],[14.378409,50.126672],[14.378419,50.126685],[14.37842,50.126685],[14.378438,50.126709],[14.378441,50.126713],[14.378453,50.12673],[14.378455,50.126733],[14.378481,50.126767],[14.378528,50.126839],[14.378731,50.127106],[14.379048,50.127517],[14.379259,50.127793],[14.379287,50.127834],[14.379314,50.127871],[14.379565,50.128202],[14.379708,50.128312],[14.379717,50.128319],[14.379736,50.128334],[14.379766,50.128357],[14.379894,50.128455],[14.380089,50.128606],[14.380118,50.128628],[14.381125,50.129406],[14.381129,50.129409],[14.381144,50.12942],[14.38117,50.12944],[14.38124,50.129494],[14.381276,50.129522],[14.381372,50.129595],[14.381598,50.129769],[14.381727,50.129868],[14.381744,50.129881],[14.381767,50.129866],[14.381768,50.129862],[14.381858,50.129807],[14.381969,50.129735],[14.381999,50.129715],[14.382005,50.129712],[14.382038,50.12969],[14.382064,50.129671],[14.382106,50.129646],[14.382137,50.129625],[14.382167,50.129606],[14.382475,50.129406],[14.38264,50.129328],[14.382643,50.129327],[14.382879,50.129215],[14.382882,50.129214],[14.382915,50.129198],[14.382954,50.12918],[14.382989,50.129163],[14.383021,50.129148],[14.383055,50.129132],[14.383093,50.129114],[14.383133,50.129095],[14.383197,50.129065],[14.38323,50.12905],[14.383293,50.12902],[14.38462,50.128559],[14.384628,50.128557],[14.385308,50.12832],[14.385388,50.128296],[14.387123,50.127758],[14.387497,50.127686],[14.387513,50.127684],[14.387517,50.127684],[14.388423,50.127586],[14.388406,50.127554],[14.388448,50.127529],[14.388733,50.127362],[14.388897,50.127234],[14.389004,50.127115],[14.389082,50.127016],[14.389592,50.126366],[14.38975,50.126166],[14.389807,50.126058],[14.389869,50.125621],[14.389674,50.125333],[14.389533,50.125287],[14.389238,50.125164],[14.389337,50.125067],[14.389339,50.125064],[14.389168,50.124925],[14.389051,50.124841],[14.388887,50.124744],[14.388715,50.124577],[14.38867,50.124541],[14.388505,50.124414],[14.38845,50.124218],[14.388486,50.124073],[14.388507,50.123988],[14.388522,50.12393],[14.388409,50.123922],[14.388354,50.123928],[14.388302,50.123943],[14.388191,50.124005],[14.38811,50.124051],[14.388041,50.124096],[14.387987,50.124143],[14.387956,50.124181],[14.387883,50.124199],[14.38787,50.124202],[14.387866,50.124203],[14.387866,50.124222],[14.387877,50.124267],[14.387902,50.124279],[14.387851,50.124324],[14.38778,50.124375],[14.387637,50.124459],[14.387541,50.124505],[14.387515,50.124514],[14.387324,50.124577],[14.387224,50.124601],[14.387158,50.124619],[14.387117,50.124631],[14.38711,50.124623],[14.387085,50.124593],[14.387078,50.124584],[14.387067,50.12457],[14.386939,50.124454],[14.386919,50.124423],[14.386907,50.124405],[14.386899,50.124392],[14.386681,50.124441],[14.386643,50.124259],[14.386508,50.12412],[14.386158,50.123723],[14.385898,50.123425],[14.385844,50.123363],[14.386206,50.123172],[14.386463,50.122968],[14.386492,50.122874],[14.386327,50.122798],[14.386231,50.122754],[14.385926,50.122908],[14.385695,50.12272],[14.38558,50.122626],[14.385519,50.122516],[14.385483,50.122482],[14.385298,50.12231],[14.385161,50.122209],[14.385117,50.122178],[14.384932,50.122071],[14.384698,50.12196],[14.384697,50.12196],[14.384634,50.12193],[14.384073,50.121791],[14.383193,50.12157],[14.382788,50.121433],[14.382783,50.121431],[14.381869,50.121159],[14.381322,50.121112],[14.380609,50.120923],[14.380036,50.120785],[14.379166,50.120617],[14.378288,50.120499],[14.378249,50.120494],[14.377321,50.12036],[14.377102,50.1204],[14.375395,50.120154],[14.375331,50.120136],[14.374972,50.120037],[14.374785,50.119984],[14.374498,50.119903],[14.374277,50.119841],[14.37371,50.119827],[14.373435,50.11982],[14.373332,50.119789],[14.373294,50.119777],[14.37291,50.119654],[14.372264,50.119445],[14.371534,50.11921],[14.371534,50.11921],[14.3715,50.119199],[14.371236,50.119146],[14.371189,50.119136],[14.370889,50.119075],[14.370344,50.118962],[14.370381,50.118691],[14.370402,50.118543],[14.370355,50.118418],[14.370309,50.11831],[14.370107,50.118059],[14.370034,50.118033],[14.369906,50.117988],[14.369867,50.117915],[14.36959,50.117849],[14.369403,50.117691],[14.369437,50.117532],[14.369482,50.117326],[14.369436,50.117023],[14.368716,50.117094],[14.368688,50.116797],[14.368674,50.116527],[14.368668,50.116413],[14.368608,50.116246],[14.368511,50.115977],[14.368655,50.115709],[14.368685,50.11566],[14.36873,50.115514],[14.368563,50.114825],[14.368571,50.114713],[14.368598,50.114298],[14.368461,50.113567],[14.368434,50.113417],[14.36848,50.113166],[14.368511,50.112992],[14.368522,50.112933],[14.368558,50.112733],[14.368036,50.112806],[14.367787,50.112994],[14.367381,50.112908],[14.367653,50.112848],[14.367541,50.112759],[14.367504,50.11273],[14.367336,50.11259],[14.366994,50.112326],[14.367019,50.112069],[14.366908,50.111962],[14.366482,50.111885],[14.366494,50.111979],[14.366418,50.112034],[14.366413,50.112168],[14.366336,50.112242],[14.366308,50.112268],[14.366148,50.11232],[14.366033,50.112405],[14.366023,50.112446],[14.365834,50.112558],[14.365625,50.11261],[14.365534,50.112696],[14.365268,50.11285],[14.365106,50.112897],[14.364791,50.113098],[14.364768,50.113082],[14.364723,50.113125],[14.364717,50.113127],[14.364667,50.113148],[14.364593,50.113182],[14.364548,50.11323],[14.364501,50.113266],[14.364523,50.113277],[14.364513,50.113284],[14.364496,50.113275],[14.364308,50.113583],[14.363984,50.113901],[14.363919,50.113962],[14.363156,50.114549],[14.363122,50.114569],[14.362961,50.114667],[14.36261,50.114927],[14.362568,50.114958],[14.362566,50.11496],[14.36243,50.115086],[14.362327,50.115256],[14.362072,50.115564],[14.36195,50.115722],[14.361931,50.115764],[14.361926,50.115774],[14.361902,50.115829],[14.361887,50.115861],[14.361885,50.115865],[14.361702,50.116086],[14.361578,50.116241],[14.361476,50.116352],[14.360802,50.117077],[14.360586,50.11731],[14.360556,50.117342],[14.360404,50.117506],[14.360458,50.117532],[14.360506,50.117554],[14.360625,50.117609],[14.361245,50.117897],[14.361105,50.118017],[14.36086,50.118238],[14.360726,50.118378],[14.360619,50.118492],[14.360405,50.118746],[14.360342,50.118841],[14.360118,50.119175],[14.359961,50.119426],[14.359719,50.119812],[14.359402,50.120317],[14.359372,50.120368],[14.359307,50.120477],[14.35914,50.120759],[14.35895,50.12108],[14.358813,50.121311],[14.358509,50.121661],[14.357774,50.122507],[14.357662,50.122612],[14.356733,50.123483],[14.35672,50.123494],[14.356256,50.123936],[14.356137,50.124049],[14.35586,50.124312],[14.355665,50.124473],[14.355651,50.124585],[14.355642,50.124652],[14.355741,50.124792],[14.356091,50.125289],[14.356173,50.125397],[14.356638,50.126006],[14.357658,50.127315],[14.358159,50.127799],[14.358691,50.128312],[14.358967,50.128578],[14.35926,50.128835],[14.359936,50.129427],[14.360044,50.129521],[14.359407,50.129568],[14.358918,50.129605],[14.35826,50.129654],[14.358115,50.129653],[14.358003,50.129652],[14.357671,50.129649],[14.357445,50.129647],[14.357398,50.129827],[14.357355,50.129997],[14.357325,50.130141],[14.3571,50.131215],[14.357096,50.131235],[14.357087,50.131278]]]}}]}
