{"type":"FeatureCollection","features":[{"type":"Feature","properties":{"cislo":32001,"kod":27721,"mestskaCast":"praha-klanovice"},"geometry":{"type":"Polygon","coordinates":[[[14.665237,50.087195],[14.66814,50.09346],[14.668187,50.09356],[14.668243,50.093678],[14.668272,50.093745],[14.668975,50.09526],[14.671956,50.099214],[14.67391,50.100487],[14.675415,50.102021],[14.675423,50.102019],[14.675427,50.102017],[14.675555,50.101977],[14.675617,50.101962],[14.675849,50.101905],[14.675984,50.101874],[14.676119,50.101844],[14.676255,50.101816],[14.676391,50.101789],[14.676459,50.101777],[14.676654,50.101702],[14.676804,50.101645],[14.676982,50.101635],[14.678357,50.101544],[14.678387,50.101541],[14.678715,50.101517],[14.679032,50.101494],[14.679092,50.101489],[14.679412,50.101466],[14.679732,50.101442],[14.67987,50.101432],[14.680523,50.101383],[14.680673,50.101372],[14.68107,50.101343],[14.681139,50.101338],[14.681245,50.10133],[14.681436,50.101316],[14.681938,50.101279],[14.682329,50.10125],[14.682719,50.101221],[14.683109,50.101192],[14.6835,50.101163],[14.683893,50.101133],[14.68406,50.101121],[14.684078,50.10112],[14.684618,50.10108],[14.684619,50.10108],[14.684699,50.101074],[14.684991,50.101052],[14.685001,50.101052],[14.685351,50.101026],[14.685766,50.100995],[14.686156,50.100966],[14.686159,50.100965],[14.686347,50.100951],[14.68639,50.100948],[14.686582,50.100934],[14.686746,50.100922],[14.686851,50.100914],[14.686936,50.100908],[14.687251,50.100885],[14.687915,50.100836],[14.688191,50.100816],[14.689061,50.100751],[14.689083,50.100749],[14.689422,50.100724],[14.689983,50.100683],[14.690232,50.100643],[14.690329,50.100627],[14.690733,50.100282],[14.690748,50.10027],[14.691015,50.100042],[14.691017,50.10004],[14.691033,50.100026],[14.691197,50.099894],[14.690641,50.099693],[14.690427,50.099611],[14.690179,50.099516],[14.689959,50.099418],[14.689757,50.099324],[14.689641,50.099273],[14.689277,50.099114],[14.688692,50.098863],[14.688647,50.098843],[14.688599,50.098478],[14.688555,50.098147],[14.688572,50.097963],[14.688608,50.097586],[14.68862,50.097456],[14.688637,50.096659],[14.688637,50.096641],[14.68864,50.096515],[14.688642,50.096401],[14.688694,50.0963],[14.689448,50.096102],[14.689665,50.096038],[14.689694,50.096029],[14.689722,50.096021],[14.689326,50.094977],[14.688835,50.093762],[14.688408,50.092717],[14.687894,50.091451],[14.687889,50.091439],[14.687883,50.091423],[14.687873,50.091398],[14.687407,50.090223],[14.687396,50.090195],[14.687296,50.089942],[14.686752,50.088552],[14.686726,50.08849],[14.686179,50.087161],[14.685727,50.085977],[14.685708,50.085922],[14.685971,50.085877],[14.68587,50.08558],[14.685844,50.085504],[14.685832,50.085468],[14.68582,50.085432],[14.685796,50.085363],[14.685501,50.085409],[14.685466,50.085415],[14.685347,50.085435],[14.685324,50.085439],[14.683089,50.085796],[14.680053,50.086282],[14.676719,50.086797],[14.673292,50.087289],[14.671885,50.087392],[14.670212,50.087436],[14.66962,50.087452],[14.667585,50.087352],[14.66539,50.087209],[14.665349,50.087159],[14.665229,50.087172],[14.665237,50.087195]]]}},{"type":"Feature","properties":{"cislo":32002,"kod":27723,"mestskaCast":"praha-klanovice"},"geometry":{"type":"Polygon","coordinates":[[[14.657437,50.1065],[14.657795,50.106499],[14.658104,50.106497],[14.658411,50.106496],[14.658758,50.1065],[14.65904,50.106503],[14.65932,50.106506],[14.659598,50.106508],[14.660005,50.106519],[14.660431,50.106529],[14.660544,50.106532],[14.660622,50.106534],[14.660641,50.106513],[14.660681,50.106471],[14.660705,50.106445],[14.660815,50.106221],[14.660906,50.106073],[14.660942,50.106014],[14.661059,50.105832],[14.661525,50.105191],[14.661554,50.105152],[14.661609,50.105121],[14.661847,50.104986],[14.662013,50.104903],[14.662179,50.10482],[14.662428,50.104696],[14.662753,50.10453],[14.662815,50.104495],[14.662861,50.10447],[14.663122,50.104332],[14.663339,50.104218],[14.663555,50.104104],[14.663679,50.104038],[14.663768,50.103988],[14.66398,50.10387],[14.664173,50.103753],[14.664184,50.103746],[14.664396,50.103616],[14.664441,50.103588],[14.664646,50.103712],[14.665885,50.102652],[14.666222,50.102789],[14.666369,50.102853],[14.666718,50.103005],[14.667104,50.103179],[14.667361,50.103295],[14.668001,50.103616],[14.668248,50.103756],[14.668595,50.103972],[14.668623,50.103934],[14.668662,50.103883],[14.668843,50.103647],[14.668933,50.103461],[14.66898,50.103271],[14.669214,50.103262],[14.669779,50.103239],[14.670052,50.103228],[14.670485,50.10321],[14.670762,50.103192],[14.670982,50.103168],[14.671052,50.103155],[14.67119,50.103123],[14.671444,50.103063],[14.671469,50.103057],[14.671745,50.102992],[14.671805,50.102978],[14.67189,50.103108],[14.67224,50.103004],[14.672925,50.102777],[14.672949,50.102769],[14.673806,50.102489],[14.674174,50.102382],[14.674754,50.102222],[14.675393,50.102028],[14.675415,50.102021],[14.67391,50.100487],[14.671956,50.099214],[14.668975,50.09526],[14.668272,50.093745],[14.668243,50.093678],[14.668187,50.09356],[14.66814,50.09346],[14.665237,50.087195],[14.664764,50.087159],[14.664509,50.08714],[14.662148,50.086965],[14.658791,50.086708],[14.658615,50.086695],[14.655019,50.086405],[14.652915,50.086229],[14.650811,50.086054],[14.647249,50.085797],[14.646326,50.085697],[14.643781,50.085492],[14.641858,50.085319],[14.641526,50.085289],[14.641328,50.085271],[14.641308,50.08527],[14.639006,50.085122],[14.638527,50.085093],[14.637858,50.085053],[14.636992,50.08498],[14.636762,50.084961],[14.636741,50.084982],[14.636598,50.085127],[14.636563,50.085166],[14.636534,50.085199],[14.636482,50.085257],[14.636418,50.085351],[14.636352,50.085461],[14.636324,50.085508],[14.636192,50.085805],[14.636179,50.085847],[14.636116,50.086048],[14.636021,50.086154],[14.635766,50.086379],[14.635745,50.086401],[14.635541,50.086617],[14.635515,50.086661],[14.635489,50.086719],[14.635479,50.086786],[14.635456,50.087293],[14.635453,50.087305],[14.635435,50.087379],[14.635569,50.087396],[14.63549,50.087666],[14.635374,50.088031],[14.635185,50.088488],[14.63509,50.088676],[14.634904,50.089005],[14.635399,50.089206],[14.635202,50.089821],[14.634952,50.090426],[14.634646,50.091164],[14.633418,50.090969],[14.633338,50.091165],[14.633296,50.091268],[14.633163,50.091592],[14.633165,50.091592],[14.634019,50.091747],[14.634297,50.091786],[14.635239,50.091888],[14.635769,50.091953],[14.636081,50.092007],[14.636654,50.092119],[14.637922,50.092416],[14.638009,50.09217],[14.638003,50.091874],[14.637928,50.09175],[14.637863,50.09164],[14.637772,50.091389],[14.63772,50.091101],[14.637778,50.09084],[14.637798,50.090549],[14.637687,50.090238],[14.637636,50.09011],[14.637688,50.090074],[14.638452,50.090387],[14.639427,50.090788],[14.639882,50.090976],[14.641078,50.091465],[14.641793,50.091755],[14.642515,50.092054],[14.642514,50.092057],[14.642504,50.0921],[14.642492,50.092156],[14.642532,50.092258],[14.642628,50.092334],[14.642797,50.092376],[14.642915,50.093303],[14.643023,50.094199],[14.643105,50.094811],[14.643398,50.096903],[14.643522,50.097734],[14.64362,50.097731],[14.643686,50.097729],[14.643735,50.097728],[14.643921,50.097684],[14.644305,50.09758],[14.644594,50.097534],[14.645496,50.097382],[14.645944,50.097315],[14.646017,50.097301],[14.646562,50.097205],[14.646894,50.097158],[14.64721,50.097123],[14.647894,50.097028],[14.648283,50.09699],[14.648358,50.096988],[14.648643,50.096979],[14.648709,50.09697],[14.648728,50.097003],[14.64884,50.097192],[14.64891,50.097286],[14.649118,50.097506],[14.649224,50.0977],[14.64959,50.098207],[14.64961,50.098235],[14.649773,50.0985],[14.64972,50.098506],[14.649735,50.098576],[14.649852,50.099213],[14.649848,50.099475],[14.649848,50.099501],[14.649844,50.099813],[14.649844,50.09982],[14.649842,50.099948],[14.64984,50.100083],[14.64984,50.100094],[14.649838,50.100267],[14.649837,50.100303],[14.649837,50.100344],[14.651464,50.100595],[14.653037,50.100857],[14.653824,50.101005],[14.654526,50.101159],[14.655435,50.101587],[14.655437,50.101588],[14.655451,50.101596],[14.65549,50.101617],[14.655496,50.101623],[14.655517,50.101636],[14.65553,50.101644],[14.657035,50.102547],[14.657224,50.102671],[14.658096,50.103245],[14.658302,50.10338],[14.655833,50.104335],[14.655851,50.104355],[14.655861,50.104367],[14.655868,50.104375],[14.656635,50.105242],[14.657057,50.10581],[14.657328,50.106176],[14.657334,50.106183],[14.657405,50.10628],[14.657433,50.106473],[14.657434,50.106479],[14.657437,50.1065]]]}}]}
