{"type":"FeatureCollection","features":[{"type":"Feature","properties":{"cislo":28001,"kod":29029,"mestskaCast":"praha-dolni-chabry"},"geometry":{"type":"Polygon","coordinates":[[[14.450152,50.146624],[14.450594,50.14669],[14.451993,50.146721],[14.452836,50.146551],[14.453584,50.14641],[14.454313,50.146249],[14.455401,50.146018],[14.45581,50.145925],[14.455762,50.145445],[14.456828,50.145318],[14.457401,50.144912],[14.457338,50.144364],[14.457858,50.144343],[14.459263,50.14487],[14.462844,50.143052],[14.462613,50.142993],[14.461473,50.142729],[14.460104,50.142248],[14.460028,50.14222],[14.459867,50.142166],[14.459262,50.142021],[14.458829,50.141916],[14.458657,50.141874],[14.458572,50.141853],[14.458364,50.141801],[14.458139,50.141743],[14.457842,50.141659],[14.457491,50.14151],[14.456344,50.141032],[14.456249,50.140992],[14.455994,50.140885],[14.45602,50.14066],[14.456033,50.140535],[14.456042,50.14046],[14.456055,50.140337],[14.456064,50.140263],[14.456077,50.140139],[14.456085,50.140064],[14.456102,50.139912],[14.456106,50.139874],[14.456132,50.139639],[14.456152,50.139462],[14.456153,50.139455],[14.45616,50.139391],[14.456163,50.139361],[14.456174,50.139265],[14.456198,50.13904],[14.456199,50.139032],[14.456229,50.138767],[14.456231,50.138737],[14.456244,50.138614],[14.456248,50.138577],[14.456261,50.138461],[14.456277,50.138328],[14.456292,50.138196],[14.456312,50.138025],[14.456331,50.137855],[14.456421,50.13707],[14.456423,50.137056],[14.456427,50.137023],[14.456374,50.137002],[14.45619,50.136955],[14.455638,50.136824],[14.455491,50.136788],[14.455359,50.136756],[14.455311,50.136742],[14.45495,50.136639],[14.454911,50.136622],[14.454836,50.13659],[14.454723,50.136522],[14.454603,50.136466],[14.454601,50.136465],[14.454479,50.136422],[14.454191,50.13632],[14.454069,50.136285],[14.45372,50.136195],[14.453671,50.136179],[14.453614,50.13616],[14.453587,50.136151],[14.453502,50.136115],[14.453463,50.136097],[14.453375,50.136056],[14.452693,50.135737],[14.45266,50.135722],[14.452634,50.135709],[14.452636,50.135695],[14.452637,50.135686],[14.452686,50.135523],[14.452672,50.135518],[14.452627,50.135501],[14.452569,50.135479],[14.452309,50.135416],[14.452339,50.135302],[14.452213,50.135304],[14.452148,50.135305],[14.45203,50.135308],[14.451908,50.13531],[14.451785,50.135312],[14.45133,50.13532],[14.450263,50.135337],[14.449995,50.135341],[14.449753,50.135345],[14.449676,50.135456],[14.449631,50.135521],[14.449562,50.135622],[14.449318,50.135973],[14.449061,50.136345],[14.448739,50.136809],[14.451297,50.137295],[14.451151,50.137978],[14.451084,50.138304],[14.451032,50.138551],[14.450897,50.138945],[14.45116,50.139134],[14.451144,50.139232],[14.451227,50.139239],[14.45102,50.140342],[14.450997,50.140477],[14.450724,50.140453],[14.450671,50.140764],[14.450948,50.140785],[14.450834,50.141369],[14.450692,50.142179],[14.450418,50.142149],[14.450322,50.142626],[14.450531,50.142593],[14.450596,50.142777],[14.450588,50.142917],[14.450547,50.142913],[14.450398,50.143756],[14.450677,50.143777],[14.450638,50.143972],[14.450618,50.144093],[14.450297,50.144068],[14.450255,50.144281],[14.450152,50.144275],[14.450035,50.144916],[14.450463,50.144949],[14.450413,50.145168],[14.450401,50.145279],[14.450125,50.145258],[14.450108,50.145439],[14.449972,50.145501],[14.45007,50.145591],[14.450035,50.145781],[14.450299,50.145811],[14.450278,50.14592],[14.450034,50.145895],[14.450009,50.146078],[14.449827,50.146062],[14.449814,50.146127],[14.449804,50.1462],[14.449779,50.146336],[14.449679,50.146502],[14.450152,50.146624]]]}},{"type":"Feature","properties":{"cislo":28002,"kod":29031,"mestskaCast":"praha-dolni-chabry"},"geometry":{"type":"Polygon","coordinates":[[[14.439785,50.14904],[14.439849,50.148936],[14.439871,50.148854],[14.439835,50.148699],[14.439914,50.148536],[14.440058,50.148373],[14.440242,50.148434],[14.440436,50.148327],[14.441477,50.148303],[14.44179,50.148282],[14.441837,50.148516],[14.442119,50.148517],[14.442112,50.148376],[14.442508,50.148373],[14.442736,50.148479],[14.444117,50.148436],[14.444322,50.148049],[14.444936,50.148224],[14.445641,50.147449],[14.445381,50.147292],[14.444713,50.147148],[14.444703,50.146917],[14.444318,50.146873],[14.444335,50.146565],[14.443737,50.146516],[14.443891,50.146095],[14.444585,50.14617],[14.444654,50.146176],[14.444964,50.146232],[14.444988,50.146134],[14.444723,50.14582],[14.444869,50.145468],[14.444992,50.145469],[14.446175,50.145602],[14.446296,50.145786],[14.446128,50.145925],[14.446096,50.146212],[14.446358,50.146389],[14.446494,50.146519],[14.446792,50.146544],[14.447095,50.146593],[14.447356,50.146403],[14.447598,50.146388],[14.44766,50.146221],[14.448038,50.146273],[14.447907,50.146394],[14.448179,50.146538],[14.448464,50.146534],[14.448614,50.14641],[14.448809,50.146425],[14.448924,50.146462],[14.448853,50.146602],[14.449075,50.146737],[14.449349,50.14678],[14.449655,50.1468],[14.449993,50.146827],[14.450539,50.146843],[14.451206,50.146907],[14.452221,50.146809],[14.453122,50.146648],[14.453302,50.146957],[14.454602,50.146683],[14.454691,50.146825],[14.455454,50.146647],[14.456398,50.146423],[14.456015,50.14601],[14.458878,50.145307],[14.459263,50.14487],[14.457858,50.144343],[14.457338,50.144364],[14.457401,50.144912],[14.456828,50.145318],[14.455762,50.145445],[14.45581,50.145925],[14.455401,50.146018],[14.454313,50.146249],[14.453584,50.14641],[14.452836,50.146551],[14.451993,50.146721],[14.450594,50.14669],[14.450152,50.146624],[14.449679,50.146502],[14.449779,50.146336],[14.449804,50.1462],[14.449814,50.146127],[14.44926,50.146075],[14.449043,50.146049],[14.448797,50.145986],[14.448635,50.146238],[14.448478,50.146207],[14.448634,50.145983],[14.448388,50.145922],[14.448209,50.145895],[14.448026,50.145867],[14.447849,50.145831],[14.44762,50.145797],[14.447559,50.145973],[14.447427,50.145957],[14.447317,50.145921],[14.447144,50.145907],[14.447087,50.146002],[14.446905,50.14599],[14.446983,50.145887],[14.446851,50.145842],[14.446555,50.145978],[14.446133,50.145491],[14.445063,50.145354],[14.445121,50.145205],[14.444826,50.14509],[14.44479,50.145207],[14.443575,50.145028],[14.443652,50.144818],[14.442597,50.144688],[14.443216,50.143186],[14.440841,50.142644],[14.439474,50.142424],[14.438407,50.143672],[14.438479,50.143704],[14.438568,50.143744],[14.438611,50.143763],[14.438716,50.14381],[14.438895,50.14389],[14.438903,50.14389],[14.438902,50.143893],[14.43891,50.143896],[14.438908,50.143907],[14.438906,50.143922],[14.438875,50.144122],[14.438844,50.144328],[14.438841,50.144346],[14.438824,50.144455],[14.438807,50.14457],[14.438805,50.144582],[14.438792,50.144665],[14.438782,50.144728],[14.438772,50.144794],[14.438767,50.144823],[14.438742,50.144982],[14.438737,50.145018],[14.4385,50.145003],[14.43825,50.144989],[14.438198,50.145318],[14.438196,50.14533],[14.438196,50.145336],[14.438195,50.145336],[14.437939,50.14532],[14.437115,50.145271],[14.435508,50.145173],[14.435214,50.145155],[14.434671,50.145123],[14.433855,50.145073],[14.433846,50.145073],[14.433684,50.145044],[14.433595,50.145028],[14.433592,50.145028],[14.433514,50.145115],[14.433575,50.145487],[14.433618,50.145755],[14.433634,50.14585],[14.433778,50.146142],[14.433844,50.146248],[14.434052,50.146511],[14.434086,50.146554],[14.434152,50.146623],[14.434254,50.146728],[14.434348,50.14686],[14.434414,50.146954],[14.434471,50.147042],[14.434598,50.147235],[14.434692,50.147376],[14.434739,50.147447],[14.43474,50.147448],[14.434857,50.147546],[14.434903,50.147636],[14.435268,50.148131],[14.435365,50.148267],[14.435426,50.148353],[14.435513,50.14851],[14.435597,50.148692],[14.435597,50.148692],[14.435597,50.148692],[14.435664,50.14888],[14.435702,50.149061],[14.43565,50.14925],[14.435601,50.149472],[14.435602,50.149472],[14.435607,50.149476],[14.435607,50.149477],[14.435551,50.149724],[14.435551,50.149724],[14.435478,50.149959],[14.43821,50.150069],[14.4384,50.150006],[14.438788,50.150415],[14.43895,50.150381],[14.439046,50.15018],[14.439025,50.150003],[14.439255,50.150003],[14.439251,50.149896],[14.439379,50.149873],[14.439379,50.149574],[14.439785,50.14904]]]}},{"type":"Feature","properties":{"cislo":28003,"kod":104634,"mestskaCast":"praha-dolni-chabry"},"geometry":{"type":"Polygon","coordinates":[[[14.43015,50.158031],[14.430424,50.158081],[14.430685,50.158128],[14.431016,50.158188],[14.431156,50.158213],[14.431345,50.158247],[14.431426,50.158262],[14.431795,50.158329],[14.432173,50.158397],[14.432561,50.158468],[14.43287,50.158523],[14.433167,50.158577],[14.434423,50.158804],[14.435976,50.159086],[14.436006,50.159091],[14.436026,50.159089],[14.436299,50.158507],[14.436346,50.158385],[14.436365,50.158335],[14.436685,50.157507],[14.436716,50.157516],[14.437664,50.157539],[14.43936,50.157581],[14.441358,50.15763],[14.442458,50.157657],[14.442461,50.157657],[14.442926,50.157669],[14.442968,50.15767],[14.443705,50.157688],[14.443765,50.157689],[14.444516,50.157708],[14.445149,50.157723],[14.445497,50.157732],[14.446013,50.157745],[14.446069,50.157748],[14.447705,50.157772],[14.44791,50.157775],[14.448637,50.157785],[14.449278,50.157794],[14.449729,50.157801],[14.450278,50.157809],[14.451429,50.157825],[14.451831,50.157831],[14.451866,50.157831],[14.452069,50.158221],[14.452114,50.158307],[14.452146,50.158367],[14.45231,50.15838],[14.452393,50.158386],[14.45242,50.158388],[14.452943,50.158427],[14.452979,50.15843],[14.453476,50.158467],[14.453511,50.15847],[14.453914,50.1585],[14.454937,50.158576],[14.454993,50.15858],[14.455833,50.158643],[14.45668,50.158707],[14.45684,50.158726],[14.45863,50.158859],[14.460438,50.158993],[14.460485,50.158628],[14.46077,50.156452],[14.460864,50.155738],[14.461006,50.154647],[14.461014,50.154589],[14.4623,50.154602],[14.464631,50.154624],[14.466362,50.154614],[14.466675,50.154612],[14.466817,50.154611],[14.466975,50.15461],[14.466991,50.154107],[14.46701,50.153506],[14.466984,50.152267],[14.466982,50.152197],[14.466953,50.150841],[14.466986,50.150363],[14.46703,50.149729],[14.46703,50.149717],[14.467031,50.149706],[14.467032,50.14969],[14.467035,50.149675],[14.467347,50.1475],[14.467545,50.146121],[14.467686,50.144854],[14.467783,50.144422],[14.467786,50.144418],[14.467804,50.144395],[14.467847,50.144338],[14.467853,50.14433],[14.467864,50.144316],[14.466561,50.144136],[14.466252,50.144108],[14.466249,50.144106],[14.465911,50.143934],[14.465363,50.143746],[14.464073,50.143375],[14.463789,50.143294],[14.462844,50.143052],[14.459263,50.14487],[14.458878,50.145307],[14.456015,50.14601],[14.456398,50.146423],[14.455454,50.146647],[14.454691,50.146825],[14.454602,50.146683],[14.453302,50.146957],[14.453122,50.146648],[14.452221,50.146809],[14.451206,50.146907],[14.450539,50.146843],[14.449993,50.146827],[14.449655,50.1468],[14.449349,50.14678],[14.449075,50.146737],[14.448853,50.146602],[14.448924,50.146462],[14.448809,50.146425],[14.448614,50.14641],[14.448464,50.146534],[14.448179,50.146538],[14.447907,50.146394],[14.448038,50.146273],[14.44766,50.146221],[14.447598,50.146388],[14.447356,50.146403],[14.447095,50.146593],[14.446792,50.146544],[14.446494,50.146519],[14.446358,50.146389],[14.446096,50.146212],[14.446128,50.145925],[14.446296,50.145786],[14.446175,50.145602],[14.444992,50.145469],[14.444869,50.145468],[14.444723,50.14582],[14.444988,50.146134],[14.444964,50.146232],[14.444654,50.146176],[14.444585,50.14617],[14.443891,50.146095],[14.443737,50.146516],[14.444335,50.146565],[14.444318,50.146873],[14.444703,50.146917],[14.444713,50.147148],[14.445381,50.147292],[14.445641,50.147449],[14.444936,50.148224],[14.444322,50.148049],[14.444117,50.148436],[14.442736,50.148479],[14.442508,50.148373],[14.442112,50.148376],[14.442119,50.148517],[14.441837,50.148516],[14.44179,50.148282],[14.441477,50.148303],[14.440436,50.148327],[14.440242,50.148434],[14.440058,50.148373],[14.439914,50.148536],[14.439835,50.148699],[14.439871,50.148854],[14.439849,50.148936],[14.439785,50.14904],[14.439379,50.149574],[14.439379,50.149873],[14.439251,50.149896],[14.439255,50.150003],[14.439025,50.150003],[14.439046,50.15018],[14.43895,50.150381],[14.438788,50.150415],[14.4384,50.150006],[14.43821,50.150069],[14.435478,50.149959],[14.435468,50.149972],[14.435465,50.15022],[14.435465,50.150222],[14.43554,50.150533],[14.435584,50.150713],[14.435584,50.150714],[14.435647,50.150859],[14.435681,50.150883],[14.435761,50.150938],[14.435776,50.150948],[14.435771,50.150948],[14.435711,50.150948],[14.435686,50.150948],[14.435614,50.150939],[14.435608,50.15097],[14.435633,50.150994],[14.435919,50.151278],[14.43596,50.151318],[14.436218,50.151517],[14.436719,50.151463],[14.436762,50.151489],[14.436762,50.151489],[14.436706,50.151549],[14.436705,50.151549],[14.436705,50.15155],[14.436631,50.151672],[14.436548,50.151809],[14.436448,50.15191],[14.436367,50.151929],[14.436316,50.15192],[14.436115,50.151927],[14.435782,50.151899],[14.435346,50.151839],[14.435019,50.151798],[14.434633,50.151782],[14.434206,50.151714],[14.433823,50.151652],[14.433176,50.15158],[14.432573,50.151517],[14.431959,50.151522],[14.4318,50.151523],[14.431016,50.151419],[14.431016,50.151419],[14.430893,50.151366],[14.430627,50.151249],[14.429832,50.150939],[14.429561,50.150904],[14.429524,50.1509],[14.429177,50.150935],[14.428884,50.150965],[14.428695,50.151052],[14.428574,50.151044],[14.428075,50.151012],[14.427531,50.150983],[14.427463,50.150979],[14.426817,50.150961],[14.426731,50.150959],[14.42673,50.150959],[14.426133,50.150896],[14.426113,50.150894],[14.426088,50.150888],[14.425878,50.150838],[14.425204,50.150547],[14.424948,50.150464],[14.424758,50.150402],[14.42451,50.150321],[14.424423,50.150244],[14.424423,50.150244],[14.424306,50.150142],[14.424247,50.150091],[14.42407,50.149993],[14.423931,50.149917],[14.423752,50.149818],[14.423732,50.149821],[14.423719,50.149822],[14.423682,50.149826],[14.423554,50.149839],[14.423444,50.149851],[14.422993,50.14979],[14.422804,50.149806],[14.422569,50.149827],[14.422503,50.149833],[14.422301,50.149918],[14.421848,50.149959],[14.421701,50.149979],[14.421307,50.150079],[14.421157,50.150118],[14.421077,50.150151],[14.420991,50.150187],[14.420806,50.150263],[14.42074,50.150304],[14.420692,50.150333],[14.420603,50.150557],[14.42052,50.150841],[14.420248,50.151956],[14.420135,50.152469],[14.420015,50.152964],[14.420044,50.152966],[14.42005,50.15299],[14.420204,50.153007],[14.420528,50.152987],[14.421265,50.152941],[14.421972,50.152909],[14.423132,50.152795],[14.423139,50.152818],[14.423979,50.152852],[14.425009,50.152948],[14.426143,50.153148],[14.426222,50.153042],[14.427383,50.153125],[14.427677,50.153146],[14.427633,50.153318],[14.428918,50.153502],[14.428978,50.153511],[14.428889,50.153697],[14.428964,50.153972],[14.429183,50.154005],[14.429049,50.154476],[14.428659,50.155845],[14.42865,50.155874],[14.428335,50.156964],[14.428307,50.157066],[14.428276,50.157177],[14.428218,50.157386],[14.42816,50.15759],[14.428138,50.157667],[14.42822,50.157682],[14.42851,50.157734],[14.428799,50.157787],[14.429084,50.157838],[14.42925,50.157868],[14.429452,50.157905],[14.429818,50.157971],[14.43015,50.158031]]]}},{"type":"Feature","properties":{"cislo":28004,"kod":170904,"mestskaCast":"praha-dolni-chabry"},"geometry":{"type":"Polygon","coordinates":[[[14.448635,50.146238],[14.448797,50.145986],[14.449043,50.146049],[14.44926,50.146075],[14.449814,50.146127],[14.449827,50.146062],[14.450009,50.146078],[14.450034,50.145895],[14.450278,50.14592],[14.450299,50.145811],[14.450035,50.145781],[14.45007,50.145591],[14.449972,50.145501],[14.450108,50.145439],[14.450125,50.145258],[14.450401,50.145279],[14.450413,50.145168],[14.450463,50.144949],[14.450035,50.144916],[14.450152,50.144275],[14.450255,50.144281],[14.450297,50.144068],[14.450618,50.144093],[14.450638,50.143972],[14.450677,50.143777],[14.450398,50.143756],[14.450547,50.142913],[14.450588,50.142917],[14.450596,50.142777],[14.450531,50.142593],[14.450322,50.142626],[14.450418,50.142149],[14.450692,50.142179],[14.450834,50.141369],[14.450948,50.140785],[14.450671,50.140764],[14.450724,50.140453],[14.450997,50.140477],[14.45102,50.140342],[14.451227,50.139239],[14.451144,50.139232],[14.45116,50.139134],[14.450897,50.138945],[14.451032,50.138551],[14.451084,50.138304],[14.451151,50.137978],[14.451297,50.137295],[14.448739,50.136809],[14.448107,50.136696],[14.447929,50.136664],[14.446601,50.136383],[14.446528,50.136361],[14.446524,50.136369],[14.44652,50.136376],[14.446364,50.136644],[14.446324,50.136712],[14.446324,50.136712],[14.446253,50.136811],[14.446193,50.136895],[14.44611,50.137011],[14.446084,50.137042],[14.44607,50.137058],[14.445971,50.137174],[14.445919,50.137239],[14.445884,50.137282],[14.445825,50.137355],[14.445765,50.137444],[14.445468,50.137889],[14.445467,50.137889],[14.445387,50.138065],[14.445371,50.1381],[14.445257,50.138348],[14.445241,50.138383],[14.445221,50.138425],[14.445196,50.138481],[14.445123,50.138639],[14.445077,50.138739],[14.445058,50.138781],[14.444995,50.138918],[14.444942,50.139033],[14.444783,50.139374],[14.44475,50.139445],[14.444739,50.13947],[14.443305,50.139301],[14.443056,50.139272],[14.442967,50.139266],[14.440974,50.139136],[14.440974,50.139136],[14.440766,50.139219],[14.440738,50.13923],[14.440513,50.139319],[14.439902,50.139561],[14.439839,50.139586],[14.439119,50.139871],[14.43882,50.139989],[14.438243,50.140218],[14.437426,50.140541],[14.437383,50.140559],[14.43738,50.14056],[14.437371,50.140573],[14.437369,50.140576],[14.437186,50.140841],[14.436708,50.141536],[14.436684,50.141571],[14.436645,50.141628],[14.436505,50.141832],[14.436026,50.142527],[14.435983,50.142589],[14.436193,50.142683],[14.437207,50.143136],[14.437304,50.143179],[14.437365,50.143207],[14.438407,50.143672],[14.439474,50.142424],[14.440841,50.142644],[14.443216,50.143186],[14.442597,50.144688],[14.443652,50.144818],[14.443575,50.145028],[14.44479,50.145207],[14.444826,50.14509],[14.445121,50.145205],[14.445063,50.145354],[14.446133,50.145491],[14.446555,50.145978],[14.446851,50.145842],[14.446983,50.145887],[14.446905,50.14599],[14.447087,50.146002],[14.447144,50.145907],[14.447317,50.145921],[14.447427,50.145957],[14.447559,50.145973],[14.44762,50.145797],[14.447849,50.145831],[14.448026,50.145867],[14.448209,50.145895],[14.448388,50.145922],[14.448634,50.145983],[14.448478,50.146207],[14.448635,50.146238]]]}}]}
