{"type":"FeatureCollection","features":[{"type":"Feature","properties":{"cislo":23001,"kod":27811,"mestskaCast":"praha-bechovice"},"geometry":{"type":"Polygon","coordinates":[[[14.633163,50.091592],[14.633296,50.091268],[14.633338,50.091165],[14.633418,50.090969],[14.634646,50.091164],[14.634952,50.090426],[14.635202,50.089821],[14.635399,50.089206],[14.634904,50.089005],[14.63509,50.088676],[14.635185,50.088488],[14.635374,50.088031],[14.63549,50.087666],[14.635569,50.087396],[14.635435,50.087379],[14.635453,50.087305],[14.635456,50.087293],[14.635479,50.086786],[14.635489,50.086719],[14.635515,50.086661],[14.635541,50.086617],[14.635745,50.086401],[14.635766,50.086379],[14.636021,50.086154],[14.636116,50.086048],[14.636179,50.085847],[14.636192,50.085805],[14.636324,50.085508],[14.636352,50.085461],[14.636418,50.085351],[14.636482,50.085257],[14.636534,50.085199],[14.636563,50.085166],[14.636598,50.085127],[14.636741,50.084982],[14.636762,50.084961],[14.636821,50.084896],[14.636863,50.08485],[14.637013,50.084686],[14.63702,50.084635],[14.637039,50.084498],[14.63704,50.08449],[14.637042,50.084474],[14.637194,50.084366],[14.63732,50.084278],[14.637416,50.08421],[14.637462,50.084178],[14.637204,50.084135],[14.637101,50.084118],[14.636829,50.084072],[14.636838,50.084051],[14.636883,50.083945],[14.636907,50.083889],[14.636905,50.083888],[14.636617,50.083717],[14.636023,50.083363],[14.635043,50.082897],[14.634863,50.082801],[14.634806,50.08277],[14.634746,50.082738],[14.634739,50.082734],[14.634463,50.082554],[14.634461,50.082524],[14.634458,50.082478],[14.634457,50.082457],[14.634457,50.082434],[14.63446,50.082258],[14.634735,50.081925],[14.634918,50.081133],[14.634926,50.081101],[14.635053,50.080259],[14.63503,50.08017],[14.63502,50.080132],[14.635001,50.080061],[14.634995,50.080038],[14.634994,50.080032],[14.63499,50.080018],[14.635078,50.080008],[14.636041,50.0799],[14.637733,50.079711],[14.637854,50.079695],[14.638858,50.079566],[14.640516,50.079349],[14.64052,50.079349],[14.640707,50.079324],[14.640712,50.079323],[14.640698,50.079293],[14.640755,50.079267],[14.640891,50.079207],[14.641164,50.079126],[14.641203,50.078338],[14.641212,50.078162],[14.641214,50.078143],[14.641227,50.077963],[14.641252,50.077638],[14.641276,50.077318],[14.641299,50.077028],[14.641312,50.076947],[14.641349,50.076717],[14.64137,50.076588],[14.641379,50.076439],[14.641395,50.076158],[14.641401,50.07605],[14.641319,50.075529],[14.641275,50.075288],[14.641256,50.075185],[14.641282,50.075054],[14.641329,50.074819],[14.641424,50.074654],[14.641805,50.074151],[14.641848,50.074025],[14.64182,50.073928],[14.641732,50.073702],[14.641665,50.07353],[14.641429,50.073027],[14.641337,50.072913],[14.641073,50.072675],[14.640673,50.072804],[14.640516,50.072868],[14.640173,50.073009],[14.640064,50.07302],[14.639767,50.073083],[14.639685,50.072903],[14.63937,50.072521],[14.639347,50.072493],[14.639338,50.072482],[14.639156,50.07224],[14.638977,50.07229],[14.638437,50.072443],[14.638132,50.072506],[14.637834,50.072524],[14.637415,50.072549],[14.637406,50.072551],[14.637088,50.072616],[14.637013,50.072621],[14.636556,50.072652],[14.636536,50.072272],[14.636493,50.072185],[14.634725,50.071595],[14.634658,50.07157],[14.633903,50.071292],[14.631585,50.070438],[14.631557,50.07043],[14.631498,50.070414],[14.631455,50.070402],[14.63122,50.070639],[14.630982,50.07088],[14.630721,50.071133],[14.630461,50.07139],[14.630216,50.071619],[14.629962,50.071859],[14.629672,50.072123],[14.629457,50.072302],[14.629398,50.072352],[14.629297,50.072441],[14.629126,50.07259],[14.629069,50.072633],[14.627739,50.072138],[14.627101,50.071941],[14.62702,50.071916],[14.626957,50.071897],[14.62641,50.071732],[14.625972,50.072255],[14.625921,50.072316],[14.62589,50.072354],[14.625854,50.072364],[14.625619,50.072432],[14.625562,50.07246],[14.625717,50.072532],[14.626026,50.072599],[14.626358,50.072753],[14.626247,50.072927],[14.62602,50.0731],[14.625793,50.073419],[14.62612,50.07357],[14.625244,50.074588],[14.624325,50.074083],[14.624172,50.074127],[14.624028,50.074167],[14.623827,50.074226],[14.62366,50.074293],[14.623514,50.074374],[14.62329,50.074503],[14.62304,50.074628],[14.622681,50.074782],[14.622001,50.074475],[14.6219,50.074429],[14.622288,50.07427],[14.62259,50.074143],[14.622899,50.073923],[14.623043,50.073779],[14.623192,50.073552],[14.623194,50.073549],[14.623435,50.0732],[14.623591,50.073036],[14.623709,50.072811],[14.623873,50.072579],[14.623847,50.072568],[14.623811,50.072553],[14.623336,50.072354],[14.623022,50.072223],[14.623083,50.072099],[14.623231,50.071796],[14.62333,50.07155],[14.623399,50.071456],[14.623583,50.071208],[14.623692,50.071123],[14.624034,50.070855],[14.624296,50.07058],[14.624308,50.070548],[14.624359,50.07042],[14.624043,50.070311],[14.623725,50.070201],[14.623346,50.070078],[14.623012,50.069967],[14.622576,50.069826],[14.622218,50.069707],[14.621851,50.069593],[14.621477,50.069474],[14.621024,50.069353],[14.620611,50.069244],[14.620199,50.069144],[14.619811,50.069047],[14.619408,50.068929],[14.619057,50.068811],[14.618619,50.068673],[14.618235,50.068551],[14.617856,50.068455],[14.617469,50.068369],[14.617423,50.068361],[14.617691,50.067885],[14.617649,50.067875],[14.61525,50.067257],[14.614555,50.067058],[14.613659,50.066764],[14.613484,50.066894],[14.613304,50.06735],[14.61347,50.067439],[14.613885,50.067581],[14.613678,50.067673],[14.61327,50.067778],[14.613003,50.067854],[14.612779,50.068021],[14.612668,50.06821],[14.612629,50.068276],[14.612643,50.068385],[14.612623,50.06866],[14.612571,50.068863],[14.612348,50.069393],[14.612119,50.069603],[14.612045,50.069679],[14.611939,50.069787],[14.61152,50.070273],[14.611341,50.070778],[14.611678,50.071057],[14.611877,50.071184],[14.612126,50.071263],[14.612179,50.071314],[14.612203,50.071337],[14.612136,50.071511],[14.612113,50.071557],[14.612062,50.071659],[14.611976,50.071832],[14.611931,50.071993],[14.611976,50.072318],[14.611943,50.072512],[14.611641,50.07304],[14.611273,50.073404],[14.611167,50.073386],[14.610743,50.073314],[14.610699,50.073306],[14.609819,50.073156],[14.609726,50.07314],[14.609679,50.073148],[14.60985,50.07352],[14.609806,50.073733],[14.609586,50.074109],[14.609203,50.074807],[14.608969,50.075109],[14.608823,50.075265],[14.608459,50.075566],[14.608258,50.075875],[14.608169,50.076199],[14.608098,50.076183],[14.60805,50.076302],[14.607964,50.07651],[14.607831,50.076787],[14.607743,50.076998],[14.60762,50.077214],[14.607624,50.077218],[14.60768,50.077223],[14.607491,50.077651],[14.607299,50.078097],[14.607161,50.07842],[14.607085,50.078713],[14.606979,50.079149],[14.606895,50.079486],[14.606788,50.079858],[14.606688,50.080203],[14.606646,50.080335],[14.606521,50.080524],[14.606312,50.080715],[14.606026,50.080871],[14.605853,50.080956],[14.605355,50.081176],[14.604813,50.08141],[14.604675,50.081461],[14.604541,50.081495],[14.604322,50.081531],[14.603916,50.081586],[14.603393,50.081658],[14.602533,50.081792],[14.602097,50.081854],[14.601979,50.08188],[14.601835,50.081958],[14.601747,50.082042],[14.601717,50.082121],[14.601444,50.083418],[14.601444,50.083418],[14.601522,50.083431],[14.601578,50.083439],[14.601542,50.083724],[14.601584,50.083811],[14.601523,50.083835],[14.601429,50.083881],[14.601251,50.083993],[14.601258,50.084035],[14.601268,50.0841],[14.601446,50.085221],[14.601448,50.085704],[14.601402,50.085815],[14.60139,50.085845],[14.60135,50.085942],[14.60167,50.086083],[14.601975,50.086186],[14.602332,50.086306],[14.603707,50.086459],[14.603758,50.086474],[14.604386,50.086661],[14.604773,50.086743],[14.605135,50.086768],[14.605118,50.086808],[14.605116,50.086813],[14.605098,50.086857],[14.605094,50.086866],[14.605012,50.087025],[14.604996,50.087063],[14.604983,50.087104],[14.604943,50.087218],[14.604909,50.087314],[14.604909,50.087316],[14.604908,50.087317],[14.604898,50.087346],[14.604825,50.08756],[14.604824,50.087563],[14.604807,50.087612],[14.604793,50.087652],[14.604693,50.087999],[14.604685,50.088222],[14.604684,50.088252],[14.604679,50.08839],[14.604677,50.088429],[14.604678,50.088433],[14.604689,50.088913],[14.604653,50.089153],[14.604651,50.08916],[14.603922,50.089195],[14.603978,50.090085],[14.604001,50.090452],[14.604108,50.092174],[14.604458,50.092216],[14.604545,50.092226],[14.60592,50.092391],[14.606183,50.092459],[14.60653,50.092548],[14.606742,50.092567],[14.607178,50.092604],[14.607212,50.092607],[14.607535,50.092565],[14.609737,50.092649],[14.609883,50.092693],[14.609966,50.092718],[14.609972,50.092719],[14.609989,50.092724],[14.610053,50.092739],[14.610333,50.092806],[14.61048,50.092842],[14.61085,50.092931],[14.611023,50.092942],[14.611212,50.092954],[14.611621,50.092979],[14.61173,50.092987],[14.612101,50.093014],[14.612437,50.093048],[14.612493,50.093053],[14.613242,50.093128],[14.613254,50.093129],[14.613583,50.093162],[14.613883,50.093188],[14.613981,50.093197],[14.614334,50.09323],[14.614626,50.093235],[14.615151,50.093242],[14.615668,50.093252],[14.615681,50.093252],[14.61625,50.093262],[14.61666,50.093268],[14.616804,50.093271],[14.618091,50.093292],[14.618581,50.093299],[14.618658,50.0933],[14.618867,50.093304],[14.618894,50.093334],[14.618923,50.093368],[14.61895,50.093399],[14.619012,50.093469],[14.620008,50.093519],[14.620314,50.093557],[14.620538,50.093584],[14.621175,50.0936],[14.622559,50.093518],[14.622976,50.093628],[14.623307,50.093646],[14.623322,50.093676],[14.623366,50.093763],[14.623478,50.093983],[14.623986,50.094985],[14.624024,50.09504],[14.624152,50.095225],[14.624402,50.095583],[14.624435,50.095636],[14.625566,50.095284],[14.625779,50.095218],[14.625813,50.095207],[14.625847,50.095202],[14.625932,50.095191],[14.625943,50.09519],[14.625965,50.095187],[14.625964,50.095062],[14.625954,50.09501],[14.625915,50.094805],[14.625915,50.094803],[14.625939,50.094796],[14.625968,50.094788],[14.626221,50.094712],[14.626275,50.094696],[14.626734,50.094478],[14.626812,50.094441],[14.62705,50.094295],[14.627085,50.094276],[14.62769,50.093945],[14.627707,50.093935],[14.628028,50.093792],[14.628064,50.093776],[14.628698,50.093518],[14.62883,50.093464],[14.628864,50.093451],[14.628911,50.093432],[14.628927,50.093426],[14.629042,50.09338],[14.629062,50.093372],[14.629085,50.093367],[14.629101,50.093363],[14.629425,50.093288],[14.630429,50.093004],[14.630453,50.092919],[14.631177,50.09254],[14.631738,50.092292],[14.632338,50.092069],[14.632918,50.09213],[14.633163,50.091592]]]}},{"type":"Feature","properties":{"cislo":23002,"kod":27813,"mestskaCast":"praha-bechovice"},"geometry":{"type":"Polygon","coordinates":[[[14.592002,50.07173],[14.59193,50.071825],[14.591603,50.072577],[14.591412,50.073022],[14.59126,50.073362],[14.591107,50.073634],[14.591007,50.073859],[14.590772,50.07454],[14.590659,50.074808],[14.590537,50.075019],[14.590157,50.075458],[14.589607,50.075955],[14.589495,50.076118],[14.589485,50.07614],[14.589415,50.076297],[14.589347,50.076495],[14.589338,50.07652],[14.589311,50.076611],[14.589289,50.076687],[14.589284,50.076703],[14.589278,50.076725],[14.589259,50.076805],[14.589254,50.076824],[14.589174,50.077164],[14.589095,50.077423],[14.589027,50.077561],[14.589023,50.077568],[14.588705,50.078037],[14.588586,50.078214],[14.588239,50.078598],[14.58809,50.078845],[14.588044,50.078909],[14.587755,50.079306],[14.587631,50.079506],[14.587301,50.079992],[14.58704,50.080492],[14.586366,50.081234],[14.586309,50.08133],[14.586226,50.081473],[14.586001,50.081831],[14.585963,50.081893],[14.585922,50.081946],[14.585843,50.082049],[14.585746,50.082175],[14.585703,50.082231],[14.585503,50.082492],[14.586012,50.082419],[14.586104,50.082406],[14.586449,50.082356],[14.586821,50.082303],[14.586936,50.082286],[14.586947,50.082284],[14.587036,50.082272],[14.587461,50.08221],[14.588077,50.08212],[14.588108,50.082116],[14.588165,50.082105],[14.588186,50.082102],[14.58949,50.081866],[14.589514,50.081862],[14.590788,50.08165],[14.59156,50.081565],[14.591936,50.081544],[14.592978,50.081486],[14.592983,50.081486],[14.593059,50.081481],[14.593224,50.081495],[14.593379,50.081509],[14.593483,50.081518],[14.593486,50.081518],[14.593492,50.081519],[14.593588,50.081527],[14.593894,50.081553],[14.594038,50.081566],[14.594177,50.081635],[14.594238,50.081665],[14.595118,50.082104],[14.595255,50.082172],[14.595592,50.08234],[14.595857,50.082696],[14.596374,50.082796],[14.596766,50.08287],[14.596908,50.082897],[14.597596,50.082972],[14.598283,50.083046],[14.599112,50.083137],[14.599939,50.08322],[14.600765,50.083312],[14.60137,50.083407],[14.601444,50.083418],[14.601444,50.083418],[14.601717,50.082121],[14.601747,50.082042],[14.601835,50.081958],[14.601979,50.08188],[14.602097,50.081854],[14.602533,50.081792],[14.603393,50.081658],[14.603916,50.081586],[14.604322,50.081531],[14.604541,50.081495],[14.604675,50.081461],[14.604813,50.08141],[14.605355,50.081176],[14.605853,50.080956],[14.606026,50.080871],[14.606312,50.080715],[14.606521,50.080524],[14.606646,50.080335],[14.606688,50.080203],[14.606788,50.079858],[14.606895,50.079486],[14.606979,50.079149],[14.607085,50.078713],[14.607161,50.07842],[14.607299,50.078097],[14.607491,50.077651],[14.60768,50.077223],[14.607624,50.077218],[14.60762,50.077214],[14.607207,50.077155],[14.606918,50.077102],[14.606795,50.07708],[14.606613,50.077016],[14.606401,50.076788],[14.606329,50.076711],[14.605749,50.076262],[14.605694,50.076224],[14.605283,50.076139],[14.604921,50.076048],[14.604263,50.075888],[14.602918,50.075547],[14.602868,50.075529],[14.602795,50.075503],[14.602753,50.075488],[14.602745,50.075485],[14.602703,50.07547],[14.599617,50.075166],[14.597744,50.074941],[14.597747,50.074864],[14.597724,50.074812],[14.59687,50.074112],[14.596789,50.074035],[14.596772,50.073994],[14.596755,50.073951],[14.596552,50.073341],[14.596531,50.073292],[14.596403,50.07286],[14.596332,50.072742],[14.59625,50.072652],[14.596148,50.072579],[14.595999,50.072508],[14.595876,50.072462],[14.595764,50.07243],[14.595729,50.07242],[14.592093,50.07157],[14.592074,50.071637],[14.592041,50.07168],[14.592002,50.07173]]]}}]}
