{"type":"FeatureCollection","features":[{"type":"Feature","properties":{"cislo":53001,"kod":28175,"mestskaCast":"praha-ujezd"},"geometry":{"type":"Polygon","coordinates":[[[14.548797,50.02843],[14.549019,50.028254],[14.549099,50.02819],[14.549104,50.028186],[14.549395,50.027954],[14.549405,50.027867],[14.549283,50.027699],[14.549282,50.027557],[14.549282,50.027543],[14.549281,50.027521],[14.549205,50.02738],[14.549132,50.027036],[14.5492,50.026874],[14.549206,50.02671],[14.549159,50.026669],[14.549153,50.026617],[14.548897,50.026468],[14.54853,50.026312],[14.548258,50.026218],[14.546646,50.02589],[14.546664,50.025854],[14.546844,50.025584],[14.546975,50.025467],[14.547773,50.024916],[14.54805,50.024708],[14.548174,50.024601],[14.548206,50.024574],[14.548219,50.024562],[14.548235,50.024543],[14.548442,50.024302],[14.54856,50.024199],[14.548564,50.024195],[14.548889,50.023909],[14.54889,50.023908],[14.549023,50.023791],[14.549147,50.023677],[14.549226,50.023611],[14.549231,50.023606],[14.54937,50.023488],[14.549375,50.023485],[14.549512,50.023368],[14.549526,50.023356],[14.549549,50.023337],[14.549607,50.023288],[14.549763,50.023138],[14.549778,50.023124],[14.549799,50.023104],[14.550007,50.022905],[14.550081,50.022834],[14.550239,50.02271],[14.550265,50.022689],[14.550273,50.022682],[14.550307,50.022654],[14.550517,50.022481],[14.550565,50.022442],[14.550766,50.022275],[14.550813,50.022237],[14.550958,50.022117],[14.550989,50.022081],[14.551147,50.021896],[14.551138,50.021876],[14.551122,50.02184],[14.55112,50.021835],[14.551107,50.021804],[14.551101,50.02179],[14.551095,50.021777],[14.551089,50.021763],[14.551214,50.021676],[14.551299,50.021569],[14.551197,50.021473],[14.551123,50.021255],[14.551055,50.021196],[14.550952,50.021106],[14.550785,50.021036],[14.550566,50.02098],[14.550513,50.020967],[14.55055,50.020932],[14.550504,50.020889],[14.550463,50.020852],[14.550486,50.020812],[14.550252,50.020617],[14.550066,50.020484],[14.549933,50.020383],[14.549774,50.020262],[14.550015,50.019965],[14.550065,50.019881],[14.550142,50.019748],[14.550372,50.019522],[14.550537,50.019323],[14.550613,50.01923],[14.550708,50.019115],[14.551122,50.018914],[14.551401,50.018814],[14.551451,50.018797],[14.55169,50.018714],[14.55188,50.018701],[14.552009,50.018726],[14.552183,50.018759],[14.552269,50.018797],[14.552465,50.018881],[14.552492,50.018904],[14.552567,50.018966],[14.55261,50.018953],[14.552656,50.018939],[14.552678,50.018932],[14.552712,50.018911],[14.552716,50.018878],[14.552794,50.018948],[14.552903,50.019023],[14.552969,50.019069],[14.553111,50.019168],[14.55357,50.019211],[14.553714,50.019281],[14.553743,50.019302],[14.553781,50.019329],[14.553796,50.019339],[14.553799,50.019342],[14.553848,50.019376],[14.554031,50.019287],[14.554307,50.019099],[14.554715,50.018975],[14.554949,50.018794],[14.555119,50.018617],[14.555239,50.018449],[14.555331,50.018283],[14.555468,50.018072],[14.555541,50.017888],[14.555605,50.017721],[14.555613,50.017537],[14.555625,50.017278],[14.555596,50.017112],[14.555592,50.017091],[14.555504,50.017072],[14.55529,50.01702],[14.555128,50.016954],[14.554984,50.01681],[14.554911,50.016562],[14.554857,50.016334],[14.554857,50.016202],[14.554907,50.016065],[14.555127,50.01572],[14.555244,50.015436],[14.555283,50.0152],[14.555312,50.015004],[14.555216,50.014705],[14.555055,50.0145],[14.555006,50.014373],[14.554945,50.014221],[14.554782,50.014056],[14.554629,50.013929],[14.554441,50.013819],[14.554188,50.013522],[14.554133,50.01343],[14.554081,50.013295],[14.554008,50.013067],[14.553974,50.012858],[14.554015,50.012747],[14.554086,50.012588],[14.55417,50.012272],[14.554187,50.012205],[14.554233,50.012156],[14.554267,50.01204],[14.554057,50.011776],[14.554023,50.011628],[14.554081,50.011494],[14.554374,50.011329],[14.554455,50.011268],[14.554533,50.011172],[14.554535,50.010985],[14.554342,50.011047],[14.554268,50.011071],[14.553964,50.011056],[14.553879,50.011164],[14.553693,50.011294],[14.55361,50.011253],[14.553607,50.011251],[14.553569,50.011233],[14.553566,50.011231],[14.55348,50.011195],[14.553098,50.011032],[14.553064,50.011018],[14.553017,50.010998],[14.553074,50.010921],[14.553319,50.010544],[14.553344,50.010505],[14.553608,50.010134],[14.553738,50.009977],[14.553792,50.009913],[14.553726,50.009799],[14.553557,50.00971],[14.553531,50.009671],[14.553524,50.009556],[14.553468,50.009463],[14.553461,50.009462],[14.553385,50.009454],[14.553354,50.009451],[14.553155,50.009341],[14.553035,50.009274],[14.552759,50.009151],[14.552526,50.009029],[14.551541,50.008613],[14.55123,50.008353],[14.551175,50.008357],[14.551175,50.008356],[14.551151,50.008329],[14.551114,50.008286],[14.551018,50.008175],[14.550992,50.008146],[14.55092,50.008063],[14.550879,50.008016],[14.550853,50.007987],[14.550813,50.007994],[14.550773,50.008002],[14.550648,50.008025],[14.550069,50.008131],[14.549679,50.008209],[14.549078,50.0083],[14.549067,50.008302],[14.548626,50.008379],[14.54816,50.008454],[14.547842,50.008506],[14.547691,50.00853],[14.547317,50.008595],[14.546951,50.008647],[14.546828,50.008665],[14.546791,50.00867],[14.546753,50.008678],[14.546748,50.008679],[14.546659,50.008696],[14.546575,50.008712],[14.546456,50.008735],[14.546396,50.008743],[14.546383,50.008745],[14.546367,50.008747],[14.546243,50.008764],[14.546206,50.008768],[14.546121,50.008768],[14.545968,50.008768],[14.545664,50.008648],[14.545522,50.008611],[14.545498,50.008605],[14.545359,50.008571],[14.544763,50.00842],[14.544709,50.008415],[14.544538,50.008398],[14.544109,50.008473],[14.543547,50.008588],[14.543421,50.008611],[14.543191,50.008655],[14.542846,50.008655],[14.542697,50.008655],[14.542361,50.0087],[14.542253,50.008734],[14.542106,50.00878],[14.541684,50.009109],[14.541495,50.00931],[14.54137,50.009516],[14.541178,50.009707],[14.541164,50.009721],[14.541137,50.009747],[14.541126,50.009757],[14.540956,50.009876],[14.540933,50.009892],[14.540832,50.009929],[14.540384,50.010091],[14.540086,50.010185],[14.53973,50.010295],[14.539423,50.010391],[14.539352,50.010413],[14.539001,50.01052],[14.538574,50.010651],[14.538478,50.010678],[14.537951,50.010831],[14.537305,50.011082],[14.536985,50.011195],[14.536822,50.011253],[14.536176,50.01149],[14.535486,50.011751],[14.535427,50.011777],[14.535067,50.011918],[14.534934,50.011978],[14.534717,50.012075],[14.53434,50.012225],[14.533966,50.012369],[14.533583,50.012516],[14.533204,50.012667],[14.532831,50.012818],[14.532463,50.012962],[14.53208,50.013106],[14.532043,50.013121],[14.531705,50.013253],[14.531697,50.013256],[14.531345,50.013402],[14.531084,50.013509],[14.530977,50.013552],[14.530631,50.013688],[14.53041,50.013774],[14.53037,50.013789],[14.530322,50.013808],[14.530107,50.013893],[14.529716,50.014041],[14.52957,50.014101],[14.52957,50.014101],[14.529641,50.016693],[14.529644,50.017147],[14.528614,50.017156],[14.528612,50.017165],[14.528515,50.017293],[14.528312,50.01752],[14.528123,50.017748],[14.527937,50.017759],[14.527923,50.017758],[14.52773,50.017941],[14.527523,50.018122],[14.527442,50.01817],[14.527426,50.018177],[14.527372,50.018236],[14.527289,50.018292],[14.527098,50.018466],[14.526948,50.018643],[14.526747,50.018925],[14.526685,50.01902],[14.526621,50.019123],[14.526594,50.019184],[14.526592,50.019193],[14.526549,50.019262],[14.526398,50.019512],[14.526375,50.019555],[14.526371,50.019573],[14.526303,50.019694],[14.526233,50.019824],[14.526194,50.019875],[14.526102,50.020048],[14.526036,50.02016],[14.525968,50.020282],[14.525898,50.020412],[14.525875,50.020455],[14.525826,50.02055],[14.525824,50.020559],[14.525873,50.020663],[14.52593,50.020795],[14.525944,50.02086],[14.526033,50.02104],[14.526096,50.021209],[14.526136,50.021285],[14.526383,50.021516],[14.527006,50.021897],[14.526945,50.023987],[14.526956,50.023988],[14.527003,50.023986],[14.527017,50.023985],[14.527054,50.024046],[14.527105,50.024129],[14.527171,50.024183],[14.527244,50.024239],[14.527298,50.024265],[14.527312,50.024271],[14.527748,50.024355],[14.527931,50.02439],[14.528101,50.024422],[14.528313,50.024485],[14.528353,50.024497],[14.528405,50.024516],[14.528469,50.024539],[14.529037,50.024746],[14.529062,50.024755],[14.529517,50.024925],[14.529534,50.02493],[14.529722,50.024989],[14.530035,50.025087],[14.530169,50.02513],[14.530211,50.025144],[14.530718,50.025314],[14.531244,50.025491],[14.532304,50.025801],[14.53233,50.025807],[14.532437,50.025831],[14.533011,50.025867],[14.533972,50.025929],[14.534143,50.025972],[14.534334,50.026021],[14.534352,50.026025],[14.536152,50.026482],[14.537158,50.026758],[14.537724,50.026914],[14.537774,50.026928],[14.538322,50.027078],[14.540384,50.027627],[14.540419,50.027641],[14.540473,50.027661],[14.540505,50.027673],[14.540508,50.027675],[14.540851,50.027133],[14.541098,50.026724],[14.541196,50.026661],[14.541839,50.026667],[14.541961,50.026668],[14.542375,50.026689],[14.543329,50.026737],[14.544233,50.027538],[14.544506,50.027474],[14.544551,50.027464],[14.54468,50.027434],[14.544839,50.027396],[14.54501,50.027625],[14.545346,50.028227],[14.545684,50.02876],[14.546235,50.028536],[14.546282,50.028517],[14.546318,50.028502],[14.546488,50.028433],[14.54698,50.028923],[14.547169,50.029111],[14.547199,50.02914],[14.547227,50.029169],[14.547327,50.029269],[14.547379,50.02932],[14.547572,50.029251],[14.547688,50.029214],[14.54793,50.029122],[14.548159,50.028992],[14.548377,50.028802],[14.548394,50.028786],[14.548797,50.02843]]]}},{"type":"Feature","properties":{"cislo":53002,"kod":28177,"mestskaCast":"praha-ujezd"},"geometry":{"type":"Polygon","coordinates":[[[14.518955,50.021729],[14.518958,50.021726],[14.518997,50.021675],[14.519208,50.021412],[14.519395,50.021592],[14.519951,50.02136],[14.520034,50.021303],[14.52069,50.020998],[14.521133,50.0211],[14.521182,50.021068],[14.521302,50.020834],[14.521327,50.020782],[14.521407,50.020671],[14.521917,50.020589],[14.521967,50.020284],[14.524123,50.020945],[14.524509,50.021066],[14.52451,50.021065],[14.524588,50.021277],[14.525064,50.021228],[14.525383,50.021247],[14.526102,50.021446],[14.526383,50.021516],[14.526136,50.021285],[14.526096,50.021209],[14.526033,50.02104],[14.525944,50.02086],[14.52593,50.020795],[14.525873,50.020663],[14.525824,50.020559],[14.525826,50.02055],[14.525875,50.020455],[14.525898,50.020412],[14.525968,50.020282],[14.526036,50.02016],[14.526102,50.020048],[14.526194,50.019875],[14.526233,50.019824],[14.526303,50.019694],[14.526371,50.019573],[14.526375,50.019555],[14.526398,50.019512],[14.526549,50.019262],[14.526592,50.019193],[14.526594,50.019184],[14.526621,50.019123],[14.526685,50.01902],[14.526747,50.018925],[14.526948,50.018643],[14.527098,50.018466],[14.527289,50.018292],[14.527372,50.018236],[14.527426,50.018177],[14.527442,50.01817],[14.527523,50.018122],[14.52773,50.017941],[14.527923,50.017758],[14.527937,50.017759],[14.528123,50.017748],[14.528312,50.01752],[14.528515,50.017293],[14.528612,50.017165],[14.528614,50.017156],[14.529644,50.017147],[14.529641,50.016693],[14.52957,50.014101],[14.52957,50.014101],[14.529225,50.014243],[14.529193,50.014255],[14.528747,50.014437],[14.528595,50.014498],[14.528296,50.014613],[14.528179,50.014658],[14.527758,50.014828],[14.527745,50.014833],[14.527411,50.014961],[14.527197,50.015043],[14.526795,50.015198],[14.526585,50.015279],[14.526414,50.015342],[14.525962,50.015508],[14.525614,50.015646],[14.525386,50.015736],[14.524997,50.01588],[14.52481,50.015949],[14.524304,50.016155],[14.52379,50.016359],[14.523731,50.016382],[14.523727,50.016384],[14.523116,50.01662],[14.522684,50.01679],[14.5219,50.017079],[14.521785,50.017085],[14.521719,50.017088],[14.521685,50.01709],[14.521461,50.017148],[14.52123,50.017208],[14.52084,50.017281],[14.520568,50.017266],[14.520537,50.017264],[14.520535,50.017264],[14.520359,50.017226],[14.520271,50.017239],[14.520317,50.017334],[14.520204,50.017554],[14.520077,50.01767],[14.519969,50.017757],[14.519854,50.017862],[14.519805,50.017889],[14.519507,50.018005],[14.519189,50.018136],[14.519057,50.018188],[14.518704,50.018329],[14.518106,50.018595],[14.518026,50.018627],[14.517964,50.018653],[14.517893,50.018682],[14.517673,50.018771],[14.517458,50.01885],[14.517274,50.018918],[14.517147,50.018965],[14.517005,50.019022],[14.516768,50.019121],[14.516187,50.019333],[14.515485,50.019605],[14.515329,50.019647],[14.515246,50.019671],[14.515238,50.019673],[14.515198,50.019684],[14.515191,50.019687],[14.515069,50.019722],[14.514715,50.019876],[14.514555,50.019946],[14.514022,50.020192],[14.513922,50.020234],[14.513954,50.020241],[14.513965,50.020244],[14.51404,50.02026],[14.514053,50.020263],[14.514165,50.020287],[14.514255,50.020306],[14.514264,50.020308],[14.514289,50.020313],[14.514309,50.020318],[14.514316,50.020319],[14.514516,50.020363],[14.51453,50.020366],[14.514621,50.020386],[14.514669,50.020394],[14.514683,50.020397],[14.514728,50.020405],[14.514837,50.020427],[14.514863,50.020433],[14.515045,50.020469],[14.515447,50.020559],[14.515894,50.02068],[14.516253,50.020778],[14.516277,50.020785],[14.516283,50.020787],[14.516697,50.020915],[14.516733,50.020928],[14.517018,50.021031],[14.517137,50.021074],[14.517226,50.021106],[14.517297,50.021132],[14.517307,50.021136],[14.517343,50.021149],[14.517484,50.0212],[14.517746,50.021297],[14.518172,50.021458],[14.518199,50.02146],[14.51825,50.021463],[14.518316,50.021466],[14.518339,50.021467],[14.518879,50.021702],[14.518955,50.021729]]]}},{"type":"Feature","properties":{"cislo":53003,"kod":28179,"mestskaCast":"praha-ujezd"},"geometry":{"type":"Polygon","coordinates":[[[14.526945,50.023987],[14.527006,50.021897],[14.526383,50.021516],[14.526102,50.021446],[14.525383,50.021247],[14.525064,50.021228],[14.524588,50.021277],[14.52451,50.021065],[14.524509,50.021066],[14.524123,50.020945],[14.521967,50.020284],[14.521917,50.020589],[14.521407,50.020671],[14.521327,50.020782],[14.521302,50.020834],[14.521182,50.021068],[14.521133,50.0211],[14.52069,50.020998],[14.520034,50.021303],[14.519951,50.02136],[14.519395,50.021592],[14.519208,50.021412],[14.518997,50.021675],[14.518958,50.021726],[14.518955,50.021729],[14.519065,50.021769],[14.519168,50.021807],[14.51926,50.02184],[14.519261,50.021841],[14.519263,50.021841],[14.519406,50.021885],[14.519444,50.021896],[14.519488,50.021909],[14.519516,50.021918],[14.519818,50.02201],[14.519825,50.022012],[14.520027,50.022063],[14.520219,50.022112],[14.520768,50.022271],[14.521033,50.022348],[14.521498,50.022542],[14.521556,50.022568],[14.521567,50.022573],[14.521726,50.022645],[14.521754,50.022658],[14.521918,50.022733],[14.521935,50.022741],[14.521954,50.022749],[14.521987,50.022765],[14.521997,50.022769],[14.522229,50.022879],[14.522337,50.022926],[14.522799,50.023063],[14.522922,50.023105],[14.523088,50.023162],[14.523658,50.023353],[14.523734,50.023378],[14.523785,50.023395],[14.523926,50.023442],[14.524206,50.023525],[14.524214,50.023527],[14.524222,50.023529],[14.52424,50.023532],[14.524553,50.023607],[14.524629,50.023625],[14.524994,50.023713],[14.525564,50.02385],[14.525677,50.023861],[14.526937,50.023986],[14.526945,50.023987]]]}}]}
