{"type":"FeatureCollection","features":[{"type":"Feature","properties":{"cislo":51001,"kod":30373,"mestskaCast":"praha-sterboholy"},"geometry":{"type":"Polygon","coordinates":[[[14.56425,50.075961],[14.564688,50.076062],[14.564707,50.076016],[14.565005,50.075287],[14.565184,50.074852],[14.565362,50.074418],[14.56554,50.073983],[14.566929,50.074292],[14.566942,50.074295],[14.56696,50.074299],[14.567046,50.074134],[14.567122,50.073986],[14.567131,50.073969],[14.567209,50.073818],[14.567374,50.073499],[14.567385,50.073463],[14.56752,50.073014],[14.567586,50.072787],[14.567664,50.072502],[14.567784,50.072064],[14.56785,50.071743],[14.567903,50.071481],[14.567909,50.071462],[14.567992,50.07118],[14.567998,50.071161],[14.568019,50.071134],[14.568053,50.071094],[14.568078,50.071062],[14.568034,50.071057],[14.567982,50.071053],[14.567298,50.070961],[14.566614,50.07087],[14.56593,50.070779],[14.565205,50.070682],[14.564998,50.070664],[14.563184,50.070685],[14.562733,50.07069],[14.56266,50.070692],[14.562627,50.070694],[14.562593,50.070695],[14.562488,50.070699],[14.562424,50.070701],[14.56212,50.070741],[14.560387,50.071023],[14.560299,50.071037],[14.56011,50.071073],[14.559946,50.071109],[14.559806,50.07114],[14.559615,50.071209],[14.559602,50.071214],[14.559492,50.071257],[14.559399,50.071294],[14.559389,50.071283],[14.559319,50.071198],[14.559236,50.071115],[14.559216,50.071098],[14.559149,50.071043],[14.559054,50.07098],[14.558959,50.070924],[14.558956,50.070922],[14.558849,50.070871],[14.558747,50.070828],[14.558539,50.070744],[14.558236,50.070627],[14.557982,50.070528],[14.558025,50.070412],[14.55805,50.070346],[14.558344,50.069558],[14.558489,50.069287],[14.558599,50.069096],[14.558247,50.068986],[14.557822,50.068853],[14.557564,50.068773],[14.55713,50.068637],[14.557042,50.068554],[14.556245,50.068451],[14.556091,50.068431],[14.555636,50.068346],[14.555238,50.068257],[14.554851,50.068158],[14.554793,50.068143],[14.554416,50.068047],[14.554053,50.067956],[14.55398,50.068001],[14.553502,50.067902],[14.552747,50.06778],[14.55269,50.06777],[14.55226,50.067701],[14.550774,50.067463],[14.55075,50.06746],[14.549213,50.067182],[14.548744,50.067094],[14.547804,50.066937],[14.547664,50.066931],[14.547264,50.066963],[14.546951,50.066854],[14.546362,50.066699],[14.545964,50.066594],[14.545591,50.066496],[14.545297,50.066427],[14.544549,50.066253],[14.544545,50.066252],[14.54454,50.066251],[14.54452,50.066247],[14.544423,50.06623],[14.544277,50.066203],[14.544117,50.066173],[14.543956,50.066145],[14.543841,50.066123],[14.543696,50.066094],[14.543049,50.065966],[14.542823,50.065927],[14.542574,50.065884],[14.542481,50.065868],[14.542167,50.065776],[14.541888,50.065694],[14.541665,50.065629],[14.541235,50.065504],[14.541111,50.065468],[14.540641,50.065332],[14.540607,50.065322],[14.540597,50.065319],[14.540254,50.06522],[14.540128,50.065183],[14.540013,50.065146],[14.539897,50.065128],[14.539507,50.065063],[14.539398,50.065045],[14.538902,50.064954],[14.538849,50.064943],[14.53876,50.064923],[14.538693,50.064909],[14.538322,50.064858],[14.538266,50.064849],[14.53812,50.064828],[14.538059,50.064819],[14.538022,50.064812],[14.53793,50.064794],[14.53774,50.064756],[14.537738,50.064756],[14.537726,50.064754],[14.537611,50.06473],[14.53761,50.06473],[14.537598,50.064728],[14.53753,50.064714],[14.537401,50.06469],[14.537103,50.064634],[14.537066,50.064799],[14.537056,50.064843],[14.53705,50.064871],[14.537041,50.064913],[14.537027,50.064982],[14.53702,50.065021],[14.537005,50.065106],[14.536944,50.065363],[14.536892,50.065627],[14.536864,50.065753],[14.536827,50.065903],[14.536778,50.066073],[14.536748,50.06618],[14.536717,50.066336],[14.537125,50.066383],[14.537506,50.066435],[14.537617,50.06645],[14.537658,50.066456],[14.53768,50.066459],[14.537706,50.066463],[14.53771,50.066463],[14.537787,50.066475],[14.537804,50.066477],[14.537861,50.066487],[14.538055,50.066521],[14.538175,50.066555],[14.538059,50.066941],[14.537885,50.066934],[14.537815,50.06693],[14.537759,50.066929],[14.537732,50.066927],[14.537732,50.066927],[14.537724,50.066927],[14.537687,50.066924],[14.537644,50.066921],[14.537644,50.066921],[14.537552,50.066914],[14.537445,50.067085],[14.537374,50.067196],[14.537348,50.067235],[14.537291,50.067331],[14.537306,50.067439],[14.537302,50.067538],[14.537283,50.067596],[14.537247,50.06764],[14.537188,50.067678],[14.537006,50.067764],[14.536899,50.067808],[14.536889,50.067813],[14.536822,50.067841],[14.536806,50.067847],[14.536731,50.067879],[14.536729,50.06788],[14.536616,50.067927],[14.53659,50.067938],[14.536589,50.067939],[14.536424,50.068008],[14.536307,50.068072],[14.536255,50.0681],[14.536097,50.068185],[14.53594,50.068271],[14.535886,50.068305],[14.535723,50.068405],[14.53572,50.068407],[14.535657,50.068456],[14.535657,50.068456],[14.5356,50.0685],[14.535571,50.068522],[14.535555,50.068535],[14.535443,50.068645],[14.535408,50.068679],[14.535377,50.068704],[14.53531,50.068757],[14.53621,50.068856],[14.536803,50.068925],[14.537925,50.069054],[14.539156,50.069193],[14.540174,50.069299],[14.540852,50.069373],[14.541168,50.069382],[14.541687,50.069201],[14.542082,50.069025],[14.542602,50.069442],[14.542871,50.069562],[14.544217,50.069975],[14.545376,50.070314],[14.546256,50.070581],[14.54698,50.070771],[14.548158,50.071131],[14.548386,50.071266],[14.548297,50.071388],[14.548336,50.071416],[14.548617,50.071447],[14.548655,50.071335],[14.549098,50.071465],[14.549058,50.071654],[14.549502,50.07169],[14.549435,50.071867],[14.549616,50.07189],[14.549874,50.071958],[14.550039,50.071989],[14.55018,50.071992],[14.550049,50.072209],[14.550357,50.072267],[14.550567,50.072036],[14.550878,50.07208],[14.551111,50.072126],[14.551014,50.072317],[14.551005,50.072398],[14.551409,50.072376],[14.551774,50.072379],[14.552568,50.072359],[14.552938,50.072325],[14.552961,50.072353],[14.553017,50.072497],[14.553322,50.072449],[14.553443,50.07246],[14.553479,50.072677],[14.553523,50.072856],[14.554073,50.072796],[14.554798,50.072718],[14.55503,50.072716],[14.555577,50.07281],[14.555793,50.072704],[14.556242,50.072892],[14.556642,50.0731],[14.557017,50.073303],[14.557344,50.073432],[14.557636,50.073554],[14.557829,50.073611],[14.558564,50.073767],[14.559985,50.074105],[14.560873,50.074408],[14.561699,50.074682],[14.562364,50.074961],[14.562383,50.074993],[14.562281,50.075196],[14.562484,50.075223],[14.562383,50.075402],[14.562586,50.075446],[14.562773,50.075196],[14.563097,50.075339],[14.5638,50.075739],[14.56425,50.075961]]]}},{"type":"Feature","properties":{"cislo":51002,"kod":184490,"mestskaCast":"praha-sterboholy"},"geometry":{"type":"Polygon","coordinates":[[[14.554932,50.08171],[14.554931,50.08171],[14.554867,50.081683],[14.555439,50.081019],[14.555558,50.08088],[14.555946,50.08051],[14.55616,50.080249],[14.556172,50.080234],[14.55629,50.080054],[14.556299,50.08004],[14.556301,50.080035],[14.556386,50.079846],[14.556468,50.079705],[14.556488,50.079671],[14.556702,50.079292],[14.556726,50.079259],[14.55768,50.079422],[14.557708,50.079426],[14.5583,50.079522],[14.558479,50.079551],[14.558525,50.079558],[14.559077,50.07964],[14.559755,50.079696],[14.559786,50.0797],[14.559821,50.079702],[14.560135,50.079729],[14.561251,50.079966],[14.561629,50.080106],[14.561788,50.079144],[14.561776,50.078966],[14.561769,50.07882],[14.561767,50.078792],[14.561756,50.078683],[14.56175,50.078617],[14.561741,50.078531],[14.561733,50.078451],[14.56171,50.078232],[14.561678,50.077895],[14.561619,50.077511],[14.561542,50.077089],[14.561958,50.07702],[14.562029,50.077008],[14.562125,50.076992],[14.562169,50.076985],[14.5623,50.077387],[14.562526,50.077707],[14.562575,50.077675],[14.563079,50.078098],[14.563149,50.077971],[14.563306,50.077687],[14.563564,50.077222],[14.56425,50.075961],[14.5638,50.075739],[14.563097,50.075339],[14.562773,50.075196],[14.562586,50.075446],[14.562383,50.075402],[14.562484,50.075223],[14.562281,50.075196],[14.562383,50.074993],[14.562364,50.074961],[14.561699,50.074682],[14.560873,50.074408],[14.559985,50.074105],[14.558564,50.073767],[14.557829,50.073611],[14.557636,50.073554],[14.557344,50.073432],[14.557017,50.073303],[14.556642,50.0731],[14.556242,50.072892],[14.555793,50.072704],[14.555577,50.07281],[14.55503,50.072716],[14.554798,50.072718],[14.554073,50.072796],[14.553523,50.072856],[14.553479,50.072677],[14.553443,50.07246],[14.553322,50.072449],[14.553017,50.072497],[14.552961,50.072353],[14.552938,50.072325],[14.552568,50.072359],[14.551774,50.072379],[14.551409,50.072376],[14.551005,50.072398],[14.551014,50.072317],[14.551111,50.072126],[14.550878,50.07208],[14.550567,50.072036],[14.550357,50.072267],[14.550049,50.072209],[14.55018,50.071992],[14.550039,50.071989],[14.549874,50.071958],[14.549616,50.07189],[14.549435,50.071867],[14.549502,50.07169],[14.549058,50.071654],[14.549098,50.071465],[14.548655,50.071335],[14.548617,50.071447],[14.548336,50.071416],[14.548297,50.071388],[14.548386,50.071266],[14.548158,50.071131],[14.54698,50.070771],[14.546256,50.070581],[14.545376,50.070314],[14.544217,50.069975],[14.542871,50.069562],[14.542602,50.069442],[14.542082,50.069025],[14.541687,50.069201],[14.541168,50.069382],[14.540852,50.069373],[14.540174,50.069299],[14.539156,50.069193],[14.537925,50.069054],[14.536803,50.068925],[14.53621,50.068856],[14.53531,50.068757],[14.535203,50.068843],[14.5352,50.068846],[14.535191,50.068852],[14.535185,50.068857],[14.535148,50.068894],[14.535023,50.069019],[14.534893,50.069148],[14.534824,50.069218],[14.534762,50.069317],[14.5347,50.069405],[14.53457,50.069541],[14.534544,50.069569],[14.534535,50.069589],[14.534501,50.069659],[14.5345,50.069661],[14.534489,50.069674],[14.534473,50.069693],[14.534355,50.069838],[14.534326,50.069872],[14.534284,50.069924],[14.534213,50.070011],[14.534093,50.070138],[14.534089,50.070142],[14.534064,50.070169],[14.533777,50.070471],[14.533711,50.070532],[14.533603,50.07063],[14.533493,50.070727],[14.533422,50.070794],[14.53327,50.070933],[14.533239,50.070961],[14.533218,50.070981],[14.53321,50.070988],[14.533202,50.070994],[14.533088,50.071074],[14.532992,50.071141],[14.532991,50.071141],[14.532916,50.071194],[14.532815,50.071264],[14.532649,50.071374],[14.532605,50.071403],[14.53255,50.071439],[14.532489,50.071479],[14.532241,50.071642],[14.531814,50.071943],[14.531729,50.072003],[14.531339,50.07223],[14.531321,50.07224],[14.531488,50.072276],[14.531553,50.07229],[14.531558,50.072291],[14.533234,50.072651],[14.533508,50.07271],[14.533886,50.072791],[14.53412,50.072837],[14.534409,50.072904],[14.534516,50.072934],[14.534876,50.073018],[14.534883,50.073019],[14.534956,50.073036],[14.534975,50.07304],[14.535042,50.073056],[14.535077,50.073064],[14.535205,50.0731],[14.535259,50.073116],[14.535418,50.073161],[14.535491,50.073181],[14.535526,50.073191],[14.535705,50.073242],[14.535751,50.073272],[14.535829,50.073323],[14.535851,50.073337],[14.535969,50.073256],[14.535997,50.073237],[14.536056,50.073197],[14.536154,50.07313],[14.536235,50.073075],[14.536316,50.073026],[14.536414,50.072967],[14.53664,50.07283],[14.536804,50.072732],[14.537108,50.07257],[14.537144,50.072551],[14.537186,50.072529],[14.537297,50.07247],[14.537385,50.072424],[14.537527,50.072348],[14.537569,50.072326],[14.537597,50.072311],[14.537606,50.072336],[14.537619,50.072375],[14.537658,50.072492],[14.537661,50.072502],[14.537668,50.072523],[14.537671,50.072531],[14.537722,50.072686],[14.537725,50.072695],[14.537729,50.072705],[14.53775,50.072767],[14.537826,50.072998],[14.537911,50.073384],[14.537921,50.073438],[14.53794,50.073538],[14.537942,50.073544],[14.53796,50.073639],[14.537972,50.07373],[14.537986,50.073818],[14.538127,50.074453],[14.538159,50.074556],[14.537903,50.074604],[14.537843,50.074615],[14.537737,50.074635],[14.537691,50.074644],[14.537649,50.074652],[14.537489,50.074681],[14.536994,50.074774],[14.536985,50.074776],[14.536109,50.07494],[14.536049,50.075004],[14.535261,50.075159],[14.534845,50.075252],[14.534804,50.075261],[14.534329,50.075367],[14.534323,50.075369],[14.534182,50.075405],[14.534426,50.075774],[14.534483,50.075857],[14.534566,50.075972],[14.534864,50.076387],[14.534872,50.076397],[14.535082,50.076751],[14.535083,50.076752],[14.535115,50.076806],[14.535116,50.076808],[14.535118,50.076812],[14.535129,50.076829],[14.535194,50.076939],[14.535225,50.076991],[14.535233,50.077005],[14.535434,50.077233],[14.535496,50.077302],[14.535512,50.07732],[14.535566,50.077382],[14.535965,50.077314],[14.536062,50.077297],[14.536089,50.077293],[14.536283,50.07726],[14.536479,50.077226],[14.537131,50.077115],[14.537174,50.077108],[14.537312,50.077084],[14.537373,50.077074],[14.537558,50.077043],[14.537681,50.077022],[14.537789,50.077003],[14.537928,50.07698],[14.538049,50.076959],[14.53824,50.076926],[14.538282,50.076919],[14.538351,50.076908],[14.538392,50.076901],[14.538495,50.076883],[14.538557,50.076873],[14.539042,50.07679],[14.539355,50.076736],[14.53936,50.076784],[14.539375,50.076909],[14.539376,50.076924],[14.539384,50.076991],[14.539404,50.077157],[14.539406,50.077257],[14.539413,50.07754],[14.539408,50.077621],[14.5394,50.077724],[14.539332,50.078209],[14.539415,50.078295],[14.539415,50.078296],[14.539413,50.078301],[14.539389,50.078364],[14.539335,50.078507],[14.539321,50.078573],[14.539294,50.078699],[14.539262,50.078885],[14.539267,50.079204],[14.539307,50.079571],[14.539349,50.079569],[14.539344,50.079722],[14.539322,50.079851],[14.539108,50.080561],[14.53905,50.080823],[14.539021,50.080956],[14.539118,50.080967],[14.539875,50.081063],[14.541078,50.081246],[14.542403,50.081485],[14.5427,50.08155],[14.543157,50.081649],[14.543603,50.080941],[14.54384,50.080569],[14.5442,50.080069],[14.544879,50.080263],[14.545235,50.080365],[14.545292,50.080381],[14.545858,50.080548],[14.546254,50.080663],[14.546879,50.080847],[14.548094,50.081185],[14.548208,50.081217],[14.549151,50.081477],[14.549678,50.081616],[14.549924,50.081676],[14.550228,50.081744],[14.550863,50.081886],[14.551371,50.081996],[14.551892,50.082092],[14.552036,50.082077],[14.552453,50.082141],[14.552931,50.082248],[14.552936,50.082249],[14.552947,50.082252],[14.553238,50.082319],[14.553276,50.082327],[14.553478,50.082374],[14.553572,50.082395],[14.553624,50.082407],[14.554261,50.082554],[14.5543,50.082563],[14.554622,50.082117],[14.554837,50.081819],[14.554917,50.081728],[14.554932,50.08171]]]}}]}
