{"type":"FeatureCollection","features":[{"type":"Feature","properties":{"cislo":45001,"kod":27409,"mestskaCast":"praha-predni-kopanina"},"geometry":{"type":"Polygon","coordinates":[[[14.302304,50.13002],[14.30234,50.130036],[14.302396,50.13006],[14.302435,50.130077],[14.302733,50.129896],[14.303254,50.129677],[14.304071,50.129424],[14.304287,50.129375],[14.30437,50.129512],[14.304393,50.129554],[14.304399,50.12963],[14.304418,50.129666],[14.304512,50.129647],[14.304663,50.129631],[14.304764,50.129677],[14.305036,50.129894],[14.305107,50.129918],[14.305148,50.129932],[14.305217,50.129955],[14.30564,50.13014],[14.305757,50.130082],[14.305812,50.13005],[14.30587,50.130003],[14.305917,50.129951],[14.306194,50.129477],[14.306224,50.129285],[14.306207,50.129283],[14.306202,50.129256],[14.306186,50.12923],[14.306153,50.12921],[14.306164,50.129167],[14.30619,50.12917],[14.306322,50.129165],[14.306417,50.129137],[14.306567,50.129066],[14.306738,50.128969],[14.307038,50.128831],[14.307336,50.128652],[14.307557,50.128526],[14.307911,50.128359],[14.308248,50.12824],[14.308599,50.128151],[14.308899,50.128106],[14.309003,50.128091],[14.309613,50.128067],[14.309839,50.128039],[14.309985,50.128021],[14.310089,50.127952],[14.310179,50.127894],[14.310327,50.127772],[14.310391,50.127889],[14.310654,50.128037],[14.310833,50.128058],[14.311077,50.128073],[14.311727,50.128108],[14.312543,50.128225],[14.312829,50.128265],[14.313211,50.128318],[14.31416,50.128413],[14.314348,50.128432],[14.31588,50.128617],[14.315835,50.128338],[14.315674,50.127561],[14.315579,50.127102],[14.315601,50.126246],[14.31562,50.125662],[14.315629,50.125392],[14.315685,50.125392],[14.315688,50.125309],[14.315706,50.125271],[14.315744,50.125192],[14.315766,50.125147],[14.315808,50.124896],[14.315816,50.124312],[14.315819,50.124183],[14.315832,50.123726],[14.315784,50.123391],[14.315738,50.123075],[14.315733,50.123039],[14.315785,50.122984],[14.315698,50.122945],[14.316038,50.122589],[14.316161,50.122454],[14.316271,50.12231],[14.316827,50.121406],[14.317024,50.121143],[14.317099,50.121005],[14.317107,50.120973],[14.317268,50.120341],[14.317612,50.118989],[14.317616,50.118955],[14.317572,50.118863],[14.317573,50.118862],[14.317573,50.118862],[14.317375,50.11877],[14.316632,50.118409],[14.316098,50.11814],[14.315826,50.117987],[14.315578,50.117822],[14.31499,50.117392],[14.314779,50.117251],[14.313843,50.116629],[14.312179,50.115721],[14.311908,50.115535],[14.311694,50.115362],[14.311486,50.115155],[14.311317,50.114939],[14.311073,50.114618],[14.311064,50.114608],[14.310958,50.114492],[14.310948,50.114481],[14.310896,50.114424],[14.309797,50.113537],[14.309386,50.113237],[14.308766,50.112814],[14.308492,50.112649],[14.308113,50.112422],[14.307631,50.112155],[14.307517,50.112092],[14.30725,50.111919],[14.307068,50.111781],[14.30701,50.111734],[14.306891,50.111639],[14.3068,50.111535],[14.306491,50.111183],[14.30605,50.110768],[14.305899,50.110626],[14.305436,50.11014],[14.305104,50.109806],[14.304539,50.109341],[14.304268,50.109117],[14.304123,50.108992],[14.303328,50.10876],[14.302599,50.108547],[14.302075,50.108393],[14.301709,50.108286],[14.301312,50.108184],[14.301228,50.108163],[14.301146,50.108144],[14.300826,50.108063],[14.300055,50.107867],[14.299843,50.107823],[14.29915,50.107676],[14.297443,50.10733],[14.29664,50.10717],[14.296233,50.107084],[14.295894,50.107014],[14.29518,50.106848],[14.295177,50.106847],[14.294883,50.106743],[14.294758,50.106697],[14.293687,50.106296],[14.293625,50.106272],[14.29351,50.10646],[14.293421,50.106615],[14.29327,50.106893],[14.293206,50.107017],[14.293022,50.107343],[14.292953,50.107466],[14.292921,50.107521],[14.292902,50.107555],[14.292832,50.107676],[14.292289,50.10844],[14.292021,50.108837],[14.291773,50.109166],[14.291494,50.109537],[14.291114,50.109999],[14.290949,50.1102],[14.290798,50.110375],[14.290206,50.111034],[14.290092,50.111161],[14.29006,50.111199],[14.289832,50.11142],[14.28964,50.111595],[14.289016,50.112078],[14.289005,50.112097],[14.288971,50.11215],[14.288962,50.112165],[14.288949,50.112185],[14.288787,50.112474],[14.288787,50.112562],[14.288781,50.112769],[14.288763,50.112789],[14.288705,50.112846],[14.288673,50.11285],[14.288665,50.112851],[14.288608,50.112804],[14.288603,50.1128],[14.288598,50.112796],[14.288594,50.112799],[14.288586,50.112807],[14.288579,50.112814],[14.288576,50.112816],[14.288565,50.112828],[14.288628,50.112872],[14.288652,50.112899],[14.288678,50.112929],[14.288698,50.112956],[14.288224,50.113304],[14.288186,50.113288],[14.287995,50.113194],[14.287925,50.11316],[14.287913,50.113155],[14.28789,50.113168],[14.287885,50.11317],[14.287879,50.113173],[14.28787,50.113179],[14.287864,50.113182],[14.287837,50.113196],[14.287849,50.113202],[14.287925,50.113233],[14.288134,50.113327],[14.288148,50.113335],[14.288152,50.113353],[14.287715,50.113647],[14.287679,50.113671],[14.287265,50.113953],[14.287122,50.11405],[14.286971,50.114153],[14.286844,50.114238],[14.286893,50.114584],[14.287179,50.114731],[14.28716,50.114787],[14.287192,50.114872],[14.287144,50.114878],[14.287022,50.114929],[14.286527,50.115166],[14.28649,50.115184],[14.286366,50.115243],[14.28566,50.11558],[14.285656,50.115582],[14.28556,50.115627],[14.285561,50.115628],[14.285326,50.115666],[14.285278,50.115674],[14.285294,50.115682],[14.285328,50.115697],[14.285431,50.115739],[14.285486,50.115762],[14.285562,50.115794],[14.285921,50.115851],[14.285923,50.115851],[14.285968,50.115853],[14.286178,50.11586],[14.286213,50.115862],[14.286498,50.115885],[14.286699,50.115901],[14.28689,50.115919],[14.286928,50.115923],[14.287103,50.115939],[14.287241,50.115962],[14.287268,50.115967],[14.287351,50.115981],[14.287709,50.11604],[14.287771,50.11605],[14.287881,50.116069],[14.28789,50.116072],[14.287978,50.1161],[14.288096,50.116138],[14.288351,50.116221],[14.288808,50.116402],[14.289145,50.11658],[14.289327,50.116651],[14.289572,50.116821],[14.290124,50.11715],[14.290595,50.117398],[14.291138,50.11763],[14.291914,50.118081],[14.292067,50.118306],[14.292245,50.118316],[14.292342,50.118278],[14.292499,50.118343],[14.292514,50.118349],[14.292599,50.118357],[14.292882,50.118489],[14.293094,50.118591],[14.293512,50.118792],[14.293848,50.118951],[14.293935,50.118986],[14.294325,50.119055],[14.294612,50.119182],[14.294707,50.119226],[14.294979,50.11935],[14.295154,50.119434],[14.295676,50.119657],[14.295723,50.119681],[14.295919,50.119781],[14.296517,50.120117],[14.296752,50.120257],[14.296789,50.120283],[14.297001,50.120431],[14.297173,50.120594],[14.297393,50.120897],[14.297451,50.120964],[14.296952,50.121318],[14.296623,50.121597],[14.296518,50.121684],[14.295916,50.122182],[14.295754,50.122386],[14.295642,50.12264],[14.295538,50.122996],[14.295402,50.123634],[14.295322,50.124016],[14.295246,50.124284],[14.295126,50.124653],[14.294855,50.124713],[14.294687,50.124784],[14.294724,50.124814],[14.294938,50.124808],[14.295327,50.12491],[14.295706,50.125056],[14.295715,50.125059],[14.295754,50.125084],[14.296121,50.125226],[14.297045,50.1256],[14.297153,50.125651],[14.297233,50.125689],[14.297392,50.125682],[14.297504,50.125713],[14.297634,50.12579],[14.297748,50.125774],[14.297763,50.125783],[14.297905,50.12587],[14.298381,50.126004],[14.298751,50.126108],[14.298891,50.12624],[14.29919,50.126236],[14.299617,50.126291],[14.299475,50.126337],[14.29974,50.126508],[14.300204,50.126643],[14.300654,50.127009],[14.300884,50.127383],[14.300934,50.127377],[14.301034,50.127366],[14.301046,50.127378],[14.301047,50.12743],[14.300637,50.127649],[14.300317,50.12774],[14.30075,50.128432],[14.300712,50.128463],[14.300467,50.12866],[14.300591,50.128841],[14.300721,50.129033],[14.300898,50.129252],[14.301332,50.129645],[14.302164,50.129575],[14.302312,50.129809],[14.302318,50.129825],[14.302322,50.129841],[14.302326,50.129858],[14.302329,50.129874],[14.30233,50.12989],[14.302331,50.129907],[14.30233,50.129923],[14.302329,50.12994],[14.302326,50.129956],[14.302322,50.129972],[14.302317,50.129988],[14.302311,50.130004],[14.302304,50.13002]]]}}]}
