{"type":"FeatureCollection","features":[{"type":"Feature","properties":{"cislo":56001,"kod":27023,"mestskaCast":"praha-zbraslav"},"geometry":{"type":"Polygon","coordinates":[[[14.385812,49.989399],[14.385812,49.989399],[14.385814,49.989398],[14.387452,49.988718],[14.390449,49.987541],[14.393619,49.98628],[14.3986,49.984382],[14.398589,49.984363],[14.39851,49.984216],[14.398313,49.983849],[14.397889,49.982994],[14.397591,49.982116],[14.397411,49.981223],[14.39732,49.980325],[14.397308,49.979426],[14.397361,49.978526],[14.397404,49.977628],[14.397377,49.976726],[14.397329,49.975826],[14.397221,49.974931],[14.397216,49.974928],[14.396906,49.973611],[14.396125,49.973578],[14.39563,49.973462],[14.395495,49.973631],[14.395169,49.973575],[14.395066,49.973203],[14.394573,49.973005],[14.394718,49.972854],[14.393895,49.97249],[14.394036,49.972294],[14.39385,49.972241],[14.39372,49.972193],[14.393356,49.972052],[14.393152,49.971952],[14.393008,49.971903],[14.392713,49.971768],[14.392598,49.971712],[14.391772,49.970967],[14.391279,49.971368],[14.391953,49.9717],[14.391798,49.971832],[14.391702,49.971887],[14.391598,49.971977],[14.391393,49.97195],[14.391127,49.971881],[14.391096,49.971697],[14.391111,49.971689],[14.391239,49.971619],[14.391035,49.971519],[14.389886,49.971298],[14.390047,49.971467],[14.389857,49.971632],[14.390258,49.971794],[14.391333,49.972625],[14.390559,49.974272],[14.389842,49.975715],[14.389731,49.975705],[14.389705,49.975694],[14.38954,49.975679],[14.389498,49.975675],[14.389277,49.975655],[14.389263,49.975654],[14.389113,49.975632],[14.388894,49.975603],[14.388734,49.975562],[14.388562,49.97551],[14.388535,49.975508],[14.388351,49.975446],[14.388177,49.975403],[14.387871,49.975321],[14.387685,49.975269],[14.387646,49.975256],[14.387592,49.975242],[14.38758,49.975232],[14.387569,49.975222],[14.387525,49.975227],[14.387511,49.975226],[14.387348,49.975202],[14.387267,49.975186],[14.387049,49.975149],[14.386749,49.975104],[14.386479,49.975052],[14.386287,49.975026],[14.386179,49.975007],[14.386043,49.974986],[14.379699,49.973786],[14.374061,49.972838],[14.372644,49.974065],[14.371558,49.97356],[14.371332,49.974386],[14.371313,49.974445],[14.371288,49.974493],[14.371248,49.974531],[14.370488,49.975112],[14.370438,49.975179],[14.370005,49.975491],[14.369805,49.975599],[14.3689,49.975996],[14.368865,49.976023],[14.368784,49.976061],[14.368756,49.976075],[14.368083,49.97653],[14.368062,49.976544],[14.367879,49.976668],[14.367652,49.976911],[14.367495,49.977109],[14.367427,49.977219],[14.367263,49.977435],[14.36702,49.977802],[14.366541,49.978168],[14.366388,49.978257],[14.36624,49.978345],[14.36562,49.978682],[14.365335,49.978802],[14.364949,49.97895],[14.364763,49.979021],[14.364571,49.979097],[14.364431,49.979154],[14.364297,49.979213],[14.364179,49.979272],[14.364113,49.979305],[14.363936,49.979397],[14.363807,49.979464],[14.36353,49.979638],[14.363353,49.979759],[14.363338,49.979769],[14.363223,49.979849],[14.363071,49.979954],[14.362552,49.980308],[14.362508,49.980346],[14.36232,49.980918],[14.362523,49.981032],[14.362689,49.981153],[14.362724,49.981166],[14.363272,49.981366],[14.363519,49.981518],[14.364215,49.981684],[14.364543,49.981822],[14.364989,49.981954],[14.36537,49.982047],[14.365645,49.982108],[14.365857,49.982087],[14.366,49.98213],[14.366355,49.982232],[14.367138,49.982424],[14.367408,49.9826],[14.367675,49.982736],[14.367907,49.982894],[14.368441,49.98335],[14.36874,49.983666],[14.368947,49.983981],[14.369143,49.984233],[14.369361,49.984539],[14.369691,49.984716],[14.370362,49.984926],[14.370652,49.98498],[14.371699,49.985113],[14.372239,49.98516],[14.372838,49.985182],[14.373661,49.985162],[14.374663,49.985116],[14.375258,49.985107],[14.375891,49.985036],[14.376148,49.985029],[14.376901,49.984937],[14.377967,49.984761],[14.378302,49.984702],[14.378577,49.984655],[14.378828,49.984621],[14.379058,49.984606],[14.379721,49.984516],[14.379973,49.984414],[14.380034,49.98441],[14.380324,49.984475],[14.380899,49.984567],[14.381145,49.984641],[14.381773,49.984866],[14.382493,49.985186],[14.382932,49.985493],[14.383643,49.986094],[14.383412,49.986149],[14.382285,49.986418],[14.382591,49.98663],[14.382753,49.98672],[14.383381,49.987262],[14.383428,49.987329],[14.384036,49.987885],[14.384447,49.988206],[14.384586,49.988307],[14.384727,49.98841],[14.385279,49.988865],[14.385498,49.989066],[14.38569,49.989269],[14.385693,49.989272],[14.385795,49.989381],[14.385811,49.989398],[14.385812,49.989399]]]}},{"type":"Feature","properties":{"cislo":56002,"kod":27025,"mestskaCast":"praha-zbraslav"},"geometry":{"type":"Polygon","coordinates":[[[14.407287,49.975539],[14.407291,49.975539],[14.407134,49.975476],[14.405989,49.975274],[14.405944,49.975266],[14.405659,49.975216],[14.405638,49.97524],[14.405533,49.975202],[14.405444,49.975132],[14.405454,49.975105],[14.405657,49.974887],[14.405898,49.974591],[14.40588,49.974366],[14.405877,49.974338],[14.405831,49.973788],[14.40583,49.973774],[14.405693,49.972139],[14.403115,49.972653],[14.403036,49.972611],[14.402972,49.972571],[14.402776,49.972517],[14.402756,49.972509],[14.402824,49.972449],[14.403013,49.972286],[14.402649,49.971575],[14.402256,49.971029],[14.402147,49.970877],[14.402476,49.970563],[14.402312,49.970528],[14.40226,49.970517],[14.402173,49.970522],[14.402103,49.970485],[14.402062,49.970465],[14.401957,49.970412],[14.401807,49.97036],[14.401667,49.97033],[14.40159,49.970355],[14.401516,49.970379],[14.401424,49.970465],[14.401356,49.970645],[14.401357,49.970663],[14.401361,49.970723],[14.401422,49.970842],[14.401288,49.970922],[14.401163,49.970795],[14.401106,49.970765],[14.400748,49.970693],[14.400648,49.970669],[14.400513,49.97038],[14.400418,49.970398],[14.400404,49.970324],[14.40036,49.970327],[14.400357,49.970303],[14.400291,49.969819],[14.400212,49.969538],[14.4001,49.969143],[14.400021,49.968618],[14.39996,49.968181],[14.399926,49.967919],[14.399885,49.967832],[14.399778,49.967752],[14.399644,49.967765],[14.39958,49.967772],[14.399409,49.967789],[14.399376,49.967792],[14.399294,49.9678],[14.399244,49.967805],[14.399127,49.967816],[14.398956,49.967053],[14.398937,49.966925],[14.398889,49.966611],[14.398712,49.965926],[14.398615,49.965658],[14.398573,49.965192],[14.398485,49.96468],[14.39839,49.964265],[14.39823,49.963757],[14.398139,49.963081],[14.397733,49.961896],[14.397362,49.961183],[14.397069,49.960798],[14.397029,49.960702],[14.396894,49.960381],[14.396569,49.959889],[14.396349,49.959505],[14.396069,49.959028],[14.396008,49.958916],[14.395857,49.958636],[14.395702,49.958312],[14.395677,49.958273],[14.395524,49.958039],[14.395389,49.957749],[14.395248,49.95749],[14.395159,49.957314],[14.395085,49.957091],[14.395019,49.956839],[14.394953,49.956631],[14.394825,49.956026],[14.39482,49.956001],[14.394771,49.955802],[14.394749,49.955713],[14.394724,49.955435],[14.39472,49.955394],[14.394692,49.955289],[14.39468,49.955244],[14.394658,49.95516],[14.39464,49.955092],[14.394517,49.954543],[14.394445,49.954192],[14.394414,49.954149],[14.394372,49.95409],[14.39433,49.954033],[14.394231,49.953897],[14.394424,49.953831],[14.394422,49.953814],[14.394415,49.953742],[14.394384,49.953424],[14.394377,49.953349],[14.394341,49.953223],[14.39436,49.953035],[14.394364,49.952998],[14.394471,49.952374],[14.394529,49.952109],[14.394544,49.951758],[14.39457,49.951487],[14.394594,49.951218],[14.394616,49.950916],[14.394658,49.950576],[14.394713,49.950189],[14.394821,49.949777],[14.394892,49.949458],[14.394909,49.949372],[14.394914,49.949347],[14.394946,49.94919],[14.395002,49.949],[14.395021,49.948938],[14.395064,49.948806],[14.395175,49.948518],[14.39524,49.948374],[14.395271,49.948304],[14.395299,49.948243],[14.395376,49.948071],[14.39538,49.948062],[14.39544,49.947892],[14.395455,49.947853],[14.395528,49.947707],[14.395662,49.947448],[14.39567,49.947436],[14.395684,49.947417],[14.395693,49.947404],[14.395775,49.947101],[14.395896,49.946851],[14.395944,49.946652],[14.396156,49.94622],[14.396314,49.945887],[14.396504,49.945524],[14.39665,49.945179],[14.396778,49.94486],[14.396834,49.944637],[14.396845,49.944558],[14.396858,49.944468],[14.396866,49.944415],[14.396858,49.944257],[14.396807,49.944005],[14.39679,49.943724],[14.396853,49.943713],[14.396788,49.943448],[14.396706,49.943174],[14.39658,49.942912],[14.39644,49.942665],[14.396384,49.942673],[14.396066,49.942327],[14.395845,49.942115],[14.395563,49.9419],[14.395361,49.941999],[14.39421,49.942559],[14.39391,49.942706],[14.393778,49.94277],[14.393594,49.94286],[14.393486,49.942912],[14.393254,49.942998],[14.393255,49.943004],[14.392313,49.943463],[14.392267,49.943485],[14.391878,49.943674],[14.391665,49.943776],[14.391333,49.943934],[14.39127,49.943949],[14.390846,49.944045],[14.39081,49.944123],[14.390866,49.944238],[14.390844,49.944484],[14.390631,49.944557],[14.390454,49.944595],[14.390446,49.944625],[14.389481,49.945096],[14.389377,49.945075],[14.389051,49.945174],[14.389019,49.945445],[14.388985,49.945737],[14.388984,49.94575],[14.388904,49.945891],[14.389034,49.94662],[14.388987,49.946745],[14.388905,49.946849],[14.388856,49.947062],[14.388717,49.94729],[14.388666,49.947588],[14.388908,49.947958],[14.388944,49.947982],[14.388977,49.948012],[14.388939,49.948031],[14.388937,49.948094],[14.388896,49.948149],[14.388812,49.94834],[14.38798,49.94977],[14.387974,49.949779],[14.387977,49.94978],[14.389125,49.954339],[14.392024,49.965843],[14.392042,49.966289],[14.39209,49.96692],[14.392078,49.967436],[14.391772,49.970967],[14.392598,49.971712],[14.392713,49.971768],[14.393008,49.971903],[14.393152,49.971952],[14.393356,49.972052],[14.39372,49.972193],[14.39385,49.972241],[14.394036,49.972294],[14.393895,49.97249],[14.394718,49.972854],[14.394573,49.973005],[14.395066,49.973203],[14.395169,49.973575],[14.395495,49.973631],[14.39563,49.973462],[14.396125,49.973578],[14.396906,49.973611],[14.397216,49.974928],[14.397221,49.974931],[14.398203,49.975245],[14.39823,49.975253],[14.398248,49.975259],[14.399191,49.97531],[14.399315,49.975317],[14.399384,49.97532],[14.399538,49.975333],[14.399485,49.975501],[14.399487,49.975686],[14.399492,49.975738],[14.399497,49.975792],[14.399511,49.976015],[14.399522,49.976194],[14.399646,49.976199],[14.4006,49.976237],[14.401601,49.976146],[14.40192,49.976233],[14.40248,49.976426],[14.402757,49.976539],[14.403043,49.976697],[14.403167,49.976712],[14.403351,49.976735],[14.403428,49.976745],[14.403469,49.97675],[14.403471,49.976751],[14.404441,49.977081],[14.405446,49.977435],[14.405553,49.977332],[14.405837,49.977504],[14.406634,49.977252],[14.406605,49.977187],[14.406618,49.977083],[14.406835,49.97687],[14.406878,49.976806],[14.406848,49.976714],[14.406693,49.976549],[14.406612,49.976475],[14.406573,49.976402],[14.406531,49.97629],[14.406557,49.976208],[14.406571,49.97612],[14.406681,49.975833],[14.4068,49.975689],[14.407015,49.975597],[14.407287,49.975539]]]}},{"type":"Feature","properties":{"cislo":56003,"kod":27027,"mestskaCast":"praha-zbraslav"},"geometry":{"type":"Polygon","coordinates":[[[14.391772,49.970967],[14.392078,49.967436],[14.39209,49.96692],[14.392042,49.966289],[14.392024,49.965843],[14.389125,49.954339],[14.38796,49.962087],[14.386818,49.962293],[14.385604,49.962113],[14.384677,49.962039],[14.384311,49.962043],[14.384746,49.963035],[14.384982,49.96351],[14.385132,49.963859],[14.38525,49.964096],[14.38539,49.964299],[14.38477,49.964498],[14.386089,49.964779],[14.387141,49.966107],[14.386958,49.966109],[14.386789,49.966112],[14.386591,49.966113],[14.386422,49.966116],[14.386249,49.966137],[14.386071,49.966175],[14.385863,49.966229],[14.385708,49.966297],[14.38555,49.966374],[14.385356,49.966493],[14.385378,49.966522],[14.385572,49.966666],[14.385765,49.96682],[14.385955,49.966982],[14.38604,49.967044],[14.386026,49.967043],[14.386365,49.9673],[14.386425,49.96735],[14.385757,49.967709],[14.386913,49.968619],[14.385931,49.969131],[14.386965,49.969495],[14.386703,49.969799],[14.387201,49.96997],[14.386772,49.970595],[14.387322,49.970852],[14.38778,49.970358],[14.389045,49.970824],[14.388961,49.971016],[14.389667,49.970943],[14.389715,49.971047],[14.389765,49.971142],[14.389886,49.971298],[14.391035,49.971519],[14.391239,49.971619],[14.391111,49.971689],[14.391096,49.971697],[14.391127,49.971881],[14.391393,49.97195],[14.391598,49.971977],[14.391702,49.971887],[14.391798,49.971832],[14.391953,49.9717],[14.391279,49.971368],[14.391772,49.970967]]]}},{"type":"Feature","properties":{"cislo":56004,"kod":27029,"mestskaCast":"praha-zbraslav"},"geometry":{"type":"Polygon","coordinates":[[[14.389886,49.971298],[14.389765,49.971142],[14.389715,49.971047],[14.389667,49.970943],[14.388961,49.971016],[14.389045,49.970824],[14.38778,49.970358],[14.387322,49.970852],[14.386772,49.970595],[14.387201,49.96997],[14.386703,49.969799],[14.386965,49.969495],[14.385931,49.969131],[14.386913,49.968619],[14.385757,49.967709],[14.384394,49.968422],[14.384267,49.968556],[14.383426,49.969725],[14.381261,49.969187],[14.381088,49.969471],[14.380327,49.969276],[14.379929,49.969032],[14.379584,49.969201],[14.379459,49.969389],[14.378635,49.969162],[14.378449,49.969109],[14.374048,49.972837],[14.374061,49.972838],[14.379699,49.973786],[14.386043,49.974986],[14.386179,49.975007],[14.386287,49.975026],[14.386479,49.975052],[14.386749,49.975104],[14.387049,49.975149],[14.387267,49.975186],[14.387348,49.975202],[14.387511,49.975226],[14.387525,49.975227],[14.387569,49.975222],[14.38758,49.975232],[14.387592,49.975242],[14.387646,49.975256],[14.387685,49.975269],[14.387871,49.975321],[14.388177,49.975403],[14.388351,49.975446],[14.388535,49.975508],[14.388562,49.97551],[14.388734,49.975562],[14.388894,49.975603],[14.389113,49.975632],[14.389263,49.975654],[14.389277,49.975655],[14.389498,49.975675],[14.38954,49.975679],[14.389705,49.975694],[14.389731,49.975705],[14.389842,49.975715],[14.390559,49.974272],[14.391333,49.972625],[14.390258,49.971794],[14.389857,49.971632],[14.390047,49.971467],[14.389886,49.971298]]]}},{"type":"Feature","properties":{"cislo":56005,"kod":27031,"mestskaCast":"praha-zbraslav"},"geometry":{"type":"Polygon","coordinates":[[[14.374061,49.972838],[14.374048,49.972837],[14.378449,49.969109],[14.378635,49.969162],[14.379459,49.969389],[14.379584,49.969201],[14.379929,49.969032],[14.380327,49.969276],[14.381088,49.969471],[14.381261,49.969187],[14.383426,49.969725],[14.384267,49.968556],[14.384394,49.968422],[14.385757,49.967709],[14.386425,49.96735],[14.386365,49.9673],[14.386026,49.967043],[14.385995,49.967058],[14.385437,49.967362],[14.38578,49.967602],[14.385383,49.967811],[14.384353,49.967366],[14.384011,49.967253],[14.382689,49.966791],[14.382822,49.96663],[14.38292,49.966503],[14.383023,49.966412],[14.383141,49.966323],[14.383585,49.96609],[14.382641,49.965371],[14.38212,49.965569],[14.381944,49.965998],[14.381767,49.9663],[14.381348,49.966154],[14.380953,49.966618],[14.379487,49.966106],[14.379351,49.966738],[14.376816,49.965369],[14.375678,49.964768],[14.374237,49.96414],[14.373369,49.963791],[14.373368,49.963789],[14.373357,49.963792],[14.373356,49.963793],[14.373156,49.963849],[14.372837,49.963939],[14.372532,49.964025],[14.371927,49.964196],[14.371875,49.964214],[14.371391,49.964378],[14.371322,49.964402],[14.371258,49.96441],[14.370964,49.964449],[14.370692,49.964486],[14.370288,49.964507],[14.370143,49.964578],[14.369987,49.964655],[14.369977,49.964689],[14.369958,49.964753],[14.369975,49.964795],[14.370055,49.965004],[14.37004,49.965027],[14.369918,49.96521],[14.369932,49.965571],[14.369801,49.965699],[14.369742,49.965757],[14.369642,49.965856],[14.369669,49.965879],[14.369867,49.966038],[14.369851,49.966056],[14.369808,49.966102],[14.369792,49.966119],[14.369771,49.966146],[14.369761,49.966157],[14.369765,49.966159],[14.370133,49.966328],[14.370263,49.966387],[14.370357,49.966431],[14.370396,49.966457],[14.370409,49.966467],[14.370434,49.966485],[14.370501,49.966545],[14.370522,49.966578],[14.370523,49.966617],[14.370499,49.966645],[14.370413,49.966733],[14.370382,49.966766],[14.37053,49.96679],[14.371137,49.96695],[14.371256,49.967009],[14.371311,49.967068],[14.37132,49.967116],[14.37132,49.967178],[14.371294,49.967245],[14.371189,49.967514],[14.370744,49.968747],[14.37074,49.968987],[14.370771,49.969263],[14.370799,49.969431],[14.370816,49.969532],[14.37087,49.96978],[14.370971,49.970009],[14.37152,49.970998],[14.371523,49.971021],[14.371561,49.971117],[14.371866,49.971716],[14.371998,49.971918],[14.372026,49.971953],[14.372102,49.971991],[14.372214,49.97206],[14.372257,49.972085],[14.372276,49.972093],[14.372275,49.972098],[14.372264,49.972127],[14.372166,49.972401],[14.372008,49.97274],[14.37173,49.973076],[14.37156,49.973551],[14.371558,49.97356],[14.372644,49.974065],[14.374061,49.972838]]]}},{"type":"Feature","properties":{"cislo":56006,"kod":27033,"mestskaCast":"praha-zbraslav"},"geometry":{"type":"Polygon","coordinates":[[[14.38212,49.965569],[14.382641,49.965371],[14.383585,49.96609],[14.383141,49.966323],[14.383023,49.966412],[14.38292,49.966503],[14.382822,49.96663],[14.382689,49.966791],[14.384011,49.967253],[14.384353,49.967366],[14.385383,49.967811],[14.38578,49.967602],[14.385437,49.967362],[14.385995,49.967058],[14.386026,49.967043],[14.38604,49.967044],[14.385955,49.966982],[14.385765,49.96682],[14.385572,49.966666],[14.385378,49.966522],[14.385356,49.966493],[14.3852,49.96637],[14.38496,49.966176],[14.38473,49.966001],[14.384395,49.965726],[14.384163,49.965561],[14.383947,49.965387],[14.383911,49.965357],[14.383671,49.965163],[14.383419,49.964959],[14.383421,49.96495],[14.383346,49.964907],[14.383251,49.964826],[14.383239,49.964816],[14.383098,49.964685],[14.38304,49.964625],[14.382917,49.964478],[14.38277,49.964311],[14.382684,49.964185],[14.382642,49.964118],[14.382552,49.963947],[14.382429,49.963736],[14.382325,49.963563],[14.382297,49.963497],[14.382153,49.963248],[14.381999,49.962981],[14.381726,49.962548],[14.381354,49.962578],[14.380995,49.96261],[14.380548,49.962597],[14.380289,49.962556],[14.378829,49.96228],[14.377783,49.962169],[14.377783,49.962169],[14.377783,49.962169],[14.377709,49.962276],[14.377673,49.962332],[14.377366,49.962803],[14.377228,49.963033],[14.377169,49.963132],[14.377167,49.963136],[14.377166,49.963137],[14.377101,49.963303],[14.377103,49.963307],[14.38089,49.965006],[14.381202,49.96526],[14.381772,49.96542],[14.38212,49.965569]]]}},{"type":"Feature","properties":{"cislo":56007,"kod":27035,"mestskaCast":"praha-zbraslav"},"geometry":{"type":"Polygon","coordinates":[[[14.373368,49.963789],[14.373369,49.963791],[14.374237,49.96414],[14.375678,49.964768],[14.376816,49.965369],[14.379351,49.966738],[14.379487,49.966106],[14.380953,49.966618],[14.381348,49.966154],[14.381767,49.9663],[14.381944,49.965998],[14.38212,49.965569],[14.381772,49.96542],[14.381202,49.96526],[14.38089,49.965006],[14.377103,49.963307],[14.377101,49.963303],[14.376969,49.963292],[14.376965,49.963291],[14.376944,49.963289],[14.376896,49.963285],[14.376486,49.96325],[14.376473,49.963249],[14.376143,49.963221],[14.375513,49.963167],[14.375495,49.963173],[14.375215,49.963255],[14.375126,49.963281],[14.374998,49.96332],[14.374779,49.963384],[14.374601,49.963437],[14.374563,49.963448],[14.374487,49.963471],[14.374449,49.963482],[14.374414,49.963492],[14.374345,49.963513],[14.373368,49.963789]]]}},{"type":"Feature","properties":{"cislo":56008,"kod":27037,"mestskaCast":"praha-zbraslav"},"geometry":{"type":"Polygon","coordinates":[[[14.38477,49.964498],[14.38539,49.964299],[14.38525,49.964096],[14.385132,49.963859],[14.384982,49.96351],[14.384746,49.963035],[14.384311,49.962043],[14.384677,49.962039],[14.385604,49.962113],[14.386818,49.962293],[14.38796,49.962087],[14.389125,49.954339],[14.387977,49.94978],[14.387974,49.949779],[14.387972,49.949783],[14.387848,49.949755],[14.387783,49.949824],[14.387653,49.949816],[14.387516,49.949807],[14.387329,49.949801],[14.387166,49.949796],[14.386819,49.949671],[14.386662,49.949636],[14.386449,49.949612],[14.386284,49.9496],[14.38598,49.949579],[14.385503,49.949403],[14.385469,49.949352],[14.385397,49.949242],[14.382319,49.949199],[14.379823,49.949195],[14.379759,49.949214],[14.379564,49.949081],[14.379179,49.948873],[14.379008,49.94876],[14.37878,49.948644],[14.378467,49.948401],[14.378194,49.948024],[14.378017,49.947803],[14.37779,49.947542],[14.37703,49.946665],[14.376813,49.94662],[14.375847,49.947105],[14.37541,49.94734],[14.375083,49.947494],[14.37507,49.947443],[14.375068,49.947435],[14.375057,49.947427],[14.375043,49.947417],[14.374131,49.946765],[14.373926,49.946844],[14.373844,49.946876],[14.373773,49.946903],[14.373209,49.947122],[14.373271,49.947201],[14.373371,49.94735],[14.373399,49.947389],[14.373438,49.947443],[14.373458,49.94747],[14.373509,49.947543],[14.3736,49.947676],[14.373661,49.947796],[14.373693,49.947894],[14.373731,49.948008],[14.373765,49.948122],[14.37379,49.948206],[14.373863,49.948474],[14.373925,49.948698],[14.373942,49.948737],[14.374018,49.948979],[14.374035,49.94907],[14.374052,49.949166],[14.374108,49.94941],[14.374126,49.949497],[14.374157,49.949638],[14.37422,49.949832],[14.374199,49.950107],[14.37418,49.950362],[14.374176,49.950406],[14.374118,49.950646],[14.374119,49.950674],[14.374123,49.950858],[14.374088,49.950908],[14.374068,49.950938],[14.374,49.951025],[14.373983,49.951047],[14.373812,49.951107],[14.373806,49.951109],[14.373771,49.951121],[14.373698,49.951171],[14.373632,49.95137],[14.373736,49.951427],[14.373709,49.951509],[14.373811,49.951555],[14.373901,49.951559],[14.373926,49.95156],[14.373976,49.9516],[14.374203,49.95178],[14.374357,49.951865],[14.374479,49.951915],[14.37461,49.951968],[14.37474,49.952107],[14.374743,49.95211],[14.374769,49.952138],[14.374863,49.952232],[14.374995,49.952308],[14.374961,49.952554],[14.374944,49.952672],[14.374932,49.952761],[14.37489,49.953012],[14.374865,49.953223],[14.374864,49.953239],[14.37485,49.953399],[14.374819,49.953464],[14.37473,49.953618],[14.374687,49.953693],[14.374701,49.953748],[14.374713,49.953796],[14.374738,49.95388],[14.374692,49.9539],[14.374515,49.95411],[14.37455,49.954124],[14.374858,49.954251],[14.375076,49.954337],[14.375441,49.954492],[14.375764,49.954621],[14.375965,49.954709],[14.376128,49.954781],[14.376369,49.954905],[14.376762,49.955096],[14.37704,49.955244],[14.377218,49.955341],[14.377284,49.955414],[14.377409,49.955513],[14.377626,49.955646],[14.377696,49.955677],[14.377819,49.955682],[14.378098,49.955819],[14.378144,49.955838],[14.378372,49.955956],[14.378051,49.95627],[14.378481,49.956421],[14.379021,49.956609],[14.379035,49.956672],[14.379084,49.956831],[14.379139,49.957003],[14.379174,49.957134],[14.379243,49.957383],[14.379283,49.957586],[14.379312,49.957738],[14.37934,49.957901],[14.379363,49.958069],[14.379391,49.958258],[14.379393,49.95841],[14.379384,49.958573],[14.379381,49.958772],[14.37936,49.958956],[14.379331,49.959145],[14.379268,49.959336],[14.379195,49.959548],[14.37911,49.959772],[14.379004,49.960081],[14.378968,49.960174],[14.378877,49.960409],[14.378715,49.960687],[14.378631,49.960836],[14.378579,49.96093],[14.378573,49.960941],[14.378339,49.961312],[14.378307,49.961363],[14.378041,49.961798],[14.378028,49.961817],[14.377836,49.962093],[14.377783,49.962169],[14.377783,49.962169],[14.377783,49.962169],[14.378829,49.96228],[14.380289,49.962556],[14.380548,49.962597],[14.380995,49.96261],[14.381354,49.962578],[14.381726,49.962548],[14.381999,49.962981],[14.382153,49.963248],[14.382297,49.963497],[14.382325,49.963563],[14.382429,49.963736],[14.382552,49.963947],[14.382642,49.964118],[14.382684,49.964185],[14.38277,49.964311],[14.382917,49.964478],[14.38304,49.964625],[14.383098,49.964685],[14.383239,49.964816],[14.383251,49.964826],[14.383346,49.964907],[14.383421,49.96495],[14.383419,49.964959],[14.383761,49.964808],[14.38477,49.964498]]]}},{"type":"Feature","properties":{"cislo":56009,"kod":27039,"mestskaCast":"praha-zbraslav"},"geometry":{"type":"Polygon","coordinates":[[[14.383419,49.964959],[14.383671,49.965163],[14.383911,49.965357],[14.383947,49.965387],[14.384163,49.965561],[14.384395,49.965726],[14.38473,49.966001],[14.38496,49.966176],[14.3852,49.96637],[14.385356,49.966493],[14.38555,49.966374],[14.385708,49.966297],[14.385863,49.966229],[14.386071,49.966175],[14.386249,49.966137],[14.386422,49.966116],[14.386591,49.966113],[14.386789,49.966112],[14.386958,49.966109],[14.387141,49.966107],[14.386089,49.964779],[14.38477,49.964498],[14.383761,49.964808],[14.383419,49.964959]]]}},{"type":"Feature","properties":{"cislo":56010,"kod":27041,"mestskaCast":"praha-zbraslav"},"geometry":{"type":"Polygon","coordinates":[[[14.398367,50.008893],[14.39866,50.008414],[14.398775,50.008226],[14.398801,50.008183],[14.399289,50.007457],[14.399565,50.007015],[14.400345,50.005764],[14.400804,50.005056],[14.401403,50.004128],[14.401792,50.003363],[14.401794,50.00336],[14.402032,50.002515],[14.402134,50.001276],[14.402186,50.000637],[14.402296,49.99929],[14.402397,49.998539],[14.402411,49.998536],[14.402763,49.998483],[14.402769,49.998482],[14.402598,49.997666],[14.402182,49.996604],[14.402064,49.996344],[14.401469,49.995036],[14.400981,49.993864],[14.400623,49.992751],[14.400474,49.991843],[14.400416,49.991502],[14.400393,49.990255],[14.399869,49.990002],[14.399891,49.989103],[14.399909,49.988202],[14.399825,49.987307],[14.399578,49.986421],[14.39922,49.985557],[14.399218,49.985553],[14.398771,49.984701],[14.398666,49.984506],[14.398603,49.984387],[14.3986,49.984382],[14.393619,49.98628],[14.390449,49.987541],[14.387452,49.988718],[14.385814,49.989398],[14.385812,49.989399],[14.385812,49.989399],[14.385828,49.989416],[14.385906,49.989496],[14.385908,49.989498],[14.385916,49.989506],[14.385919,49.989509],[14.38689,49.9905],[14.387015,49.990632],[14.387045,49.990663],[14.387081,49.990701],[14.387103,49.990725],[14.387132,49.990755],[14.387303,49.990936],[14.387376,49.991014],[14.387383,49.99102],[14.387798,49.991388],[14.388044,49.991603],[14.388276,49.991783],[14.388435,49.991864],[14.388743,49.99207],[14.389038,49.992217],[14.389457,49.992376],[14.389811,49.992478],[14.390069,49.992544],[14.390113,49.992554],[14.390681,49.992688],[14.390938,49.992749],[14.391551,49.992843],[14.391987,49.992879],[14.392262,49.992901],[14.39247,49.992927],[14.392637,49.993023],[14.392712,49.993222],[14.392685,49.993506],[14.392685,49.993509],[14.392683,49.99353],[14.39268,49.993569],[14.392684,49.993615],[14.392685,49.993618],[14.392686,49.993627],[14.392697,49.993735],[14.392754,49.993898],[14.392774,49.993953],[14.39279,49.993998],[14.392595,49.99394],[14.392579,49.993978],[14.39256,49.994021],[14.392541,49.994067],[14.392501,49.994161],[14.392499,49.994164],[14.392809,49.994285],[14.39302,49.994347],[14.393393,49.994442],[14.393546,49.994492],[14.394017,49.994689],[14.39406,49.994707],[14.394142,49.994739],[14.394164,49.994747],[14.394203,49.994763],[14.394474,49.994872],[14.394066,49.995628],[14.394061,49.995627],[14.392345,49.995395],[14.392315,49.995391],[14.392229,49.995379],[14.390678,49.996284],[14.389126,49.997189],[14.388392,49.997617],[14.386386,49.998787],[14.386359,49.998799],[14.387359,49.999857],[14.388269,50.000809],[14.389513,50.002136],[14.389515,50.002139],[14.389575,50.002205],[14.389618,50.002194],[14.390772,50.001904],[14.391169,50.001829],[14.391187,50.001826],[14.391204,50.001825],[14.391189,50.002205],[14.39121,50.002206],[14.393302,50.00223],[14.394985,50.00225],[14.395001,50.002251],[14.39509,50.002252],[14.395112,50.002252],[14.395188,50.002253],[14.395264,50.002256],[14.395275,50.002257],[14.395407,50.002263],[14.39542,50.002263],[14.395462,50.002265],[14.395522,50.002263],[14.39559,50.00226],[14.39569,50.002255],[14.396017,50.002241],[14.39637,50.002225],[14.396393,50.002236],[14.39612,50.002705],[14.39614,50.002711],[14.396396,50.00282],[14.396614,50.002931],[14.396675,50.00295],[14.396669,50.002958],[14.396697,50.002973],[14.396868,50.003039],[14.396883,50.003045],[14.396992,50.003087],[14.397115,50.003135],[14.39766,50.003346],[14.397829,50.003411],[14.397325,50.003826],[14.397076,50.004032],[14.397059,50.004028],[14.396695,50.003872],[14.396605,50.00387],[14.396551,50.003868],[14.396522,50.003867],[14.396289,50.00386],[14.396258,50.00386],[14.396145,50.003857],[14.395967,50.003852],[14.395806,50.003966],[14.395729,50.004033],[14.395668,50.004096],[14.395631,50.004144],[14.395592,50.004219],[14.395573,50.00429],[14.395573,50.004345],[14.395573,50.004361],[14.395593,50.004423],[14.395617,50.004483],[14.39562,50.004489],[14.395673,50.004559],[14.395724,50.004615],[14.395758,50.004644],[14.395788,50.004664],[14.395856,50.004701],[14.395896,50.004714],[14.395929,50.004723],[14.395943,50.004729],[14.396043,50.004745],[14.396129,50.004756],[14.396119,50.004833],[14.396101,50.004956],[14.396084,50.005101],[14.396058,50.005305],[14.396022,50.005585],[14.396016,50.005623],[14.395998,50.005771],[14.395978,50.005935],[14.395967,50.00604],[14.39603,50.006042],[14.396786,50.006068],[14.396803,50.006069],[14.397592,50.006102],[14.398113,50.006115],[14.398188,50.006118],[14.398635,50.006147],[14.398633,50.006149],[14.39847,50.006385],[14.398443,50.006422],[14.398288,50.00659],[14.398254,50.006626],[14.397909,50.006999],[14.397018,50.007958],[14.396961,50.008021],[14.397092,50.008025],[14.39714,50.008026],[14.396974,50.008286],[14.396959,50.00831],[14.39695,50.008324],[14.396815,50.008559],[14.396897,50.008577],[14.397019,50.008603],[14.397379,50.008681],[14.397442,50.008694],[14.397516,50.00871],[14.39774,50.008758],[14.397778,50.008766],[14.397807,50.008773],[14.397871,50.008787],[14.398367,50.008893]]]}}]}
