{"type":"FeatureCollection","features":[{"type":"Feature","properties":{"cislo":2001,"kod":26431,"mestskaCast":"praha-2"},"geometry":{"type":"Polygon","coordinates":[[[14.432111,50.077098],[14.432598,50.076996],[14.433476,50.076584],[14.434835,50.075969],[14.434915,50.075921],[14.434978,50.075891],[14.435024,50.075877],[14.435055,50.075861],[14.435068,50.075799],[14.435085,50.075719],[14.435192,50.075419],[14.433358,50.075421],[14.432271,50.075424],[14.431989,50.075427],[14.430235,50.075453],[14.430221,50.075452],[14.430252,50.0757],[14.430278,50.075974],[14.430437,50.077014],[14.430449,50.077087],[14.430444,50.077088],[14.430457,50.07718],[14.430513,50.077555],[14.430521,50.077615],[14.43064,50.077621],[14.430703,50.077625],[14.430835,50.077634],[14.431396,50.077668],[14.431552,50.077678],[14.431446,50.07825],[14.431442,50.078272],[14.431483,50.078334],[14.431535,50.078411],[14.431807,50.078324],[14.432065,50.078238],[14.432019,50.078188],[14.431976,50.07813],[14.432021,50.078116],[14.431987,50.078077],[14.431977,50.078058],[14.43208,50.07784],[14.432106,50.077715],[14.432104,50.07766],[14.432126,50.07749],[14.43213,50.077472],[14.432143,50.07741],[14.432147,50.077392],[14.432139,50.077364],[14.432167,50.077366],[14.432169,50.077357],[14.432141,50.077355],[14.432143,50.077346],[14.432131,50.077336],[14.432126,50.077227],[14.432122,50.077181],[14.432111,50.077098]]]}},{"type":"Feature","properties":{"cislo":2002,"kod":26433,"mestskaCast":"praha-2"},"geometry":{"type":"Polygon","coordinates":[[[14.43038,50.073714],[14.430199,50.075159],[14.430221,50.075452],[14.430235,50.075453],[14.431989,50.075427],[14.432271,50.075424],[14.432421,50.075056],[14.432569,50.075088],[14.432597,50.07509],[14.432652,50.075095],[14.432747,50.075112],[14.432842,50.07513],[14.432882,50.075143],[14.432897,50.075135],[14.432911,50.075136],[14.43294,50.075066],[14.432967,50.075005],[14.432805,50.074972],[14.43283,50.07492],[14.432995,50.074944],[14.433041,50.074857],[14.433103,50.074699],[14.432941,50.074667],[14.432954,50.074604],[14.432968,50.074606],[14.432976,50.07457],[14.433003,50.074509],[14.433017,50.07451],[14.433181,50.074534],[14.433221,50.07441],[14.433138,50.074403],[14.433043,50.074385],[14.432867,50.074352],[14.432731,50.074331],[14.432839,50.074086],[14.432932,50.073849],[14.433069,50.07387],[14.433233,50.073894],[14.433261,50.073896],[14.433316,50.073901],[14.433385,50.073907],[14.433412,50.073846],[14.433416,50.073828],[14.433424,50.073793],[14.433438,50.073794],[14.43349,50.073681],[14.433528,50.073566],[14.433584,50.073571],[14.433611,50.07351],[14.433627,50.073502],[14.433638,50.073449],[14.433663,50.073397],[14.433669,50.073306],[14.43369,50.073272],[14.433692,50.073263],[14.43377,50.073097],[14.433675,50.07308],[14.433605,50.073074],[14.433609,50.073056],[14.433634,50.073004],[14.433642,50.072968],[14.433662,50.072943],[14.433691,50.072873],[14.433693,50.072864],[14.433704,50.07281],[14.433749,50.072733],[14.433756,50.072697],[14.433789,50.072609],[14.433809,50.072584],[14.433823,50.072585],[14.433825,50.072576],[14.433838,50.072577],[14.43384,50.072568],[14.433848,50.072533],[14.433869,50.072498],[14.433842,50.072496],[14.433774,50.072481],[14.433638,50.07246],[14.433488,50.072437],[14.433611,50.072121],[14.432299,50.07206],[14.432244,50.072055],[14.432209,50.072152],[14.432149,50.072301],[14.431965,50.072765],[14.431863,50.073047],[14.431559,50.073809],[14.431528,50.073888],[14.430545,50.073738],[14.43038,50.073714]]]}},{"type":"Feature","properties":{"cislo":2003,"kod":26435,"mestskaCast":"praha-2"},"geometry":{"type":"Polygon","coordinates":[[[14.432811,50.0792],[14.432834,50.079195],[14.433061,50.079124],[14.433644,50.078967],[14.435081,50.078577],[14.435999,50.078177],[14.436263,50.078064],[14.435585,50.077079],[14.434835,50.075969],[14.433476,50.076584],[14.432598,50.076996],[14.432111,50.077098],[14.432122,50.077181],[14.432126,50.077227],[14.432131,50.077336],[14.432143,50.077346],[14.432141,50.077355],[14.432169,50.077357],[14.432167,50.077366],[14.432139,50.077364],[14.432147,50.077392],[14.432143,50.07741],[14.43213,50.077472],[14.432126,50.07749],[14.432104,50.07766],[14.432106,50.077715],[14.43208,50.07784],[14.431977,50.078058],[14.431987,50.078077],[14.432021,50.078116],[14.431976,50.07813],[14.432019,50.078188],[14.432065,50.078238],[14.431807,50.078324],[14.431535,50.078411],[14.431517,50.078418],[14.431517,50.078418],[14.431554,50.07844],[14.432761,50.079118],[14.432811,50.0792]]]}},{"type":"Feature","properties":{"cislo":2004,"kod":26437,"mestskaCast":"praha-2"},"geometry":{"type":"Polygon","coordinates":[[[14.437192,50.086587],[14.437196,50.086591],[14.437215,50.086584],[14.437232,50.086579],[14.437332,50.086546],[14.437357,50.086537],[14.437457,50.086504],[14.437474,50.086498],[14.438057,50.086305],[14.438345,50.086205],[14.43907,50.085954],[14.439255,50.08589],[14.439259,50.085888],[14.43965,50.085701],[14.439953,50.085556],[14.440651,50.085223],[14.440742,50.085181],[14.440788,50.085158],[14.44077,50.085116],[14.440752,50.08508],[14.4399,50.083218],[14.439533,50.082017],[14.439534,50.082016],[14.439534,50.082016],[14.439484,50.081934],[14.439281,50.081698],[14.438838,50.081196],[14.438079,50.080258],[14.438025,50.080181],[14.437878,50.080013],[14.437295,50.079308],[14.436083,50.079742],[14.435578,50.079196],[14.436816,50.078747],[14.438135,50.078342],[14.437801,50.077729],[14.43746,50.077807],[14.436263,50.078064],[14.435999,50.078177],[14.435081,50.078577],[14.433644,50.078967],[14.433061,50.079124],[14.432834,50.079195],[14.432811,50.0792],[14.433537,50.080384],[14.433633,50.080583],[14.433541,50.080618],[14.433506,50.080629],[14.433476,50.080623],[14.433365,50.080603],[14.433335,50.080606],[14.433309,50.08062],[14.432774,50.081011],[14.433275,50.081304],[14.433835,50.081901],[14.433884,50.081955],[14.434073,50.082158],[14.434324,50.082421],[14.434524,50.082691],[14.435413,50.083863],[14.435686,50.084223],[14.435965,50.084757],[14.436018,50.084857],[14.436213,50.08523],[14.436245,50.085291],[14.436269,50.085336],[14.436287,50.085372],[14.436466,50.085712],[14.43647,50.085721],[14.436626,50.085911],[14.437122,50.086504],[14.437192,50.086587]]]}},{"type":"Feature","properties":{"cislo":2005,"kod":26439,"mestskaCast":"praha-2"},"geometry":{"type":"Polygon","coordinates":[[[14.437801,50.077729],[14.438135,50.078342],[14.436816,50.078747],[14.435578,50.079196],[14.436083,50.079742],[14.437295,50.079308],[14.437427,50.079284],[14.437443,50.079276],[14.43841,50.078971],[14.438487,50.078942],[14.438672,50.078867],[14.439213,50.078779],[14.43943,50.078753],[14.439852,50.07869],[14.440924,50.078558],[14.441127,50.078531],[14.441953,50.078431],[14.442126,50.07841],[14.442026,50.077757],[14.441069,50.077881],[14.439606,50.078061],[14.43937,50.07745],[14.438565,50.077587],[14.437801,50.077729]]]}},{"type":"Feature","properties":{"cislo":2006,"kod":26441,"mestskaCast":"praha-2"},"geometry":{"type":"Polygon","coordinates":[[[14.445572,50.081185],[14.447381,50.07997],[14.447521,50.079802],[14.447521,50.079802],[14.447396,50.079756],[14.447186,50.079683],[14.446416,50.079588],[14.446402,50.079587],[14.446197,50.07956],[14.445927,50.079499],[14.445724,50.079463],[14.44571,50.079462],[14.445071,50.079351],[14.445057,50.07935],[14.444837,50.079321],[14.444756,50.079305],[14.444638,50.079594],[14.443913,50.081472],[14.443909,50.08149],[14.443909,50.081491],[14.444101,50.081484],[14.444837,50.0813],[14.445383,50.081215],[14.445572,50.081185]]]}},{"type":"Feature","properties":{"cislo":2007,"kod":26443,"mestskaCast":"praha-2"},"geometry":{"type":"Polygon","coordinates":[[[14.447999,50.079228],[14.448188,50.079],[14.448188,50.078998],[14.448502,50.078275],[14.44846,50.078237],[14.448078,50.078171],[14.447099,50.07812],[14.447097,50.078141],[14.446485,50.078108],[14.446455,50.078373],[14.445967,50.078345],[14.445932,50.078589],[14.445048,50.078532],[14.444756,50.079305],[14.444837,50.079321],[14.445057,50.07935],[14.445071,50.079351],[14.44571,50.079462],[14.445724,50.079463],[14.445927,50.079499],[14.446197,50.07956],[14.446402,50.079587],[14.446416,50.079588],[14.447186,50.079683],[14.447396,50.079756],[14.447521,50.079802],[14.447521,50.079802],[14.447999,50.079228]]]}},{"type":"Feature","properties":{"cislo":2008,"kod":26445,"mestskaCast":"praha-2"},"geometry":{"type":"Polygon","coordinates":[[[14.445048,50.078532],[14.445932,50.078589],[14.445967,50.078345],[14.446455,50.078373],[14.446485,50.078108],[14.447097,50.078141],[14.447099,50.07812],[14.448078,50.078171],[14.44846,50.078237],[14.448502,50.078275],[14.448654,50.077925],[14.44899,50.077156],[14.446124,50.077057],[14.444875,50.077029],[14.44487,50.077119],[14.444865,50.077273],[14.444854,50.07739],[14.444799,50.077385],[14.444784,50.077456],[14.44479,50.077493],[14.444772,50.077646],[14.444985,50.077837],[14.444968,50.077981],[14.444966,50.07799],[14.444929,50.078295],[14.444913,50.078439],[14.444896,50.078519],[14.445048,50.078532]]]}},{"type":"Feature","properties":{"cislo":2009,"kod":26447,"mestskaCast":"praha-2"},"geometry":{"type":"Polygon","coordinates":[[[14.443907,50.077007],[14.443912,50.076254],[14.443997,50.076252],[14.44425,50.076257],[14.444335,50.076255],[14.444338,50.076174],[14.444335,50.076055],[14.444339,50.076037],[14.444337,50.075584],[14.444339,50.075575],[14.444338,50.075447],[14.444345,50.075348],[14.444035,50.075348],[14.443922,50.075347],[14.442007,50.075332],[14.442023,50.074399],[14.440569,50.074407],[14.440554,50.075317],[14.440097,50.075322],[14.440092,50.07576],[14.439973,50.076152],[14.440258,50.076194],[14.440521,50.076217],[14.440536,50.076083],[14.440537,50.075947],[14.440665,50.07594],[14.440861,50.075948],[14.441564,50.075956],[14.441567,50.07601],[14.441581,50.076012],[14.441564,50.076155],[14.441563,50.076228],[14.441984,50.076238],[14.441951,50.077052],[14.442666,50.077006],[14.443907,50.077007]]]}},{"type":"Feature","properties":{"cislo":2010,"kod":26449,"mestskaCast":"praha-2"},"geometry":{"type":"Polygon","coordinates":[[[14.443922,50.075347],[14.443936,50.074423],[14.443946,50.073516],[14.44351,50.073514],[14.443518,50.073605],[14.443505,50.073731],[14.443516,50.073814],[14.443415,50.073823],[14.443303,50.073822],[14.443091,50.073822],[14.442981,50.073812],[14.44236,50.073812],[14.442346,50.07381],[14.442163,50.073812],[14.442022,50.073809],[14.44203,50.07351],[14.442494,50.073515],[14.442499,50.073425],[14.442498,50.073297],[14.442492,50.073261],[14.443156,50.073256],[14.443594,50.073249],[14.443622,50.073251],[14.443819,50.073251],[14.443946,50.073253],[14.443948,50.073244],[14.443953,50.073154],[14.443948,50.072781],[14.443951,50.072636],[14.443952,50.072631],[14.443947,50.072631],[14.443114,50.072625],[14.442991,50.072562],[14.442991,50.072562],[14.442042,50.072921],[14.441694,50.073036],[14.440562,50.073516],[14.440377,50.073591],[14.440482,50.073691],[14.440526,50.073749],[14.440554,50.073815],[14.440563,50.073907],[14.440572,50.074262],[14.440569,50.074407],[14.442023,50.074399],[14.442007,50.075332],[14.443922,50.075347]]]}},{"type":"Feature","properties":{"cislo":2011,"kod":26451,"mestskaCast":"praha-2"},"geometry":{"type":"Polygon","coordinates":[[[14.439973,50.076152],[14.440092,50.07576],[14.440097,50.075322],[14.440554,50.075317],[14.440569,50.074407],[14.440572,50.074262],[14.440563,50.073907],[14.440554,50.073815],[14.440526,50.073749],[14.440482,50.073691],[14.440377,50.073591],[14.440132,50.073415],[14.43984,50.073199],[14.439377,50.072858],[14.439218,50.072744],[14.43877,50.072596],[14.438415,50.072474],[14.438259,50.072414],[14.438182,50.072507],[14.438089,50.072617],[14.438008,50.072728],[14.437817,50.072965],[14.437547,50.073304],[14.437626,50.07333],[14.437783,50.073389],[14.437927,50.073438],[14.437869,50.073514],[14.437867,50.073523],[14.437775,50.073624],[14.437732,50.073693],[14.438049,50.073793],[14.438207,50.073844],[14.438255,50.073884],[14.438363,50.073839],[14.438487,50.073787],[14.438503,50.073779],[14.43858,50.07375],[14.438616,50.07378],[14.438664,50.073821],[14.438698,50.07386],[14.438743,50.073909],[14.438768,50.073993],[14.438827,50.074044],[14.438812,50.074052],[14.438858,50.074101],[14.438947,50.074209],[14.439061,50.074337],[14.439062,50.074464],[14.439072,50.075145],[14.439077,50.075318],[14.439036,50.075315],[14.438909,50.075313],[14.438174,50.07532],[14.437835,50.075326],[14.437785,50.075494],[14.437685,50.075831],[14.437698,50.075832],[14.437916,50.075869],[14.438808,50.075984],[14.439042,50.076014],[14.439973,50.076152]]]}},{"type":"Feature","properties":{"cislo":2012,"kod":26453,"mestskaCast":"praha-2"},"geometry":{"type":"Polygon","coordinates":[[[14.437295,50.079308],[14.437878,50.080013],[14.438025,50.080181],[14.438079,50.080258],[14.438838,50.081196],[14.439281,50.081698],[14.439484,50.081934],[14.439534,50.082016],[14.439534,50.082016],[14.439635,50.081996],[14.440328,50.081858],[14.440486,50.081842],[14.440687,50.081824],[14.440832,50.081811],[14.441178,50.081778],[14.442037,50.081651],[14.442644,50.081574],[14.443395,50.08151],[14.443909,50.081491],[14.443909,50.08149],[14.443913,50.081472],[14.444638,50.079594],[14.444756,50.079305],[14.445048,50.078532],[14.444896,50.078519],[14.444913,50.078439],[14.444929,50.078295],[14.444966,50.07799],[14.444968,50.077981],[14.444985,50.077837],[14.444772,50.077646],[14.44479,50.077493],[14.444784,50.077456],[14.444799,50.077385],[14.444854,50.07739],[14.444865,50.077273],[14.44487,50.077119],[14.444875,50.077029],[14.443907,50.077007],[14.442666,50.077006],[14.441951,50.077052],[14.442026,50.077757],[14.442126,50.07841],[14.441953,50.078431],[14.441127,50.078531],[14.440924,50.078558],[14.439852,50.07869],[14.43943,50.078753],[14.439213,50.078779],[14.438672,50.078867],[14.438487,50.078942],[14.43841,50.078971],[14.437443,50.079276],[14.437427,50.079284],[14.437295,50.079308]]]}},{"type":"Feature","properties":{"cislo":2013,"kod":26455,"mestskaCast":"praha-2"},"geometry":{"type":"Polygon","coordinates":[[[14.436263,50.078064],[14.43746,50.077807],[14.437801,50.077729],[14.438565,50.077587],[14.438532,50.077476],[14.438474,50.077352],[14.438468,50.077316],[14.438461,50.077279],[14.438272,50.077307],[14.438112,50.077329],[14.437994,50.077355],[14.437787,50.077401],[14.437639,50.077433],[14.43745,50.077062],[14.437584,50.077029],[14.437791,50.076983],[14.438215,50.076912],[14.438261,50.076898],[14.438347,50.076887],[14.438339,50.076859],[14.438341,50.076851],[14.438607,50.076792],[14.438619,50.076803],[14.438628,50.076831],[14.438638,50.07685],[14.438811,50.076829],[14.43903,50.076794],[14.439161,50.076778],[14.439059,50.07646],[14.439035,50.076376],[14.439023,50.076103],[14.439042,50.076014],[14.438808,50.075984],[14.437916,50.075869],[14.437698,50.075832],[14.437685,50.075831],[14.437302,50.075906],[14.436584,50.076033],[14.435444,50.075887],[14.43528,50.075863],[14.43517,50.075853],[14.435098,50.075856],[14.435055,50.075861],[14.435024,50.075877],[14.434978,50.075891],[14.434915,50.075921],[14.434835,50.075969],[14.435585,50.077079],[14.436263,50.078064]]]}},{"type":"Feature","properties":{"cislo":2014,"kod":26457,"mestskaCast":"praha-2"},"geometry":{"type":"Polygon","coordinates":[[[14.438565,50.077587],[14.43937,50.07745],[14.439606,50.078061],[14.441069,50.077881],[14.442026,50.077757],[14.441951,50.077052],[14.441984,50.076238],[14.441563,50.076228],[14.441564,50.076155],[14.441581,50.076012],[14.441567,50.07601],[14.441564,50.075956],[14.440861,50.075948],[14.440665,50.07594],[14.440537,50.075947],[14.440536,50.076083],[14.440521,50.076217],[14.440258,50.076194],[14.439973,50.076152],[14.439042,50.076014],[14.439023,50.076103],[14.439035,50.076376],[14.439059,50.07646],[14.439161,50.076778],[14.43903,50.076794],[14.438811,50.076829],[14.438638,50.07685],[14.438628,50.076831],[14.438619,50.076803],[14.438607,50.076792],[14.438341,50.076851],[14.438339,50.076859],[14.438347,50.076887],[14.438261,50.076898],[14.438215,50.076912],[14.437791,50.076983],[14.437584,50.077029],[14.43745,50.077062],[14.437639,50.077433],[14.437787,50.077401],[14.437994,50.077355],[14.438112,50.077329],[14.438272,50.077307],[14.438461,50.077279],[14.438468,50.077316],[14.438474,50.077352],[14.438532,50.077476],[14.438565,50.077587]]]}},{"type":"Feature","properties":{"cislo":2015,"kod":26459,"mestskaCast":"praha-2"},"geometry":{"type":"Polygon","coordinates":[[[14.444345,50.075348],[14.444338,50.075447],[14.444339,50.075575],[14.444337,50.075584],[14.444339,50.076037],[14.444335,50.076055],[14.444338,50.076174],[14.444335,50.076255],[14.44425,50.076257],[14.443997,50.076252],[14.443912,50.076254],[14.443907,50.077007],[14.444875,50.077029],[14.446124,50.077057],[14.44899,50.077156],[14.44899,50.077156],[14.448998,50.077139],[14.449064,50.075357],[14.44856,50.075356],[14.445851,50.07535],[14.445865,50.074439],[14.443936,50.074423],[14.443922,50.075347],[14.444035,50.075348],[14.444345,50.075348]]]}},{"type":"Feature","properties":{"cislo":2016,"kod":26461,"mestskaCast":"praha-2"},"geometry":{"type":"Polygon","coordinates":[[[14.443936,50.074423],[14.445865,50.074439],[14.445859,50.07354],[14.445879,50.072652],[14.445879,50.072648],[14.445818,50.072648],[14.443952,50.072631],[14.443951,50.072636],[14.443948,50.072781],[14.443953,50.073154],[14.443948,50.073244],[14.443946,50.073253],[14.443819,50.073251],[14.443622,50.073251],[14.443594,50.073249],[14.443156,50.073256],[14.442492,50.073261],[14.442498,50.073297],[14.442499,50.073425],[14.442494,50.073515],[14.44203,50.07351],[14.442022,50.073809],[14.442163,50.073812],[14.442346,50.07381],[14.44236,50.073812],[14.442981,50.073812],[14.443091,50.073822],[14.443303,50.073822],[14.443415,50.073823],[14.443516,50.073814],[14.443505,50.073731],[14.443518,50.073605],[14.44351,50.073514],[14.443946,50.073516],[14.443936,50.074423]]]}},{"type":"Feature","properties":{"cislo":2017,"kod":26463,"mestskaCast":"praha-2"},"geometry":{"type":"Polygon","coordinates":[[[14.445865,50.074439],[14.445851,50.07535],[14.44856,50.075356],[14.448599,50.074136],[14.448599,50.074135],[14.449279,50.074167],[14.449284,50.074167],[14.449309,50.073453],[14.449205,50.07334],[14.449211,50.07268],[14.447865,50.072661],[14.445879,50.072648],[14.445879,50.072652],[14.445859,50.07354],[14.445865,50.074439]]]}},{"type":"Feature","properties":{"cislo":2018,"kod":26465,"mestskaCast":"praha-2"},"geometry":{"type":"Polygon","coordinates":[[[14.437685,50.075831],[14.437785,50.075494],[14.437835,50.075326],[14.438174,50.07532],[14.438909,50.075313],[14.439036,50.075315],[14.439077,50.075318],[14.439072,50.075145],[14.439062,50.074464],[14.439061,50.074337],[14.438947,50.074209],[14.438858,50.074101],[14.438812,50.074052],[14.438827,50.074044],[14.438768,50.073993],[14.438743,50.073909],[14.438698,50.07386],[14.438664,50.073821],[14.438616,50.07378],[14.43858,50.07375],[14.438503,50.073779],[14.438487,50.073787],[14.438363,50.073839],[14.438255,50.073884],[14.438207,50.073844],[14.438049,50.073793],[14.437732,50.073693],[14.437775,50.073624],[14.437867,50.073523],[14.437869,50.073514],[14.437927,50.073438],[14.437783,50.073389],[14.437626,50.07333],[14.437547,50.073304],[14.437817,50.072965],[14.438008,50.072728],[14.438089,50.072617],[14.438182,50.072507],[14.438259,50.072414],[14.438128,50.072367],[14.437734,50.072232],[14.437092,50.072003],[14.436527,50.071807],[14.436475,50.071785],[14.436126,50.072761],[14.436093,50.072849],[14.436006,50.073123],[14.435977,50.073193],[14.435964,50.073255],[14.435556,50.074372],[14.435518,50.074486],[14.435192,50.075419],[14.435085,50.075719],[14.435068,50.075799],[14.435055,50.075861],[14.435098,50.075856],[14.43517,50.075853],[14.43528,50.075863],[14.435444,50.075887],[14.436584,50.076033],[14.437302,50.075906],[14.437685,50.075831]]]}},{"type":"Feature","properties":{"cislo":2019,"kod":26467,"mestskaCast":"praha-2"},"geometry":{"type":"Polygon","coordinates":[[[14.432271,50.075424],[14.433358,50.075421],[14.435192,50.075419],[14.435518,50.074486],[14.435556,50.074372],[14.435964,50.073255],[14.435977,50.073193],[14.436006,50.073123],[14.436093,50.072849],[14.434794,50.072462],[14.433784,50.072173],[14.433611,50.072121],[14.433488,50.072437],[14.433638,50.07246],[14.433774,50.072481],[14.433842,50.072496],[14.433869,50.072498],[14.433848,50.072533],[14.43384,50.072568],[14.433838,50.072577],[14.433825,50.072576],[14.433823,50.072585],[14.433809,50.072584],[14.433789,50.072609],[14.433756,50.072697],[14.433749,50.072733],[14.433704,50.07281],[14.433693,50.072864],[14.433691,50.072873],[14.433662,50.072943],[14.433642,50.072968],[14.433634,50.073004],[14.433609,50.073056],[14.433605,50.073074],[14.433675,50.07308],[14.43377,50.073097],[14.433692,50.073263],[14.43369,50.073272],[14.433669,50.073306],[14.433663,50.073397],[14.433638,50.073449],[14.433627,50.073502],[14.433611,50.07351],[14.433584,50.073571],[14.433528,50.073566],[14.43349,50.073681],[14.433438,50.073794],[14.433424,50.073793],[14.433416,50.073828],[14.433412,50.073846],[14.433385,50.073907],[14.433316,50.073901],[14.433261,50.073896],[14.433233,50.073894],[14.433069,50.07387],[14.432932,50.073849],[14.432839,50.074086],[14.432731,50.074331],[14.432867,50.074352],[14.433043,50.074385],[14.433138,50.074403],[14.433221,50.07441],[14.433181,50.074534],[14.433017,50.07451],[14.433003,50.074509],[14.432976,50.07457],[14.432968,50.074606],[14.432954,50.074604],[14.432941,50.074667],[14.433103,50.074699],[14.433041,50.074857],[14.432995,50.074944],[14.43283,50.07492],[14.432805,50.074972],[14.432967,50.075005],[14.43294,50.075066],[14.432911,50.075136],[14.432897,50.075135],[14.432882,50.075143],[14.432842,50.07513],[14.432747,50.075112],[14.432652,50.075095],[14.432597,50.07509],[14.432569,50.075088],[14.432421,50.075056],[14.432271,50.075424]]]}},{"type":"Feature","properties":{"cislo":2020,"kod":26469,"mestskaCast":"praha-2"},"geometry":{"type":"Polygon","coordinates":[[[14.433611,50.072121],[14.433869,50.071509],[14.434107,50.070922],[14.43408,50.070783],[14.434353,50.0701],[14.434648,50.069844],[14.434653,50.069818],[14.434883,50.069602],[14.435236,50.06927],[14.434514,50.069016],[14.434479,50.069049],[14.434379,50.069122],[14.434359,50.069147],[14.434255,50.069238],[14.433988,50.069169],[14.433873,50.069113],[14.433579,50.068969],[14.433264,50.068796],[14.433046,50.069158],[14.432933,50.069357],[14.43288,50.06947],[14.432875,50.069497],[14.433706,50.069897],[14.433922,50.070007],[14.433785,50.070385],[14.433783,50.070394],[14.433756,50.070455],[14.433752,50.070473],[14.433738,50.070472],[14.433729,50.070516],[14.433715,50.070515],[14.433687,50.070513],[14.433606,50.070496],[14.433608,50.070487],[14.433551,50.070491],[14.433523,50.070489],[14.433464,50.070502],[14.433406,50.070506],[14.433219,50.070526],[14.432947,50.070411],[14.432878,50.070405],[14.432864,50.070403],[14.432722,50.070409],[14.432625,50.0704],[14.432612,50.070463],[14.432582,50.070469],[14.4323,50.070472],[14.432146,50.070467],[14.432031,50.070475],[14.431993,50.070127],[14.431594,50.06942],[14.431287,50.069402],[14.430934,50.069407],[14.430858,50.070026],[14.430777,50.070736],[14.430947,50.070733],[14.431962,50.070732],[14.432047,50.070731],[14.432244,50.072055],[14.432299,50.07206],[14.433611,50.072121]]]}},{"type":"Feature","properties":{"cislo":2021,"kod":26471,"mestskaCast":"praha-2"},"geometry":{"type":"Polygon","coordinates":[[[14.433611,50.072121],[14.433784,50.072173],[14.434794,50.072462],[14.436093,50.072849],[14.436126,50.072761],[14.436475,50.071785],[14.436805,50.070834],[14.436087,50.070498],[14.436164,50.070405],[14.436232,50.070347],[14.436273,50.070288],[14.43622,50.070274],[14.436053,50.070195],[14.435962,50.07016],[14.435982,50.070135],[14.435997,50.070127],[14.43605,50.070077],[14.436134,50.069949],[14.436177,50.06988],[14.436484,50.069961],[14.436499,50.06989],[14.43649,50.069799],[14.436409,50.069719],[14.436327,50.069639],[14.436291,50.069608],[14.436228,50.069576],[14.436095,50.069473],[14.436009,50.069411],[14.435914,50.069394],[14.435918,50.069376],[14.435921,50.069294],[14.435236,50.06927],[14.434883,50.069602],[14.434653,50.069818],[14.434648,50.069844],[14.434353,50.0701],[14.43408,50.070783],[14.434107,50.070922],[14.433869,50.071509],[14.433611,50.072121]]]}},{"type":"Feature","properties":{"cislo":2022,"kod":26473,"mestskaCast":"praha-2"},"geometry":{"type":"Polygon","coordinates":[[[14.438259,50.072414],[14.438415,50.072474],[14.43877,50.072596],[14.439218,50.072744],[14.439377,50.072858],[14.43984,50.073199],[14.440132,50.073415],[14.440377,50.073591],[14.440562,50.073516],[14.441694,50.073036],[14.441,50.07272],[14.440744,50.072598],[14.440448,50.072463],[14.439831,50.072181],[14.440633,50.071463],[14.440209,50.071271],[14.43962,50.070992],[14.439479,50.070925],[14.439271,50.070643],[14.438819,50.070386],[14.438616,50.07054],[14.437908,50.07016],[14.437122,50.070208],[14.436484,50.069961],[14.436177,50.06988],[14.436134,50.069949],[14.43605,50.070077],[14.435997,50.070127],[14.435982,50.070135],[14.435962,50.07016],[14.436053,50.070195],[14.43622,50.070274],[14.436273,50.070288],[14.436232,50.070347],[14.436164,50.070405],[14.436087,50.070498],[14.436805,50.070834],[14.436475,50.071785],[14.436527,50.071807],[14.437092,50.072003],[14.437734,50.072232],[14.438128,50.072367],[14.438259,50.072414]]]}},{"type":"Feature","properties":{"cislo":2023,"kod":26475,"mestskaCast":"praha-2"},"geometry":{"type":"Polygon","coordinates":[[[14.441694,50.073036],[14.442042,50.072921],[14.442991,50.072562],[14.442991,50.072562],[14.442551,50.072335],[14.442803,50.072136],[14.442802,50.072135],[14.442713,50.072091],[14.442562,50.072005],[14.442511,50.071983],[14.442919,50.071656],[14.442901,50.071609],[14.442884,50.071489],[14.442871,50.071415],[14.443203,50.071381],[14.443251,50.071222],[14.44327,50.071133],[14.442883,50.070963],[14.441896,50.070503],[14.441475,50.070294],[14.440863,50.070521],[14.440573,50.070622],[14.440494,50.070661],[14.440147,50.070766],[14.439689,50.070934],[14.43962,50.070992],[14.440209,50.071271],[14.440633,50.071463],[14.439831,50.072181],[14.440448,50.072463],[14.440744,50.072598],[14.441,50.07272],[14.441694,50.073036]]]}},{"type":"Feature","properties":{"cislo":2024,"kod":26477,"mestskaCast":"praha-2"},"geometry":{"type":"Polygon","coordinates":[[[14.43962,50.070992],[14.439689,50.070934],[14.440147,50.070766],[14.440494,50.070661],[14.440573,50.070622],[14.440863,50.070521],[14.441475,50.070294],[14.441896,50.070503],[14.442883,50.070963],[14.44327,50.071133],[14.443251,50.071222],[14.443203,50.071381],[14.442871,50.071415],[14.442884,50.071489],[14.442901,50.071609],[14.442919,50.071656],[14.442511,50.071983],[14.442562,50.072005],[14.442713,50.072091],[14.442802,50.072135],[14.442803,50.072136],[14.443661,50.071456],[14.443664,50.071454],[14.444365,50.071017],[14.445338,50.070665],[14.445318,50.070639],[14.445308,50.070629],[14.44543,50.070585],[14.446713,50.070134],[14.446864,50.070082],[14.447036,50.070027],[14.447042,50.070025],[14.447472,50.069886],[14.447535,50.069866],[14.447565,50.069852],[14.447632,50.069822],[14.447675,50.069799],[14.447893,50.069665],[14.447955,50.069696],[14.448169,50.069521],[14.448166,50.06952],[14.448237,50.06942],[14.448254,50.0694],[14.448285,50.069357],[14.448304,50.069327],[14.448345,50.06925],[14.448376,50.069186],[14.448419,50.069089],[14.44848,50.068998],[14.448499,50.068959],[14.448486,50.068921],[14.44851,50.068862],[14.44855,50.068717],[14.448604,50.068504],[14.448609,50.068504],[14.448585,50.068347],[14.448591,50.068346],[14.448585,50.068298],[14.44858,50.068244],[14.448577,50.06822],[14.448573,50.06817],[14.448557,50.068051],[14.448553,50.068051],[14.448452,50.068057],[14.448453,50.068079],[14.448184,50.0681],[14.447914,50.068116],[14.447632,50.068121],[14.447432,50.068121],[14.447252,50.068119],[14.446602,50.068078],[14.446243,50.068043],[14.445917,50.068001],[14.445918,50.067992],[14.445872,50.067987],[14.44587,50.067996],[14.445616,50.067967],[14.44542,50.067935],[14.445288,50.067904],[14.445137,50.067868],[14.445131,50.067867],[14.444855,50.067777],[14.444516,50.067649],[14.444455,50.067608],[14.444352,50.067571],[14.444272,50.067553],[14.443851,50.06739],[14.44387,50.067364],[14.443811,50.067338],[14.443784,50.067365],[14.442974,50.067051],[14.44297,50.067045],[14.443106,50.067017],[14.442739,50.066934],[14.442583,50.066922],[14.442567,50.06692],[14.442346,50.066903],[14.442272,50.066897],[14.442074,50.06688],[14.442002,50.066876],[14.441952,50.066872],[14.441843,50.066833],[14.441784,50.066813],[14.441601,50.066747],[14.441481,50.066708],[14.44131,50.066646],[14.44125,50.066567],[14.441176,50.066473],[14.441157,50.066447],[14.441155,50.066444],[14.441104,50.066462],[14.441015,50.066447],[14.441003,50.066445],[14.440966,50.066438],[14.440866,50.066419],[14.44079,50.066439],[14.440772,50.066444],[14.440749,50.066451],[14.440742,50.066454],[14.440551,50.066513],[14.440454,50.066543],[14.440404,50.066546],[14.440157,50.066592],[14.440122,50.066591],[14.440067,50.066588],[14.440007,50.066585],[14.439928,50.066595],[14.439888,50.0666],[14.439683,50.066602],[14.439543,50.066576],[14.439419,50.066561],[14.439344,50.066555],[14.439043,50.066565],[14.438834,50.066578],[14.438765,50.066657],[14.438615,50.066813],[14.438559,50.066872],[14.438521,50.066915],[14.438381,50.066913],[14.43808,50.067178],[14.436815,50.068023],[14.436815,50.068021],[14.436813,50.068021],[14.436566,50.068389],[14.436487,50.068627],[14.436463,50.068671],[14.43638,50.068863],[14.436331,50.068959],[14.436297,50.069055],[14.436252,50.069133],[14.436124,50.069267],[14.435921,50.069294],[14.435918,50.069376],[14.435914,50.069394],[14.436009,50.069411],[14.436095,50.069473],[14.436228,50.069576],[14.436291,50.069608],[14.436327,50.069639],[14.436409,50.069719],[14.43649,50.069799],[14.436499,50.06989],[14.436484,50.069961],[14.437122,50.070208],[14.437908,50.07016],[14.438616,50.07054],[14.438819,50.070386],[14.439271,50.070643],[14.439479,50.070925],[14.43962,50.070992]]]}},{"type":"Feature","properties":{"cislo":2025,"kod":26479,"mestskaCast":"praha-2"},"geometry":{"type":"Polygon","coordinates":[[[14.430934,50.069407],[14.431287,50.069402],[14.431594,50.06942],[14.431993,50.070127],[14.432031,50.070475],[14.432146,50.070467],[14.4323,50.070472],[14.432582,50.070469],[14.432612,50.070463],[14.432625,50.0704],[14.432722,50.070409],[14.432864,50.070403],[14.432878,50.070405],[14.432947,50.070411],[14.433219,50.070526],[14.433406,50.070506],[14.433464,50.070502],[14.433523,50.070489],[14.433551,50.070491],[14.433608,50.070487],[14.433606,50.070496],[14.433687,50.070513],[14.433715,50.070515],[14.433729,50.070516],[14.433738,50.070472],[14.433752,50.070473],[14.433756,50.070455],[14.433783,50.070394],[14.433785,50.070385],[14.433922,50.070007],[14.433706,50.069897],[14.432875,50.069497],[14.43288,50.06947],[14.432933,50.069357],[14.433046,50.069158],[14.433264,50.068796],[14.433579,50.068969],[14.433873,50.069113],[14.433988,50.069169],[14.434255,50.069238],[14.434359,50.069147],[14.434379,50.069122],[14.434479,50.069049],[14.434514,50.069016],[14.435236,50.06927],[14.435921,50.069294],[14.436124,50.069267],[14.436252,50.069133],[14.436297,50.069055],[14.436331,50.068959],[14.43638,50.068863],[14.436463,50.068671],[14.436487,50.068627],[14.436566,50.068389],[14.436813,50.068021],[14.436815,50.068021],[14.436817,50.067897],[14.436791,50.06784],[14.436836,50.067811],[14.436816,50.06776],[14.4368,50.067682],[14.436787,50.067616],[14.436768,50.06756],[14.436721,50.067454],[14.436667,50.067345],[14.436609,50.067236],[14.436544,50.067132],[14.436472,50.067036],[14.436396,50.066946],[14.436313,50.066846],[14.436223,50.066769],[14.436184,50.066737],[14.435691,50.06695],[14.435956,50.067263],[14.435601,50.067257],[14.435559,50.067608],[14.435104,50.0676],[14.435108,50.06757],[14.434881,50.067563],[14.434751,50.068202],[14.433577,50.068128],[14.432149,50.067539],[14.430911,50.066673],[14.430797,50.066681],[14.430696,50.06669],[14.430584,50.066689],[14.43057,50.066688],[14.430428,50.066694],[14.430273,50.066689],[14.430246,50.066687],[14.430232,50.066685],[14.430202,50.066692],[14.430161,50.066688],[14.430133,50.066686],[14.430048,50.066687],[14.428642,50.066672],[14.428,50.066661],[14.427251,50.066649],[14.426786,50.066644],[14.426773,50.066642],[14.426759,50.066641],[14.426267,50.066634],[14.426182,50.066636],[14.42586,50.066625],[14.425733,50.066623],[14.425636,50.066615],[14.425498,50.066602],[14.425362,50.066581],[14.425239,50.066561],[14.42516,50.066536],[14.425092,50.066521],[14.424986,50.066493],[14.424867,50.066456],[14.42475,50.066409],[14.424698,50.066386],[14.424661,50.066365],[14.424557,50.066319],[14.424482,50.066276],[14.423766,50.065868],[14.423603,50.065772],[14.423551,50.065749],[14.423514,50.065728],[14.423433,50.065775],[14.423325,50.06582],[14.423716,50.066036],[14.423871,50.066168],[14.42399,50.066269],[14.424002,50.066279],[14.424026,50.066299],[14.424167,50.06643],[14.424261,50.06652],[14.42432,50.066571],[14.424512,50.066796],[14.424657,50.066909],[14.424683,50.06692],[14.424975,50.067137],[14.425114,50.067213],[14.425332,50.067314],[14.42535,50.067297],[14.42549,50.067364],[14.425595,50.0674],[14.42571,50.067456],[14.425709,50.067465],[14.425746,50.067486],[14.425809,50.067392],[14.42638,50.067488],[14.426626,50.067528],[14.427345,50.067791],[14.427322,50.067898],[14.427278,50.06804],[14.427507,50.068087],[14.428305,50.068248],[14.428615,50.068312],[14.428738,50.068332],[14.428873,50.068362],[14.428938,50.068186],[14.428966,50.068125],[14.429064,50.068125],[14.430121,50.068128],[14.430165,50.068123],[14.430291,50.068125],[14.430348,50.068121],[14.430489,50.068124],[14.430516,50.068126],[14.430955,50.06812],[14.431081,50.068122],[14.431078,50.06814],[14.431069,50.068312],[14.431061,50.068347],[14.431048,50.068409],[14.431056,50.068437],[14.431039,50.068518],[14.430971,50.069101],[14.430958,50.069227],[14.430943,50.069299],[14.430934,50.069407]]]}},{"type":"Feature","properties":{"cislo":2026,"kod":26481,"mestskaCast":"praha-2"},"geometry":{"type":"Polygon","coordinates":[[[14.430911,50.066673],[14.432149,50.067539],[14.433577,50.068128],[14.434751,50.068202],[14.434881,50.067563],[14.435108,50.06757],[14.435104,50.0676],[14.435559,50.067608],[14.435601,50.067257],[14.435956,50.067263],[14.435691,50.06695],[14.436184,50.066737],[14.435968,50.066474],[14.435372,50.066136],[14.435297,50.066175],[14.43511,50.066069],[14.435207,50.066031],[14.435308,50.066021],[14.435445,50.066025],[14.435091,50.065813],[14.435025,50.065773],[14.434161,50.066328],[14.434054,50.066328],[14.433941,50.066389],[14.434245,50.066628],[14.433266,50.067148],[14.432696,50.066819],[14.432699,50.066415],[14.432461,50.066212],[14.43239,50.06624],[14.432159,50.066336],[14.432005,50.066401],[14.431889,50.066446],[14.431755,50.066493],[14.431628,50.06653],[14.431483,50.06657],[14.431281,50.066615],[14.431173,50.066633],[14.43106,50.066651],[14.430941,50.066667],[14.430911,50.066673]]]}},{"type":"Feature","properties":{"cislo":2027,"kod":26483,"mestskaCast":"praha-2"},"geometry":{"type":"Polygon","coordinates":[[[14.430941,50.066667],[14.43106,50.066651],[14.431173,50.066633],[14.431281,50.066615],[14.431483,50.06657],[14.431628,50.06653],[14.431755,50.066493],[14.431889,50.066446],[14.432005,50.066401],[14.432159,50.066336],[14.43239,50.06624],[14.432461,50.066212],[14.432699,50.066415],[14.432696,50.066819],[14.433266,50.067148],[14.434245,50.066628],[14.433941,50.066389],[14.434054,50.066328],[14.434161,50.066328],[14.435025,50.065773],[14.434515,50.065466],[14.434432,50.065413],[14.434388,50.065431],[14.434291,50.06547],[14.434289,50.065469],[14.43421,50.065391],[14.434205,50.065386],[14.434167,50.065348],[14.434093,50.065312],[14.433997,50.065264],[14.433932,50.065234],[14.433925,50.065231],[14.433922,50.06523],[14.433822,50.065188],[14.433695,50.065135],[14.433467,50.065041],[14.433394,50.065101],[14.430174,50.065038],[14.430122,50.066001],[14.429758,50.065998],[14.429752,50.066079],[14.429301,50.066068],[14.428018,50.066052],[14.428016,50.066115],[14.428,50.066661],[14.428642,50.066672],[14.430048,50.066687],[14.430133,50.066686],[14.430161,50.066688],[14.430202,50.066692],[14.430232,50.066685],[14.430246,50.066687],[14.430273,50.066689],[14.430428,50.066694],[14.43057,50.066688],[14.430584,50.066689],[14.430696,50.06669],[14.430797,50.066681],[14.430911,50.066673],[14.430941,50.066667]]]}},{"type":"Feature","properties":{"cislo":2028,"kod":26485,"mestskaCast":"praha-2"},"geometry":{"type":"Polygon","coordinates":[[[14.42681,50.065675],[14.427377,50.065682],[14.427362,50.066044],[14.428018,50.066052],[14.429301,50.066068],[14.429752,50.066079],[14.429758,50.065998],[14.430122,50.066001],[14.430174,50.065038],[14.433394,50.065101],[14.433467,50.065041],[14.433437,50.065028],[14.433362,50.065003],[14.433358,50.065001],[14.433212,50.064954],[14.432968,50.064879],[14.432896,50.064856],[14.432651,50.064784],[14.432587,50.064766],[14.432189,50.064682],[14.432141,50.064675],[14.432106,50.064669],[14.431778,50.064625],[14.43174,50.064622],[14.431565,50.064609],[14.431396,50.064599],[14.431213,50.06459],[14.431014,50.06458],[14.430829,50.064572],[14.430829,50.064526],[14.43083,50.064429],[14.430739,50.064438],[14.430454,50.064467],[14.430441,50.064469],[14.430393,50.064478],[14.430305,50.064496],[14.430141,50.064522],[14.430143,50.064527],[14.430146,50.064645],[14.429824,50.064635],[14.42806,50.064578],[14.426839,50.064552],[14.426835,50.064633],[14.426837,50.065024],[14.42681,50.065675]]]}},{"type":"Feature","properties":{"cislo":2029,"kod":26487,"mestskaCast":"praha-2"},"geometry":{"type":"Polygon","coordinates":[[[14.426773,50.066642],[14.426786,50.066644],[14.427251,50.066649],[14.428,50.066661],[14.428016,50.066115],[14.428018,50.066052],[14.427362,50.066044],[14.427377,50.065682],[14.42681,50.065675],[14.426837,50.065024],[14.426835,50.064633],[14.426839,50.064552],[14.426406,50.064532],[14.426064,50.064547],[14.425736,50.064563],[14.425476,50.064595],[14.425081,50.064659],[14.424754,50.064739],[14.424466,50.064832],[14.424252,50.064913],[14.424035,50.065002],[14.423831,50.065102],[14.42362,50.065229],[14.423443,50.065331],[14.423261,50.06546],[14.423143,50.06555],[14.423194,50.065631],[14.423259,50.065732],[14.423271,50.065742],[14.423281,50.065762],[14.423289,50.065789],[14.423325,50.06582],[14.423433,50.065775],[14.423514,50.065728],[14.423551,50.065749],[14.423603,50.065772],[14.423766,50.065868],[14.424482,50.066276],[14.424557,50.066319],[14.424661,50.066365],[14.424698,50.066386],[14.42475,50.066409],[14.424867,50.066456],[14.424986,50.066493],[14.425092,50.066521],[14.42516,50.066536],[14.425239,50.066561],[14.425362,50.066581],[14.425498,50.066602],[14.425636,50.066615],[14.425733,50.066623],[14.42586,50.066625],[14.426182,50.066636],[14.426267,50.066634],[14.426759,50.066641],[14.426773,50.066642]]]}},{"type":"Feature","properties":{"cislo":2030,"kod":26489,"mestskaCast":"praha-2"},"geometry":{"type":"Polygon","coordinates":[[[14.423194,50.065631],[14.423143,50.06555],[14.423261,50.06546],[14.423443,50.065331],[14.42362,50.065229],[14.423831,50.065102],[14.424035,50.065002],[14.424252,50.064913],[14.424466,50.064832],[14.424754,50.064739],[14.425081,50.064659],[14.425476,50.064595],[14.425736,50.064563],[14.426064,50.064547],[14.426406,50.064532],[14.426839,50.064552],[14.42806,50.064578],[14.429824,50.064635],[14.430146,50.064645],[14.430143,50.064527],[14.430141,50.064522],[14.430141,50.064522],[14.430134,50.064442],[14.430121,50.064382],[14.428953,50.064321],[14.427936,50.064178],[14.426731,50.063916],[14.426091,50.063473],[14.426836,50.062957],[14.42681,50.062945],[14.426702,50.062897],[14.426418,50.062767],[14.426348,50.062735],[14.426176,50.062658],[14.425986,50.062567],[14.42584,50.0627],[14.425587,50.062588],[14.425408,50.062509],[14.42523,50.062431],[14.425206,50.062418],[14.425065,50.062485],[14.425057,50.062478],[14.425003,50.062432],[14.424978,50.062445],[14.42496,50.06243],[14.424986,50.062417],[14.424958,50.062392],[14.424776,50.062229],[14.424347,50.062403],[14.423842,50.062187],[14.423287,50.062622],[14.423338,50.062745],[14.423351,50.06278],[14.423334,50.062817],[14.423278,50.062995],[14.423304,50.063001],[14.423296,50.063025],[14.423265,50.063017],[14.423197,50.063085],[14.423224,50.063095],[14.423024,50.063284],[14.423003,50.063272],[14.422923,50.063353],[14.422813,50.063439],[14.423198,50.063595],[14.422435,50.064058],[14.422145,50.063973],[14.421659,50.064706],[14.421945,50.064779],[14.421794,50.065405],[14.421901,50.065417],[14.422086,50.065244],[14.422728,50.06553],[14.423194,50.065631]]]}},{"type":"Feature","properties":{"cislo":2031,"kod":26491,"mestskaCast":"praha-2"},"geometry":{"type":"Polygon","coordinates":[[[14.416448,50.067516],[14.417063,50.067607],[14.417074,50.067389],[14.41773,50.067449],[14.41807,50.067384],[14.419887,50.066819],[14.419418,50.066186],[14.420076,50.065829],[14.420163,50.065886],[14.420321,50.066036],[14.420391,50.066134],[14.420433,50.066105],[14.420744,50.0663],[14.420779,50.066294],[14.420801,50.066307],[14.420778,50.066311],[14.420842,50.066351],[14.420861,50.06638],[14.420872,50.066377],[14.420894,50.066393],[14.420933,50.066439],[14.421067,50.066517],[14.42114,50.066619],[14.421384,50.066931],[14.421695,50.067012],[14.421837,50.066841],[14.42191,50.066766],[14.421949,50.066715],[14.421951,50.066706],[14.422035,50.06664],[14.422607,50.06621],[14.423025,50.065902],[14.423259,50.065732],[14.423194,50.065631],[14.422728,50.06553],[14.422086,50.065244],[14.421901,50.065417],[14.421794,50.065405],[14.421945,50.064779],[14.421659,50.064706],[14.422145,50.063973],[14.422435,50.064058],[14.423198,50.063595],[14.422813,50.063439],[14.422923,50.063353],[14.423003,50.063272],[14.423024,50.063284],[14.423224,50.063095],[14.423197,50.063085],[14.423265,50.063017],[14.423296,50.063025],[14.423304,50.063001],[14.423278,50.062995],[14.423334,50.062817],[14.423351,50.06278],[14.423338,50.062745],[14.423287,50.062622],[14.423842,50.062187],[14.424347,50.062403],[14.424776,50.062229],[14.425267,50.062021],[14.42528,50.062016],[14.424752,50.06176],[14.424548,50.061846],[14.424519,50.061816],[14.424482,50.061778],[14.42441,50.0617],[14.424392,50.061685],[14.424301,50.061722],[14.4243,50.061722],[14.424262,50.061666],[14.424262,50.061666],[14.424339,50.061633],[14.424339,50.061633],[14.424294,50.061589],[14.424192,50.061488],[14.424395,50.061402],[14.424248,50.060971],[14.423441,50.061435],[14.423158,50.061597],[14.423157,50.0616],[14.423156,50.061604],[14.423342,50.061737],[14.423177,50.061845],[14.42317,50.061849],[14.422827,50.062076],[14.422157,50.06187],[14.421999,50.062138],[14.422033,50.06214],[14.422036,50.062137],[14.422112,50.062168],[14.422108,50.062173],[14.422121,50.062179],[14.422127,50.062174],[14.422172,50.062195],[14.422168,50.062201],[14.42218,50.062207],[14.422186,50.062203],[14.422203,50.06221],[14.421816,50.062552],[14.421777,50.06256],[14.421736,50.062571],[14.421614,50.062597],[14.421325,50.062093],[14.420187,50.062574],[14.420222,50.062663],[14.420227,50.062678],[14.420313,50.062897],[14.420071,50.062935],[14.419776,50.062982],[14.418493,50.063183],[14.418378,50.062859],[14.417455,50.06278],[14.417362,50.062772],[14.417087,50.062748],[14.41714,50.062486],[14.417144,50.062477],[14.417125,50.062467],[14.416993,50.062401],[14.416947,50.062377],[14.416941,50.062374],[14.416934,50.062371],[14.415807,50.061804],[14.415226,50.062499],[14.414792,50.063367],[14.414218,50.064653],[14.414009,50.065276],[14.413811,50.065866],[14.413504,50.066866],[14.41348,50.066944],[14.413434,50.067093],[14.413434,50.067094],[14.413436,50.067095],[14.4143,50.067208],[14.414628,50.067255],[14.414642,50.067256],[14.414903,50.067288],[14.415176,50.067331],[14.415204,50.067333],[14.416013,50.067441],[14.416448,50.067516]]]}},{"type":"Feature","properties":{"cislo":2032,"kod":26493,"mestskaCast":"praha-2"},"geometry":{"type":"Polygon","coordinates":[[[14.416736,50.069529],[14.416733,50.069313],[14.416504,50.068671],[14.416732,50.068639],[14.416865,50.068598],[14.417245,50.068523],[14.417137,50.068321],[14.417185,50.067711],[14.417063,50.067607],[14.416448,50.067516],[14.416013,50.067441],[14.415204,50.067333],[14.415176,50.067331],[14.414903,50.067288],[14.414642,50.067256],[14.414628,50.067255],[14.4143,50.067208],[14.413436,50.067095],[14.413434,50.067094],[14.413,50.068699],[14.412968,50.068816],[14.412913,50.069063],[14.412916,50.069063],[14.414695,50.069185],[14.41557,50.069244],[14.415439,50.069859],[14.415285,50.070644],[14.415327,50.070648],[14.416578,50.070731],[14.416791,50.070659],[14.416742,50.069965],[14.416736,50.069529]]]}},{"type":"Feature","properties":{"cislo":2033,"kod":26495,"mestskaCast":"praha-2"},"geometry":{"type":"Polygon","coordinates":[[[14.429543,50.069384],[14.429518,50.069236],[14.429533,50.069101],[14.429538,50.069075],[14.429555,50.068731],[14.429557,50.068659],[14.429564,50.068623],[14.42954,50.068603],[14.429517,50.068583],[14.429477,50.06857],[14.429354,50.06855],[14.428893,50.068464],[14.42884,50.06845],[14.428873,50.068362],[14.428738,50.068332],[14.428615,50.068312],[14.428305,50.068248],[14.427507,50.068087],[14.427278,50.06804],[14.427322,50.067898],[14.427345,50.067791],[14.426626,50.067528],[14.42638,50.067488],[14.425809,50.067392],[14.425746,50.067486],[14.425709,50.067465],[14.42571,50.067456],[14.425595,50.0674],[14.42549,50.067364],[14.42535,50.067297],[14.425332,50.067314],[14.425114,50.067213],[14.424975,50.067137],[14.424683,50.06692],[14.424657,50.066909],[14.424512,50.066796],[14.42432,50.066571],[14.424261,50.06652],[14.424167,50.06643],[14.424026,50.066299],[14.424002,50.066279],[14.42399,50.066269],[14.423871,50.066168],[14.423716,50.066036],[14.423325,50.06582],[14.423289,50.065789],[14.423281,50.065762],[14.423271,50.065742],[14.423259,50.065732],[14.423025,50.065902],[14.422607,50.06621],[14.422035,50.06664],[14.421951,50.066706],[14.421949,50.066715],[14.42191,50.066766],[14.421837,50.066841],[14.421695,50.067012],[14.421384,50.066931],[14.42114,50.066619],[14.421067,50.066517],[14.420933,50.066439],[14.420894,50.066393],[14.420872,50.066377],[14.420861,50.06638],[14.420842,50.066351],[14.420778,50.066311],[14.420801,50.066307],[14.420779,50.066294],[14.420744,50.0663],[14.420433,50.066105],[14.420391,50.066134],[14.420321,50.066036],[14.420163,50.065886],[14.420076,50.065829],[14.419418,50.066186],[14.419887,50.066819],[14.41807,50.067384],[14.41773,50.067449],[14.417074,50.067389],[14.417063,50.067607],[14.417185,50.067711],[14.417137,50.068321],[14.417245,50.068523],[14.416865,50.068598],[14.416732,50.068639],[14.416504,50.068671],[14.416733,50.069313],[14.417487,50.069272],[14.417664,50.06915],[14.417886,50.069147],[14.418188,50.069271],[14.418572,50.069716],[14.418827,50.070184],[14.418946,50.070623],[14.419002,50.070862],[14.418291,50.072018],[14.418531,50.072084],[14.418924,50.072155],[14.419462,50.072212],[14.420202,50.071388],[14.420268,50.071412],[14.420385,50.071459],[14.420476,50.071494],[14.421195,50.071758],[14.421312,50.071804],[14.421548,50.071889],[14.421651,50.071934],[14.422577,50.072288],[14.422997,50.072698],[14.423031,50.072737],[14.423044,50.072738],[14.423056,50.072748],[14.423092,50.072779],[14.423766,50.072003],[14.423658,50.071912],[14.423547,50.071839],[14.423497,50.071807],[14.423481,50.071225],[14.422849,50.071078],[14.422756,50.071052],[14.422701,50.071047],[14.422634,50.071032],[14.422218,50.070931],[14.422137,50.070915],[14.422195,50.070839],[14.422262,50.070727],[14.422342,50.070616],[14.422459,50.070662],[14.422659,50.070716],[14.422979,50.070799],[14.42334,50.070895],[14.423486,50.070935],[14.423579,50.070961],[14.42389,50.071025],[14.423945,50.07103],[14.424027,50.071046],[14.424147,50.071075],[14.424254,50.071103],[14.424417,50.071135],[14.424523,50.071163],[14.42467,50.071203],[14.42483,50.071244],[14.425091,50.071277],[14.425378,50.07132],[14.425447,50.071326],[14.425995,50.071402],[14.426064,50.071408],[14.42649,50.071464],[14.426531,50.071468],[14.426626,50.071485],[14.42701,50.071537],[14.427558,50.071613],[14.427641,50.07162],[14.427833,50.071646],[14.427971,50.071659],[14.428089,50.07137],[14.428099,50.071325],[14.428195,50.07107],[14.428264,50.07075],[14.428289,50.070634],[14.427783,50.070625],[14.4278,50.070282],[14.427412,50.070248],[14.427598,50.069511],[14.427684,50.069174],[14.428588,50.069299],[14.428577,50.069352],[14.429375,50.069378],[14.429444,50.069384],[14.429543,50.069384]]]}},{"type":"Feature","properties":{"cislo":2034,"kod":26497,"mestskaCast":"praha-2"},"geometry":{"type":"Polygon","coordinates":[[[14.412197,50.072857],[14.412203,50.072858],[14.413128,50.072949],[14.41328,50.072962],[14.413721,50.07301],[14.413984,50.073034],[14.41411,50.073172],[14.414187,50.073206],[14.414268,50.073222],[14.414407,50.073234],[14.415035,50.073263],[14.415231,50.073271],[14.415423,50.073297],[14.415656,50.073327],[14.416236,50.073451],[14.417085,50.073635],[14.417354,50.073695],[14.417447,50.073722],[14.418631,50.073787],[14.418538,50.073501],[14.41851,50.073435],[14.418465,50.073313],[14.418459,50.073276],[14.418125,50.072266],[14.41825,50.072077],[14.418291,50.072018],[14.419002,50.070862],[14.418946,50.070623],[14.418827,50.070184],[14.418572,50.069716],[14.418188,50.069271],[14.417886,50.069147],[14.417664,50.06915],[14.417487,50.069272],[14.416733,50.069313],[14.416736,50.069529],[14.416742,50.069965],[14.416791,50.070659],[14.416578,50.070731],[14.415327,50.070648],[14.415285,50.070644],[14.415439,50.069859],[14.41557,50.069244],[14.414695,50.069185],[14.412916,50.069063],[14.412913,50.069063],[14.412651,50.070238],[14.412575,50.070576],[14.412329,50.072297],[14.412294,50.072541],[14.412197,50.072857]]]}},{"type":"Feature","properties":{"cislo":2035,"kod":26499,"mestskaCast":"praha-2"},"geometry":{"type":"Polygon","coordinates":[[[14.431863,50.073047],[14.431965,50.072765],[14.432149,50.072301],[14.432209,50.072152],[14.432244,50.072055],[14.432047,50.070731],[14.431962,50.070732],[14.430947,50.070733],[14.430777,50.070736],[14.430858,50.070026],[14.430934,50.069407],[14.430943,50.069299],[14.430958,50.069227],[14.430971,50.069101],[14.431039,50.068518],[14.431056,50.068437],[14.431048,50.068409],[14.431061,50.068347],[14.431069,50.068312],[14.431078,50.06814],[14.431081,50.068122],[14.430955,50.06812],[14.430516,50.068126],[14.430489,50.068124],[14.430348,50.068121],[14.430291,50.068125],[14.430165,50.068123],[14.430121,50.068128],[14.429064,50.068125],[14.428966,50.068125],[14.428938,50.068186],[14.428873,50.068362],[14.42884,50.06845],[14.428893,50.068464],[14.429354,50.06855],[14.429477,50.06857],[14.429517,50.068583],[14.42954,50.068603],[14.429564,50.068623],[14.429557,50.068659],[14.429555,50.068731],[14.429538,50.069075],[14.429533,50.069101],[14.429518,50.069236],[14.429543,50.069384],[14.429555,50.06972],[14.429338,50.072388],[14.42925,50.073541],[14.43038,50.073714],[14.430545,50.073738],[14.431528,50.073888],[14.431559,50.073809],[14.431863,50.073047]]]}},{"type":"Feature","properties":{"cislo":2036,"kod":26501,"mestskaCast":"praha-2"},"geometry":{"type":"Polygon","coordinates":[[[14.426636,50.077247],[14.427632,50.07721],[14.429222,50.077148],[14.430444,50.077088],[14.430444,50.077088],[14.430449,50.077087],[14.430437,50.077014],[14.430278,50.075974],[14.430252,50.0757],[14.430221,50.075452],[14.430199,50.075159],[14.43038,50.073714],[14.42925,50.073541],[14.429338,50.072388],[14.42772,50.072149],[14.427262,50.07293],[14.429106,50.074736],[14.429047,50.075477],[14.428414,50.075494],[14.427485,50.075518],[14.427196,50.076181],[14.42661,50.077147],[14.426636,50.077247]]]}},{"type":"Feature","properties":{"cislo":2037,"kod":26503,"mestskaCast":"praha-2"},"geometry":{"type":"Polygon","coordinates":[[[14.421616,50.075661],[14.422354,50.075636],[14.424083,50.075598],[14.424381,50.075588],[14.424565,50.075586],[14.42468,50.075578],[14.425488,50.075559],[14.425632,50.075145],[14.425534,50.075146],[14.425449,50.075147],[14.425336,50.075146],[14.42534,50.075129],[14.425365,50.075013],[14.425384,50.074924],[14.425425,50.074927],[14.425439,50.074929],[14.42555,50.074938],[14.425603,50.074952],[14.4257,50.074961],[14.425864,50.074522],[14.427073,50.074937],[14.427126,50.074951],[14.427206,50.074976],[14.428256,50.075341],[14.428426,50.075402],[14.428414,50.075494],[14.429047,50.075477],[14.429106,50.074736],[14.427262,50.07293],[14.42772,50.072149],[14.429338,50.072388],[14.429555,50.06972],[14.429543,50.069384],[14.429444,50.069384],[14.429375,50.069378],[14.428577,50.069352],[14.428588,50.069299],[14.427684,50.069174],[14.427598,50.069511],[14.427412,50.070248],[14.4278,50.070282],[14.427783,50.070625],[14.428289,50.070634],[14.428264,50.07075],[14.428195,50.07107],[14.428099,50.071325],[14.428089,50.07137],[14.427971,50.071659],[14.427833,50.071646],[14.427641,50.07162],[14.427558,50.071613],[14.42701,50.071537],[14.426626,50.071485],[14.426531,50.071468],[14.42649,50.071464],[14.426064,50.071408],[14.425995,50.071402],[14.425447,50.071326],[14.425378,50.07132],[14.425091,50.071277],[14.42483,50.071244],[14.42467,50.071203],[14.424523,50.071163],[14.424417,50.071135],[14.424254,50.071103],[14.424147,50.071075],[14.424027,50.071046],[14.423945,50.07103],[14.42389,50.071025],[14.423579,50.070961],[14.423486,50.070935],[14.42334,50.070895],[14.422979,50.070799],[14.422659,50.070716],[14.422459,50.070662],[14.422342,50.070616],[14.422262,50.070727],[14.422195,50.070839],[14.422137,50.070915],[14.422218,50.070931],[14.422634,50.071032],[14.422701,50.071047],[14.422756,50.071052],[14.422849,50.071078],[14.423481,50.071225],[14.423497,50.071807],[14.423547,50.071839],[14.423658,50.071912],[14.423766,50.072003],[14.423092,50.072779],[14.423056,50.072748],[14.423044,50.072738],[14.423031,50.072737],[14.422997,50.072698],[14.422577,50.072288],[14.421651,50.071934],[14.421548,50.071889],[14.421312,50.071804],[14.421195,50.071758],[14.420476,50.071494],[14.420385,50.071459],[14.420268,50.071412],[14.420202,50.071388],[14.419462,50.072212],[14.418924,50.072155],[14.418531,50.072084],[14.418291,50.072018],[14.41825,50.072077],[14.418125,50.072266],[14.418459,50.073276],[14.418465,50.073313],[14.41851,50.073435],[14.418538,50.073501],[14.419176,50.073485],[14.419937,50.073488],[14.420775,50.073526],[14.422026,50.07361],[14.422651,50.073656],[14.422526,50.074308],[14.422518,50.074343],[14.42214,50.074328],[14.422133,50.074427],[14.422128,50.074454],[14.422126,50.074463],[14.422122,50.074544],[14.422117,50.074571],[14.42211,50.07467],[14.422106,50.074688],[14.422096,50.074733],[14.422092,50.07475],[14.422089,50.074768],[14.422089,50.074832],[14.422078,50.074949],[14.422084,50.074986],[14.422083,50.074995],[14.422068,50.075193],[14.422061,50.075229],[14.422088,50.075231],[14.422087,50.07524],[14.422097,50.075323],[14.422111,50.075324],[14.422119,50.075352],[14.422105,50.07535],[14.422117,50.075361],[14.422115,50.07537],[14.421943,50.075382],[14.421916,50.075379],[14.42193,50.075444],[14.421774,50.075448],[14.421772,50.075394],[14.42173,50.07539],[14.421602,50.075397],[14.421604,50.075451],[14.42159,50.07545],[14.421563,50.075448],[14.421549,50.075446],[14.421571,50.075539],[14.421616,50.075661]]]}},{"type":"Feature","properties":{"cislo":2038,"kod":26505,"mestskaCast":"praha-2"},"geometry":{"type":"MultiPolygon","coordinates":[[[[14.421769,50.078723],[14.421713,50.078638],[14.42146,50.07817],[14.421268,50.077499],[14.422554,50.077438],[14.423892,50.077361],[14.424721,50.077326],[14.426333,50.077257],[14.426636,50.077247],[14.42661,50.077147],[14.427196,50.076181],[14.427485,50.075518],[14.428414,50.075494],[14.428426,50.075402],[14.428256,50.075341],[14.427206,50.074976],[14.427126,50.074951],[14.427073,50.074937],[14.425864,50.074522],[14.4257,50.074961],[14.425603,50.074952],[14.42555,50.074938],[14.425439,50.074929],[14.425425,50.074927],[14.425384,50.074924],[14.425365,50.075013],[14.42534,50.075129],[14.425336,50.075146],[14.425449,50.075147],[14.425534,50.075146],[14.425632,50.075145],[14.425488,50.075559],[14.42468,50.075578],[14.424565,50.075586],[14.424381,50.075588],[14.424083,50.075598],[14.422354,50.075636],[14.421616,50.075661],[14.419127,50.075822],[14.419419,50.077164],[14.419492,50.077479],[14.419533,50.077682],[14.419493,50.077869],[14.41948,50.077932],[14.420811,50.07804],[14.420949,50.078053],[14.42093,50.078142],[14.420895,50.078238],[14.420886,50.078283],[14.420884,50.078292],[14.420882,50.078301],[14.42088,50.07831],[14.420872,50.078345],[14.420865,50.078381],[14.420848,50.078461],[14.420817,50.07854],[14.420805,50.078593],[14.420863,50.078589],[14.420866,50.078572],[14.421106,50.078575],[14.421175,50.078581],[14.421159,50.078652],[14.421171,50.078662],[14.421241,50.078668],[14.421336,50.078686],[14.421529,50.078703],[14.421682,50.078716],[14.421765,50.078724],[14.421769,50.078723],[14.421769,50.078723]]],[[[14.431517,50.078418],[14.431517,50.078418],[14.431535,50.078411],[14.431483,50.078334],[14.431442,50.078272],[14.431446,50.07825],[14.431552,50.077678],[14.431396,50.077668],[14.430835,50.077634],[14.430703,50.077625],[14.43064,50.077621],[14.430521,50.077615],[14.430709,50.077847],[14.431289,50.07828],[14.431517,50.078418]]]]}},{"type":"Feature","properties":{"cislo":2039,"kod":26507,"mestskaCast":"praha-2"},"geometry":{"type":"Polygon","coordinates":[[[14.419612,50.079161],[14.420989,50.079128],[14.42201,50.079085],[14.421769,50.078723],[14.421769,50.078723],[14.421765,50.078724],[14.421682,50.078716],[14.421529,50.078703],[14.421336,50.078686],[14.421241,50.078668],[14.421171,50.078662],[14.421159,50.078652],[14.421175,50.078581],[14.421106,50.078575],[14.420866,50.078572],[14.420863,50.078589],[14.420805,50.078593],[14.420817,50.07854],[14.420848,50.078461],[14.420865,50.078381],[14.420872,50.078345],[14.42088,50.07831],[14.420882,50.078301],[14.420884,50.078292],[14.420886,50.078283],[14.420895,50.078238],[14.42093,50.078142],[14.420949,50.078053],[14.420811,50.07804],[14.41948,50.077932],[14.419493,50.077869],[14.419533,50.077682],[14.419492,50.077479],[14.419419,50.077164],[14.419127,50.075822],[14.41847,50.075863],[14.417741,50.075844],[14.417035,50.075782],[14.416631,50.075755],[14.416514,50.076348],[14.416531,50.07649],[14.415366,50.076559],[14.414752,50.076199],[14.414099,50.07632],[14.41439,50.07739],[14.415129,50.077437],[14.416391,50.07754],[14.416404,50.077543],[14.417701,50.07781],[14.417956,50.077869],[14.419525,50.07837],[14.419607,50.079161],[14.419612,50.079161]]]}},{"type":"Feature","properties":{"cislo":2040,"kod":26509,"mestskaCast":"praha-2"},"geometry":{"type":"Polygon","coordinates":[[[14.414099,50.07632],[14.414752,50.076199],[14.415366,50.076559],[14.416531,50.07649],[14.416514,50.076348],[14.416631,50.075755],[14.414714,50.075621],[14.415023,50.074178],[14.416142,50.074287],[14.417538,50.074419],[14.417453,50.073759],[14.417447,50.073722],[14.417354,50.073695],[14.417085,50.073635],[14.416236,50.073451],[14.415656,50.073327],[14.415423,50.073297],[14.415231,50.073271],[14.415035,50.073263],[14.414407,50.073234],[14.414268,50.073222],[14.414187,50.073206],[14.41411,50.073172],[14.413984,50.073034],[14.413721,50.07301],[14.41328,50.072962],[14.413128,50.072949],[14.412203,50.072858],[14.412197,50.072857],[14.412197,50.072857],[14.411981,50.073555],[14.4118,50.074138],[14.411543,50.075418],[14.411531,50.075488],[14.411513,50.075585],[14.411512,50.075592],[14.413872,50.075801],[14.414099,50.07632]]]}},{"type":"Feature","properties":{"cislo":2041,"kod":26511,"mestskaCast":"praha-2"},"geometry":{"type":"Polygon","coordinates":[[[14.417447,50.073722],[14.417453,50.073759],[14.417538,50.074419],[14.416142,50.074287],[14.415023,50.074178],[14.414714,50.075621],[14.416631,50.075755],[14.417035,50.075782],[14.417741,50.075844],[14.41847,50.075863],[14.419127,50.075822],[14.421616,50.075661],[14.421571,50.075539],[14.421549,50.075446],[14.421563,50.075448],[14.42159,50.07545],[14.421604,50.075451],[14.421602,50.075397],[14.42173,50.07539],[14.421772,50.075394],[14.421774,50.075448],[14.42193,50.075444],[14.421916,50.075379],[14.421943,50.075382],[14.422115,50.07537],[14.422117,50.075361],[14.422105,50.07535],[14.422119,50.075352],[14.422111,50.075324],[14.422097,50.075323],[14.422087,50.07524],[14.422088,50.075231],[14.422061,50.075229],[14.422068,50.075193],[14.422083,50.074995],[14.422084,50.074986],[14.422078,50.074949],[14.422089,50.074832],[14.422089,50.074768],[14.422092,50.07475],[14.422096,50.074733],[14.422106,50.074688],[14.42211,50.07467],[14.422117,50.074571],[14.422122,50.074544],[14.422126,50.074463],[14.422128,50.074454],[14.422133,50.074427],[14.42214,50.074328],[14.422518,50.074343],[14.422526,50.074308],[14.422651,50.073656],[14.422026,50.07361],[14.420775,50.073526],[14.419937,50.073488],[14.419176,50.073485],[14.418538,50.073501],[14.418631,50.073787],[14.417447,50.073722]]]}}]}
