{"type":"FeatureCollection","features":[{"type":"Feature","properties":{"cislo":9001,"kod":28215,"mestskaCast":"praha-9"},"geometry":{"type":"Polygon","coordinates":[[[14.488544,50.098229],[14.48854,50.098229],[14.485426,50.0977],[14.48542,50.097699],[14.482228,50.097152],[14.482121,50.097317],[14.4821,50.097345],[14.4821,50.097345],[14.482101,50.097345],[14.481898,50.098035],[14.482451,50.098156],[14.483207,50.09825],[14.483722,50.099012],[14.485283,50.099168],[14.485109,50.099987],[14.487162,50.100349],[14.487064,50.100812],[14.488328,50.100905],[14.487852,50.100355],[14.489916,50.100537],[14.489514,50.100102],[14.487535,50.099193],[14.487521,50.099192],[14.487537,50.099184],[14.487546,50.09914],[14.487652,50.09904],[14.487965,50.099095],[14.488113,50.099126],[14.488372,50.098704],[14.488543,50.098233],[14.488544,50.098229],[14.488544,50.098229]]]}},{"type":"Feature","properties":{"cislo":9002,"kod":28217,"mestskaCast":"praha-9"},"geometry":{"type":"Polygon","coordinates":[[[14.478791,50.097126],[14.479255,50.097194],[14.481879,50.098523],[14.485037,50.10019],[14.485506,50.10024],[14.485453,50.100489],[14.485658,50.100589],[14.486781,50.101014],[14.487712,50.101478],[14.488457,50.101625],[14.488746,50.101659],[14.489527,50.101637],[14.490677,50.101602],[14.492056,50.101551],[14.493234,50.101319],[14.493215,50.101208],[14.493806,50.101151],[14.493881,50.10113],[14.493888,50.101031],[14.496033,50.101229],[14.496038,50.101202],[14.49702,50.101297],[14.497685,50.101356],[14.497989,50.101383],[14.498305,50.101356],[14.499259,50.101249],[14.499277,50.101232],[14.499507,50.101144],[14.499598,50.101115],[14.499768,50.101112],[14.499871,50.101158],[14.500016,50.100807],[14.499854,50.100376],[14.49984,50.100374],[14.499561,50.100159],[14.497545,50.100218],[14.495905,50.100301],[14.494855,50.100463],[14.495214,50.099369],[14.493605,50.09911],[14.493877,50.098889],[14.493881,50.098887],[14.493881,50.098887],[14.493751,50.098788],[14.493358,50.098486],[14.492979,50.098195],[14.492968,50.098187],[14.492195,50.098531],[14.49147,50.098629],[14.491489,50.098729],[14.488544,50.098229],[14.488544,50.098229],[14.488543,50.098233],[14.488372,50.098704],[14.488113,50.099126],[14.487965,50.099095],[14.487652,50.09904],[14.487546,50.09914],[14.487537,50.099184],[14.487521,50.099192],[14.487535,50.099193],[14.489514,50.100102],[14.489916,50.100537],[14.487852,50.100355],[14.488328,50.100905],[14.487064,50.100812],[14.487162,50.100349],[14.485109,50.099987],[14.485283,50.099168],[14.483722,50.099012],[14.483207,50.09825],[14.482451,50.098156],[14.481898,50.098035],[14.482101,50.097345],[14.4821,50.097345],[14.4821,50.097345],[14.482099,50.097346],[14.482071,50.097336],[14.482065,50.097333],[14.481018,50.097059],[14.48027,50.096863],[14.480264,50.09688],[14.479612,50.096776],[14.479643,50.096698],[14.479161,50.096572],[14.479159,50.096571],[14.479012,50.096788],[14.478861,50.09701],[14.478834,50.097049],[14.478791,50.097126],[14.478791,50.097126]]]}},{"type":"Feature","properties":{"cislo":9003,"kod":28219,"mestskaCast":"praha-9"},"geometry":{"type":"Polygon","coordinates":[[[14.503506,50.108228],[14.503625,50.107268],[14.50401,50.104924],[14.511877,50.105215],[14.512051,50.105394],[14.51248,50.105368],[14.512763,50.105384],[14.512906,50.103877],[14.512182,50.103803],[14.512238,50.103159],[14.512974,50.103192],[14.513006,50.102857],[14.513442,50.100372],[14.513512,50.09983],[14.51362,50.099487],[14.513115,50.099251],[14.513024,50.099234],[14.512133,50.098935],[14.51174,50.09877],[14.510677,50.098446],[14.510354,50.098256],[14.509705,50.098116],[14.509347,50.097956],[14.509203,50.097921],[14.508168,50.097621],[14.506672,50.09732],[14.506125,50.097158],[14.50604,50.097226],[14.505992,50.097325],[14.506001,50.097444],[14.505971,50.097486],[14.505815,50.097466],[14.505579,50.097414],[14.504531,50.097348],[14.50368,50.097271],[14.503695,50.097214],[14.501865,50.09693],[14.500385,50.096835],[14.499553,50.09676],[14.498905,50.096668],[14.498893,50.096726],[14.498317,50.096695],[14.497876,50.09663],[14.496897,50.096538],[14.496124,50.096513],[14.495961,50.096386],[14.495954,50.096386],[14.495954,50.096388],[14.495866,50.096681],[14.495808,50.096814],[14.495731,50.096954],[14.495555,50.097181],[14.494893,50.097863],[14.494205,50.098555],[14.493883,50.098888],[14.493881,50.098887],[14.493881,50.098887],[14.493877,50.098889],[14.493605,50.09911],[14.495214,50.099369],[14.494855,50.100463],[14.495905,50.100301],[14.497545,50.100218],[14.499561,50.100159],[14.49984,50.100374],[14.499854,50.100376],[14.500016,50.100807],[14.499871,50.101158],[14.499905,50.101197],[14.499998,50.101423],[14.500064,50.10151],[14.499019,50.101582],[14.498889,50.101598],[14.49748,50.101855],[14.497525,50.101977],[14.497195,50.102066],[14.497067,50.102073],[14.497085,50.10212],[14.497934,50.102439],[14.498126,50.102665],[14.498436,50.1034],[14.499249,50.104887],[14.499372,50.104907],[14.497695,50.105558],[14.502766,50.104933],[14.50262,50.105691],[14.502055,50.107819],[14.503506,50.108228]]]}},{"type":"Feature","properties":{"cislo":9004,"kod":104594,"mestskaCast":"praha-9"},"geometry":{"type":"Polygon","coordinates":[[[14.529413,50.104485],[14.531233,50.104907],[14.531258,50.104699],[14.531263,50.104662],[14.531361,50.104303],[14.531483,50.104093],[14.531869,50.103658],[14.532722,50.102837],[14.53299,50.10251],[14.533089,50.102307],[14.533153,50.10197],[14.533139,50.101731],[14.5331,50.101575],[14.533039,50.101415],[14.53292,50.101213],[14.532765,50.101015],[14.532644,50.10089],[14.532417,50.100683],[14.532165,50.100464],[14.531834,50.100171],[14.531443,50.099809],[14.531235,50.099588],[14.531131,50.099454],[14.531091,50.099388],[14.530931,50.099122],[14.530775,50.098776],[14.530655,50.098486],[14.530437,50.097893],[14.530373,50.097672],[14.530314,50.097436],[14.530293,50.097328],[14.530292,50.097326],[14.530277,50.097235],[14.530271,50.097236],[14.529574,50.097247],[14.528968,50.097269],[14.528596,50.097291],[14.527979,50.09736],[14.527281,50.097474],[14.526218,50.09773],[14.525262,50.098041],[14.520706,50.099763],[14.518866,50.100046],[14.518028,50.100256],[14.51688,50.100479],[14.516069,50.100568],[14.514654,50.100476],[14.513442,50.100372],[14.513006,50.102857],[14.512974,50.103192],[14.512238,50.103159],[14.512182,50.103803],[14.512906,50.103877],[14.512763,50.105384],[14.513386,50.10542],[14.513762,50.105444],[14.514075,50.105498],[14.514235,50.10554],[14.514497,50.105635],[14.514769,50.10575],[14.51805,50.10738],[14.518296,50.107484],[14.518534,50.107559],[14.518899,50.107636],[14.519172,50.107678],[14.519643,50.10772],[14.521923,50.107611],[14.522312,50.107573],[14.522784,50.107478],[14.525506,50.106618],[14.525783,50.106443],[14.525996,50.106235],[14.526182,50.105824],[14.526627,50.105519],[14.527818,50.105024],[14.528309,50.104441],[14.528433,50.104252],[14.529414,50.104483],[14.529413,50.104485],[14.529413,50.104485]]]}},{"type":"Feature","properties":{"cislo":9005,"kod":28221,"mestskaCast":"praha-9"},"geometry":{"type":"MultiPolygon","coordinates":[[[[14.506353,50.109776],[14.506373,50.110413],[14.506628,50.110408],[14.506604,50.109789],[14.506436,50.109783],[14.506353,50.109776]]],[[[14.503506,50.108228],[14.504595,50.108415],[14.505541,50.108479],[14.50669,50.108453],[14.506748,50.109574],[14.50723,50.109562],[14.507678,50.110246],[14.507691,50.11032],[14.508197,50.110527],[14.508625,50.110238],[14.509078,50.110233],[14.509645,50.1106],[14.509771,50.108361],[14.507705,50.108388],[14.50774,50.107892],[14.5078,50.107407],[14.507726,50.106629],[14.507723,50.106375],[14.507628,50.106358],[14.507575,50.106344],[14.507533,50.10634],[14.507381,50.105928],[14.507576,50.105936],[14.509422,50.106016],[14.510084,50.105956],[14.510967,50.105716],[14.51167,50.10546],[14.512051,50.105394],[14.511877,50.105215],[14.50401,50.104924],[14.503625,50.107268],[14.503506,50.108228]]]]}},{"type":"Feature","properties":{"cislo":9006,"kod":28223,"mestskaCast":"praha-9"},"geometry":{"type":"Polygon","coordinates":[[[14.509645,50.1106],[14.516053,50.11061],[14.517833,50.110594],[14.525473,50.110299],[14.531236,50.109994],[14.531368,50.109515],[14.531443,50.108988],[14.531575,50.107957],[14.531577,50.107659],[14.531492,50.106796],[14.531451,50.106364],[14.531121,50.106374],[14.531071,50.106376],[14.53093,50.106382],[14.5307,50.106383],[14.530493,50.106377],[14.530263,50.106365],[14.530063,50.106351],[14.529865,50.106333],[14.529656,50.106304],[14.52946,50.106274],[14.52943,50.106269],[14.529454,50.10618],[14.529207,50.106242],[14.529122,50.106263],[14.529118,50.106264],[14.529029,50.106285],[14.529412,50.104485],[14.529413,50.104485],[14.529413,50.104485],[14.529414,50.104483],[14.528433,50.104252],[14.528309,50.104441],[14.527818,50.105024],[14.526627,50.105519],[14.526182,50.105824],[14.525996,50.106235],[14.525783,50.106443],[14.525506,50.106618],[14.522784,50.107478],[14.522312,50.107573],[14.521923,50.107611],[14.519643,50.10772],[14.519172,50.107678],[14.518899,50.107636],[14.518534,50.107559],[14.518296,50.107484],[14.51805,50.10738],[14.514769,50.10575],[14.514497,50.105635],[14.514235,50.10554],[14.514075,50.105498],[14.513762,50.105444],[14.513386,50.10542],[14.512763,50.105384],[14.51248,50.105368],[14.512051,50.105394],[14.51167,50.10546],[14.510967,50.105716],[14.510084,50.105956],[14.509422,50.106016],[14.507576,50.105936],[14.507381,50.105928],[14.507533,50.10634],[14.507575,50.106344],[14.507628,50.106358],[14.507723,50.106375],[14.507726,50.106629],[14.5078,50.107407],[14.50774,50.107892],[14.507705,50.108388],[14.509771,50.108361],[14.509645,50.1106]]]}},{"type":"Feature","properties":{"cislo":9007,"kod":189633,"mestskaCast":"praha-9"},"geometry":{"type":"Polygon","coordinates":[[[14.531288,50.11129],[14.531225,50.111066],[14.531082,50.110552],[14.531193,50.110148],[14.531236,50.109994],[14.525473,50.110299],[14.517833,50.110594],[14.516053,50.11061],[14.509645,50.1106],[14.509078,50.110233],[14.508625,50.110238],[14.508197,50.110527],[14.507691,50.11032],[14.507678,50.110246],[14.50723,50.109562],[14.506748,50.109574],[14.50669,50.108453],[14.505541,50.108479],[14.504595,50.108415],[14.503506,50.108228],[14.502055,50.107819],[14.501744,50.109017],[14.501896,50.109965],[14.502158,50.110524],[14.502431,50.111101],[14.502496,50.111261],[14.503781,50.111519],[14.505166,50.111577],[14.505076,50.112531],[14.507307,50.112591],[14.508542,50.11269],[14.509117,50.112777],[14.512726,50.113456],[14.513833,50.113626],[14.515567,50.113769],[14.51633,50.113763],[14.518017,50.113593],[14.519572,50.113249],[14.520392,50.112976],[14.523238,50.111864],[14.524165,50.111619],[14.525098,50.111473],[14.525762,50.111405],[14.526656,50.111383],[14.529096,50.111452],[14.530492,50.111392],[14.531288,50.11129]],[[14.506353,50.109776],[14.506436,50.109783],[14.506604,50.109789],[14.506628,50.110408],[14.506373,50.110413],[14.506353,50.109776]]]}},{"type":"Feature","properties":{"cislo":9008,"kod":28225,"mestskaCast":"praha-9"},"geometry":{"type":"Polygon","coordinates":[[[14.521771,50.126176],[14.522739,50.126081],[14.523169,50.12605],[14.523979,50.126012],[14.524267,50.125997],[14.524553,50.125969],[14.524526,50.125637],[14.524418,50.124778],[14.524002,50.124546],[14.523647,50.124374],[14.523781,50.123997],[14.523826,50.123759],[14.523852,50.123422],[14.523826,50.123032],[14.524452,50.123013],[14.525302,50.122979],[14.525446,50.122973],[14.52542,50.122858],[14.525416,50.122843],[14.525371,50.122648],[14.525368,50.122635],[14.525174,50.121786],[14.525168,50.121763],[14.525175,50.121739],[14.525188,50.12169],[14.525202,50.121641],[14.525202,50.121641],[14.525208,50.121616],[14.52525,50.121612],[14.52598,50.121529],[14.526601,50.121459],[14.526805,50.121435],[14.52728,50.12138],[14.527571,50.121346],[14.527552,50.121275],[14.52755,50.12127],[14.527474,50.120992],[14.527412,50.120764],[14.527393,50.120695],[14.527373,50.120647],[14.527322,50.120528],[14.527029,50.119836],[14.527002,50.119771],[14.526802,50.119298],[14.52659,50.118798],[14.526508,50.118231],[14.526477,50.117924],[14.526552,50.117915],[14.527048,50.117857],[14.527588,50.117794],[14.528259,50.117716],[14.528562,50.11768],[14.528722,50.117666],[14.529787,50.117574],[14.531052,50.117383],[14.531097,50.117376],[14.5311,50.117375],[14.531122,50.117372],[14.531116,50.117353],[14.530865,50.116587],[14.530726,50.115976],[14.530724,50.115939],[14.529871,50.115974],[14.529634,50.115958],[14.529634,50.115911],[14.529631,50.115663],[14.529618,50.11558],[14.529588,50.115377],[14.529576,50.115299],[14.529571,50.115268],[14.52957,50.11526],[14.529567,50.115242],[14.529551,50.115137],[14.52955,50.115127],[14.529549,50.115123],[14.529547,50.115109],[14.529539,50.115054],[14.529536,50.115036],[14.529531,50.115001],[14.529491,50.114973],[14.529396,50.114902],[14.529247,50.114791],[14.529088,50.114629],[14.52904,50.11452],[14.52904,50.114518],[14.529036,50.11451],[14.529004,50.114437],[14.528922,50.114291],[14.528901,50.114254],[14.528875,50.114207],[14.528827,50.114121],[14.528789,50.114065],[14.528711,50.11395],[14.52866,50.113875],[14.528648,50.113857],[14.528633,50.113829],[14.528591,50.113752],[14.528571,50.113714],[14.528514,50.113607],[14.528475,50.113589],[14.528371,50.113543],[14.528345,50.113531],[14.528344,50.11353],[14.528229,50.11349],[14.528177,50.113471],[14.528795,50.113225],[14.530151,50.112698],[14.530603,50.112514],[14.530728,50.112461],[14.531022,50.112265],[14.531194,50.112084],[14.531326,50.111868],[14.531407,50.11173],[14.531408,50.11157],[14.531371,50.111519],[14.531358,50.111501],[14.531341,50.111479],[14.531289,50.111292],[14.531288,50.11129],[14.530492,50.111392],[14.529096,50.111452],[14.526656,50.111383],[14.525762,50.111405],[14.525098,50.111473],[14.524165,50.111619],[14.523238,50.111864],[14.520392,50.112976],[14.519572,50.113249],[14.518017,50.113593],[14.51633,50.113763],[14.515567,50.113769],[14.513833,50.113626],[14.512726,50.113456],[14.509117,50.112777],[14.508542,50.11269],[14.507307,50.112591],[14.505076,50.112531],[14.501585,50.112424],[14.500326,50.112441],[14.499245,50.112546],[14.498809,50.112607],[14.497117,50.112667],[14.496006,50.112715],[14.496106,50.11198],[14.494345,50.112034],[14.492242,50.11212],[14.492242,50.11212],[14.492237,50.112199],[14.492228,50.112347],[14.49219,50.112338],[14.491959,50.112284],[14.491734,50.112258],[14.491729,50.112272],[14.491657,50.112531],[14.491655,50.112537],[14.491645,50.112573],[14.491644,50.112578],[14.491629,50.112632],[14.491674,50.112637],[14.491656,50.112682],[14.491637,50.112731],[14.491631,50.112744],[14.491596,50.112834],[14.491566,50.112886],[14.491556,50.112904],[14.491542,50.112929],[14.491449,50.112949],[14.491444,50.11295],[14.491195,50.113003],[14.491129,50.113016],[14.491108,50.113021],[14.490777,50.113027],[14.490558,50.113069],[14.4905,50.113081],[14.490354,50.113171],[14.490346,50.11318],[14.490223,50.113307],[14.489988,50.113594],[14.48986,50.113671],[14.489825,50.113692],[14.489801,50.113695],[14.489178,50.113777],[14.489158,50.113779],[14.489066,50.113801],[14.488919,50.113836],[14.488902,50.113841],[14.488706,50.113901],[14.488595,50.11399],[14.488553,50.114024],[14.488513,50.114053],[14.488556,50.11411],[14.488558,50.114115],[14.488622,50.114335],[14.488737,50.114636],[14.488808,50.114794],[14.488875,50.114944],[14.488841,50.115022],[14.489731,50.115283],[14.48973,50.115285],[14.48973,50.115285],[14.48973,50.115285],[14.49041,50.115472],[14.492172,50.115817],[14.492161,50.115735],[14.492087,50.115619],[14.492688,50.115581],[14.495001,50.115186],[14.494964,50.114965],[14.495308,50.115004],[14.495347,50.114953],[14.49559,50.114874],[14.49569,50.114801],[14.49644,50.114858],[14.496796,50.114844],[14.496922,50.115046],[14.497388,50.115177],[14.497839,50.11538],[14.498808,50.115402],[14.499845,50.115502],[14.500517,50.115797],[14.500721,50.116096],[14.503183,50.116067],[14.504047,50.116116],[14.505693,50.116342],[14.506436,50.116498],[14.507189,50.116809],[14.507959,50.117167],[14.508535,50.118778],[14.508583,50.118819],[14.508806,50.118829],[14.508532,50.119323],[14.508248,50.119933],[14.50812,50.120266],[14.507988,50.12069],[14.507889,50.12109],[14.507851,50.121668],[14.507859,50.121695],[14.507892,50.121943],[14.507982,50.122251],[14.507992,50.12227],[14.50799,50.122279],[14.508052,50.122384],[14.508215,50.122616],[14.508867,50.123399],[14.509035,50.123604],[14.509234,50.123867],[14.509346,50.124067],[14.509465,50.124305],[14.509694,50.124824],[14.509956,50.125579],[14.509956,50.125579],[14.510028,50.12556],[14.510098,50.12554],[14.510177,50.125518],[14.510425,50.125442],[14.510749,50.125336],[14.51115,50.125196],[14.511156,50.125194],[14.511236,50.125165],[14.51126,50.125156],[14.511343,50.125125],[14.511344,50.125124],[14.511355,50.12512],[14.511372,50.125114],[14.511399,50.125104],[14.511511,50.125063],[14.511771,50.124966],[14.512189,50.124803],[14.512267,50.124772],[14.512314,50.124754],[14.512396,50.124722],[14.512465,50.124696],[14.512531,50.12467],[14.512573,50.124654],[14.512684,50.124611],[14.512836,50.124552],[14.512911,50.124524],[14.51341,50.124324],[14.513896,50.124156],[14.514235,50.124304],[14.514778,50.124156],[14.515473,50.123977],[14.515761,50.123898],[14.516248,50.123756],[14.516342,50.123734],[14.516424,50.123714],[14.516595,50.123673],[14.516601,50.123671],[14.516678,50.123644],[14.51668,50.123643],[14.516785,50.123605],[14.517228,50.123419],[14.51768,50.123209],[14.518049,50.123021],[14.518227,50.122924],[14.518427,50.1228],[14.518778,50.122956],[14.518379,50.123212],[14.519008,50.123707],[14.519558,50.124124],[14.520303,50.124746],[14.520845,50.124575],[14.521087,50.124902],[14.521282,50.125239],[14.521546,50.125743],[14.521771,50.126176]]]}},{"type":"Feature","properties":{"cislo":9009,"kod":28227,"mestskaCast":"praha-9"},"geometry":{"type":"Polygon","coordinates":[[[14.502431,50.111101],[14.502158,50.110524],[14.501896,50.109965],[14.501744,50.109017],[14.502055,50.107819],[14.50262,50.105691],[14.497315,50.106686],[14.496513,50.106743],[14.495661,50.106632],[14.494644,50.106307],[14.493063,50.1083],[14.494464,50.10875],[14.495993,50.10932],[14.496269,50.109417],[14.497209,50.109245],[14.497384,50.109415],[14.49852,50.109451],[14.499551,50.109578],[14.499578,50.110116],[14.500179,50.110078],[14.500645,50.110073],[14.500727,50.110552],[14.501371,50.110709],[14.501554,50.110779],[14.501569,50.110771],[14.501816,50.110875],[14.502091,50.110972],[14.50226,50.111041],[14.502431,50.111101]]]}},{"type":"Feature","properties":{"cislo":9010,"kod":28229,"mestskaCast":"praha-9"},"geometry":{"type":"MultiPolygon","coordinates":[[[[14.505076,50.112531],[14.505166,50.111577],[14.503781,50.111519],[14.502496,50.111261],[14.502259,50.111376],[14.502106,50.111499],[14.50195,50.11144],[14.501882,50.111425],[14.501727,50.111357],[14.501564,50.111061],[14.50146,50.110952],[14.501024,50.110814],[14.500775,50.111056],[14.500676,50.111256],[14.49983,50.111054],[14.499961,50.110839],[14.499491,50.110725],[14.499423,50.11071],[14.499418,50.110737],[14.499373,50.110815],[14.499238,50.110785],[14.499217,50.110819],[14.49915,50.110804],[14.499169,50.110778],[14.499102,50.110763],[14.49903,50.110902],[14.498735,50.110831],[14.498758,50.110788],[14.498583,50.110745],[14.498733,50.110504],[14.498544,50.110333],[14.498223,50.110251],[14.497669,50.110266],[14.497229,50.110345],[14.497026,50.110572],[14.497924,50.11086],[14.497572,50.111918],[14.496106,50.11198],[14.496006,50.112715],[14.497117,50.112667],[14.498809,50.112607],[14.499245,50.112546],[14.500326,50.112441],[14.501585,50.112424],[14.505076,50.112531]]],[[[14.495762,50.110806],[14.495759,50.110824],[14.495771,50.110834],[14.495769,50.110843],[14.495765,50.110861],[14.495763,50.11087],[14.495771,50.110897],[14.495778,50.110998],[14.495784,50.111035],[14.495783,50.111044],[14.495787,50.111089],[14.495971,50.111087],[14.496028,50.111083],[14.496072,50.111078],[14.496085,50.111079],[14.496092,50.111116],[14.496277,50.111105],[14.496335,50.111101],[14.496337,50.111092],[14.49656,50.111103],[14.496562,50.111094],[14.496586,50.110915],[14.496602,50.110907],[14.496607,50.11088],[14.49658,50.110878],[14.496585,50.110851],[14.496587,50.110842],[14.496593,50.110815],[14.496589,50.11077],[14.495762,50.110806]]],[[[14.50262,50.105691],[14.502766,50.104933],[14.497695,50.105558],[14.497063,50.105811],[14.496908,50.10528],[14.493253,50.105812],[14.494644,50.106307],[14.495661,50.106632],[14.496513,50.106743],[14.497315,50.106686],[14.50262,50.105691]]]]}},{"type":"Feature","properties":{"cislo":9011,"kod":28231,"mestskaCast":"praha-9"},"geometry":{"type":"Polygon","coordinates":[[[14.492239,50.112116],[14.492242,50.112116],[14.492242,50.11212],[14.492242,50.11212],[14.494345,50.112034],[14.496106,50.11198],[14.497572,50.111918],[14.497924,50.11086],[14.497026,50.110572],[14.497229,50.110345],[14.497669,50.110266],[14.498223,50.110251],[14.498544,50.110333],[14.498733,50.110504],[14.498583,50.110745],[14.498758,50.110788],[14.498735,50.110831],[14.49903,50.110902],[14.499102,50.110763],[14.499169,50.110778],[14.49915,50.110804],[14.499217,50.110819],[14.499238,50.110785],[14.499373,50.110815],[14.499418,50.110737],[14.499423,50.11071],[14.499491,50.110725],[14.499961,50.110839],[14.49983,50.111054],[14.500676,50.111256],[14.500775,50.111056],[14.501024,50.110814],[14.50146,50.110952],[14.501564,50.111061],[14.501727,50.111357],[14.501882,50.111425],[14.50195,50.11144],[14.502106,50.111499],[14.502259,50.111376],[14.502496,50.111261],[14.502431,50.111101],[14.50226,50.111041],[14.502091,50.110972],[14.501816,50.110875],[14.501569,50.110771],[14.501554,50.110779],[14.501371,50.110709],[14.500727,50.110552],[14.500645,50.110073],[14.500179,50.110078],[14.499578,50.110116],[14.499551,50.109578],[14.49852,50.109451],[14.497384,50.109415],[14.497209,50.109245],[14.496269,50.109417],[14.496065,50.109517],[14.495324,50.109815],[14.494763,50.109929],[14.494391,50.110023],[14.494055,50.110075],[14.493668,50.110105],[14.493655,50.11043],[14.493779,50.111176],[14.493465,50.111194],[14.493206,50.111217],[14.493074,50.111241],[14.492924,50.111283],[14.492557,50.111414],[14.492548,50.111458],[14.49243,50.111548],[14.492488,50.111671],[14.492218,50.111683],[14.492265,50.111724],[14.492239,50.112112],[14.492239,50.112116]],[[14.495762,50.110806],[14.496589,50.11077],[14.496593,50.110815],[14.496587,50.110842],[14.496585,50.110851],[14.49658,50.110878],[14.496607,50.11088],[14.496602,50.110907],[14.496586,50.110915],[14.496562,50.111094],[14.49656,50.111103],[14.496337,50.111092],[14.496335,50.111101],[14.496277,50.111105],[14.496092,50.111116],[14.496085,50.111079],[14.496072,50.111078],[14.496028,50.111083],[14.495971,50.111087],[14.495787,50.111089],[14.495783,50.111044],[14.495784,50.111035],[14.495778,50.110998],[14.495771,50.110897],[14.495763,50.11087],[14.495765,50.110861],[14.495769,50.110843],[14.495771,50.110834],[14.495759,50.110824],[14.495762,50.110806]]]}},{"type":"Feature","properties":{"cislo":9012,"kod":28233,"mestskaCast":"praha-9"},"geometry":{"type":"MultiPolygon","coordinates":[[[[14.493063,50.1083],[14.494644,50.106307],[14.493253,50.105812],[14.491178,50.105085],[14.490973,50.105321],[14.490862,50.105448],[14.491282,50.105594],[14.491395,50.105458],[14.491633,50.105534],[14.491752,50.105571],[14.490268,50.10731],[14.493063,50.1083]]],[[[14.49024,50.106183],[14.490464,50.106257],[14.490597,50.106096],[14.490373,50.106022],[14.49024,50.106183]]],[[[14.486172,50.104346],[14.486263,50.104381],[14.486289,50.104392],[14.486459,50.104453],[14.486561,50.104371],[14.486632,50.104305],[14.486648,50.104297],[14.486685,50.104255],[14.486751,50.104206],[14.486771,50.104181],[14.486822,50.10414],[14.486857,50.104107],[14.486794,50.104074],[14.486782,50.104064],[14.48673,50.104041],[14.486716,50.10404],[14.486718,50.104031],[14.486373,50.104327],[14.486335,50.104306],[14.486357,50.104271],[14.486443,50.104197],[14.486415,50.104195],[14.4864,50.104202],[14.486376,50.104182],[14.486338,50.104161],[14.486285,50.104211],[14.486265,50.104236],[14.486172,50.104346]]],[[[14.487724,50.103947],[14.487579,50.103898],[14.487348,50.103923],[14.48726,50.104006],[14.487426,50.104084],[14.487477,50.104043],[14.487535,50.104039],[14.487626,50.104074],[14.487724,50.103947]]]]}},{"type":"Feature","properties":{"cislo":9013,"kod":28235,"mestskaCast":"praha-9"},"geometry":{"type":"MultiPolygon","coordinates":[[[[14.487981,50.106519],[14.490268,50.10731],[14.491752,50.105571],[14.491633,50.105534],[14.491395,50.105458],[14.491282,50.105594],[14.490862,50.105448],[14.490973,50.105321],[14.491178,50.105085],[14.489657,50.104543],[14.487981,50.106519]],[[14.49024,50.106183],[14.490373,50.106022],[14.490597,50.106096],[14.490464,50.106257],[14.49024,50.106183]]],[[[14.487724,50.103947],[14.487626,50.104074],[14.487419,50.104319],[14.487774,50.104441],[14.488091,50.104079],[14.487724,50.103947]]]]}},{"type":"Feature","properties":{"cislo":9014,"kod":28237,"mestskaCast":"praha-9"},"geometry":{"type":"MultiPolygon","coordinates":[[[[14.487981,50.106519],[14.489657,50.104543],[14.491178,50.105085],[14.493253,50.105812],[14.496908,50.10528],[14.497063,50.105811],[14.497695,50.105558],[14.499372,50.104907],[14.499249,50.104887],[14.498436,50.1034],[14.498126,50.102665],[14.497934,50.102439],[14.497085,50.10212],[14.497067,50.102073],[14.497195,50.102066],[14.497525,50.101977],[14.49748,50.101855],[14.498889,50.101598],[14.499019,50.101582],[14.500064,50.10151],[14.499998,50.101423],[14.499905,50.101197],[14.499871,50.101158],[14.499768,50.101112],[14.499598,50.101115],[14.499507,50.101144],[14.499277,50.101232],[14.499259,50.101249],[14.498305,50.101356],[14.497989,50.101383],[14.497685,50.101356],[14.49702,50.101297],[14.496038,50.101202],[14.496033,50.101229],[14.493888,50.101031],[14.493881,50.10113],[14.493806,50.101151],[14.493215,50.101208],[14.493234,50.101319],[14.492056,50.101551],[14.490677,50.101602],[14.489527,50.101637],[14.488746,50.101659],[14.488457,50.101625],[14.487712,50.101478],[14.486781,50.101014],[14.485658,50.100589],[14.485453,50.100489],[14.485506,50.10024],[14.485037,50.10019],[14.481879,50.098523],[14.479255,50.097194],[14.478791,50.097126],[14.47875,50.097201],[14.478655,50.097375],[14.478485,50.097706],[14.479316,50.098167],[14.47982,50.098444],[14.479898,50.098499],[14.480288,50.098795],[14.480688,50.099187],[14.480963,50.099619],[14.481005,50.099764],[14.481139,50.099772],[14.481292,50.100302],[14.481478,50.100625],[14.481711,50.100928],[14.481979,50.101219],[14.482311,50.101485],[14.482474,50.101586],[14.482687,50.101721],[14.483162,50.101925],[14.483676,50.102133],[14.483669,50.102132],[14.483669,50.102132],[14.483678,50.102139],[14.484806,50.102275],[14.486145,50.10261],[14.486911,50.102659],[14.487288,50.103872],[14.485764,50.105199],[14.485842,50.105233],[14.486021,50.105322],[14.486173,50.105399],[14.486119,50.105457],[14.48608,50.105508],[14.486081,50.105499],[14.48604,50.105496],[14.486014,50.105484],[14.485988,50.105473],[14.485907,50.105457],[14.485883,50.105437],[14.485869,50.105435],[14.485844,50.105424],[14.485704,50.105348],[14.485691,50.105347],[14.485627,50.105314],[14.485299,50.105594],[14.485615,50.105703],[14.486232,50.105921],[14.487112,50.106225],[14.487981,50.106519]],[[14.487724,50.103947],[14.488091,50.104079],[14.487774,50.104441],[14.487419,50.104319],[14.487626,50.104074],[14.487535,50.104039],[14.487477,50.104043],[14.487426,50.104084],[14.48726,50.104006],[14.487348,50.103923],[14.487579,50.103898],[14.487724,50.103947]]],[[[14.489173,50.108612],[14.489879,50.107812],[14.488263,50.107252],[14.487897,50.10771],[14.488175,50.107798],[14.487874,50.108153],[14.488039,50.108303],[14.489173,50.108612]]],[[[14.483324,50.103469],[14.483368,50.103528],[14.483508,50.103467],[14.483522,50.103468],[14.484259,50.103188],[14.484304,50.103174],[14.484381,50.103145],[14.484442,50.103123],[14.484474,50.103107],[14.48446,50.103106],[14.483789,50.103075],[14.483651,50.103062],[14.483635,50.10307],[14.483527,50.103115],[14.483495,50.10313],[14.483481,50.103129],[14.483458,50.103172],[14.483437,50.103207],[14.483435,50.103216],[14.483396,50.10333],[14.483371,50.103383],[14.483324,50.103469]]]]}},{"type":"Feature","properties":{"cislo":9015,"kod":28239,"mestskaCast":"praha-9"},"geometry":{"type":"Polygon","coordinates":[[[14.485299,50.105594],[14.485627,50.105314],[14.485691,50.105347],[14.485704,50.105348],[14.485844,50.105424],[14.485869,50.105435],[14.485883,50.105437],[14.485907,50.105457],[14.485988,50.105473],[14.486014,50.105484],[14.48604,50.105496],[14.486081,50.105499],[14.48608,50.105508],[14.486119,50.105457],[14.486173,50.105399],[14.486021,50.105322],[14.485842,50.105233],[14.485764,50.105199],[14.487288,50.103872],[14.486911,50.102659],[14.486145,50.10261],[14.484806,50.102275],[14.483678,50.102139],[14.483669,50.102132],[14.483669,50.102132],[14.48236,50.101838],[14.48171,50.101643],[14.480823,50.101264],[14.480787,50.101247],[14.480771,50.101395],[14.480769,50.101413],[14.480768,50.101422],[14.480762,50.101501],[14.480757,50.101556],[14.480822,50.101564],[14.480937,50.101691],[14.480956,50.101793],[14.480924,50.10186],[14.480862,50.102139],[14.48082,50.102137],[14.480808,50.102212],[14.480795,50.102243],[14.480839,50.102253],[14.48083,50.102293],[14.480834,50.102334],[14.48087,50.102458],[14.480823,50.102676],[14.48077,50.10285],[14.480793,50.10308],[14.480869,50.103264],[14.48087,50.103385],[14.480568,50.103651],[14.480516,50.10367],[14.480526,50.103831],[14.480525,50.103856],[14.480523,50.103894],[14.480523,50.1039],[14.48052,50.10393],[14.480515,50.103978],[14.480512,50.103993],[14.480593,50.104023],[14.480693,50.10406],[14.48073,50.104074],[14.480771,50.10409],[14.480791,50.104097],[14.480809,50.104104],[14.480805,50.104153],[14.480802,50.104189],[14.480801,50.104197],[14.480795,50.104261],[14.48081,50.104264],[14.480825,50.104273],[14.480834,50.104286],[14.480829,50.104323],[14.480717,50.105379],[14.480744,50.105379],[14.480726,50.105558],[14.480687,50.105565],[14.480684,50.105603],[14.480682,50.105631],[14.480679,50.105664],[14.480679,50.105672],[14.480679,50.105683],[14.48068,50.105694],[14.480676,50.105704],[14.480676,50.105705],[14.480676,50.105705],[14.481556,50.105882],[14.481795,50.105086],[14.48259,50.104666],[14.485299,50.105594]],[[14.486172,50.104346],[14.486265,50.104236],[14.486285,50.104211],[14.486338,50.104161],[14.486376,50.104182],[14.4864,50.104202],[14.486415,50.104195],[14.486443,50.104197],[14.486357,50.104271],[14.486335,50.104306],[14.486373,50.104327],[14.486718,50.104031],[14.486716,50.10404],[14.48673,50.104041],[14.486782,50.104064],[14.486794,50.104074],[14.486857,50.104107],[14.486822,50.10414],[14.486771,50.104181],[14.486751,50.104206],[14.486685,50.104255],[14.486648,50.104297],[14.486632,50.104305],[14.486561,50.104371],[14.486459,50.104453],[14.486289,50.104392],[14.486263,50.104381],[14.486172,50.104346]],[[14.483324,50.103469],[14.483371,50.103383],[14.483396,50.10333],[14.483435,50.103216],[14.483437,50.103207],[14.483458,50.103172],[14.483481,50.103129],[14.483495,50.10313],[14.483527,50.103115],[14.483635,50.10307],[14.483651,50.103062],[14.483789,50.103075],[14.48446,50.103106],[14.484474,50.103107],[14.484442,50.103123],[14.484381,50.103145],[14.484304,50.103174],[14.484259,50.103188],[14.483522,50.103468],[14.483508,50.103467],[14.483368,50.103528],[14.483324,50.103469]]]}},{"type":"Feature","properties":{"cislo":9016,"kod":28241,"mestskaCast":"praha-9"},"geometry":{"type":"Polygon","coordinates":[[[14.481145,50.108685],[14.481148,50.108691],[14.481344,50.108694],[14.481547,50.108727],[14.48165,50.108782],[14.481679,50.108817],[14.481673,50.108816],[14.48167,50.108816],[14.481643,50.108868],[14.481647,50.108868],[14.481646,50.10887],[14.481797,50.109066],[14.482044,50.109281],[14.482274,50.109672],[14.482683,50.109766],[14.482776,50.109837],[14.48395,50.109686],[14.483136,50.107473],[14.482555,50.106823],[14.483017,50.10631],[14.483696,50.106633],[14.484773,50.107009],[14.4851,50.106865],[14.485285,50.106128],[14.48551,50.105867],[14.486101,50.106073],[14.485806,50.106464],[14.486316,50.107317],[14.486444,50.107909],[14.487686,50.107973],[14.487874,50.108153],[14.488175,50.107798],[14.487897,50.10771],[14.488263,50.107252],[14.486712,50.106716],[14.487112,50.106225],[14.486232,50.105921],[14.485615,50.105703],[14.485299,50.105594],[14.48259,50.104666],[14.481795,50.105086],[14.481556,50.105882],[14.480676,50.105705],[14.480676,50.105705],[14.480639,50.105796],[14.480637,50.105815],[14.480633,50.105828],[14.480628,50.105855],[14.480611,50.105937],[14.480602,50.105983],[14.480612,50.105996],[14.480628,50.106018],[14.480636,50.106029],[14.480693,50.106106],[14.480685,50.106177],[14.480676,50.106262],[14.480659,50.106354],[14.480474,50.107391],[14.480465,50.107443],[14.480579,50.107785],[14.48061,50.107844],[14.480754,50.108131],[14.48089,50.108279],[14.480894,50.108284],[14.48091,50.108302],[14.480911,50.108303],[14.480913,50.108305],[14.480947,50.108343],[14.481005,50.108407],[14.481024,50.108445],[14.481026,50.108448],[14.481031,50.108458],[14.481033,50.108462],[14.481049,50.108494],[14.481104,50.108603],[14.481108,50.108612],[14.481119,50.108633],[14.481121,50.108637],[14.481128,50.108651],[14.481139,50.108673],[14.48114,50.108675],[14.481145,50.108685]]]}},{"type":"Feature","properties":{"cislo":9017,"kod":28243,"mestskaCast":"praha-9"},"geometry":{"type":"Polygon","coordinates":[[[14.493063,50.1083],[14.490268,50.10731],[14.487981,50.106519],[14.487112,50.106225],[14.486712,50.106716],[14.488263,50.107252],[14.489879,50.107812],[14.489173,50.108612],[14.492367,50.109119],[14.493063,50.1083]]]}},{"type":"Feature","properties":{"cislo":9018,"kod":28245,"mestskaCast":"praha-9"},"geometry":{"type":"Polygon","coordinates":[[[14.482776,50.109837],[14.482778,50.109838],[14.484325,50.110401],[14.485011,50.110687],[14.48522,50.110797],[14.485462,50.110904],[14.485628,50.110957],[14.486193,50.11113],[14.486511,50.11122],[14.4871,50.111342],[14.48787,50.1116],[14.488123,50.11168],[14.488682,50.111815],[14.489193,50.111914],[14.489882,50.112006],[14.490579,50.112054],[14.491974,50.112105],[14.492239,50.112116],[14.492239,50.112112],[14.492265,50.111724],[14.492218,50.111683],[14.492488,50.111671],[14.49243,50.111548],[14.492548,50.111458],[14.492557,50.111414],[14.492924,50.111283],[14.493074,50.111241],[14.493206,50.111217],[14.493465,50.111194],[14.493779,50.111176],[14.493655,50.11043],[14.493668,50.110105],[14.494055,50.110075],[14.494391,50.110023],[14.494763,50.109929],[14.495324,50.109815],[14.496065,50.109517],[14.496269,50.109417],[14.495993,50.10932],[14.494464,50.10875],[14.493063,50.1083],[14.492367,50.109119],[14.489173,50.108612],[14.488039,50.108303],[14.487874,50.108153],[14.487686,50.107973],[14.486444,50.107909],[14.486316,50.107317],[14.485806,50.106464],[14.486101,50.106073],[14.48551,50.105867],[14.485285,50.106128],[14.4851,50.106865],[14.484773,50.107009],[14.483696,50.106633],[14.483017,50.10631],[14.482555,50.106823],[14.483136,50.107473],[14.48395,50.109686],[14.482776,50.109837]]]}},{"type":"Feature","properties":{"cislo":9019,"kod":28247,"mestskaCast":"praha-9"},"geometry":{"type":"Polygon","coordinates":[[[14.530277,50.097235],[14.530277,50.097234],[14.530225,50.096778],[14.530228,50.096456],[14.530254,50.096129],[14.530309,50.095804],[14.530392,50.095495],[14.530492,50.095169],[14.530602,50.094913],[14.530731,50.094651],[14.530817,50.094441],[14.530914,50.094276],[14.531147,50.093933],[14.531348,50.093678],[14.531526,50.093467],[14.532159,50.092809],[14.533116,50.091819],[14.533308,50.091619],[14.533154,50.091588],[14.533066,50.091571],[14.533051,50.091568],[14.532781,50.091515],[14.532658,50.09149],[14.532663,50.091476],[14.532664,50.091472],[14.532684,50.091403],[14.532721,50.091281],[14.532815,50.090979],[14.532999,50.090537],[14.532141,50.090337],[14.531411,50.090147],[14.52959,50.089638],[14.529188,50.089529],[14.529111,50.089507],[14.529101,50.089505],[14.529076,50.089498],[14.529032,50.089486],[14.529024,50.089484],[14.528934,50.089461],[14.528819,50.089428],[14.528306,50.089283],[14.52755,50.089071],[14.526517,50.088781],[14.52617,50.088691],[14.525742,50.088569],[14.524726,50.088267],[14.524474,50.088191],[14.524209,50.088131],[14.523688,50.088005],[14.523061,50.087842],[14.523014,50.08794],[14.522539,50.087721],[14.522461,50.087685],[14.521568,50.087518],[14.521076,50.087437],[14.520628,50.087382],[14.520667,50.087211],[14.520359,50.087122],[14.520363,50.087106],[14.519647,50.086906],[14.518929,50.086687],[14.518392,50.086504],[14.518318,50.087006],[14.518294,50.087009],[14.518216,50.087019],[14.517906,50.087059],[14.517359,50.087103],[14.517196,50.087182],[14.517198,50.087209],[14.517027,50.087277],[14.516965,50.087315],[14.516599,50.087431],[14.516501,50.087462],[14.516378,50.087487],[14.516293,50.087458],[14.516288,50.087454],[14.516213,50.087491],[14.516211,50.087492],[14.516188,50.087505],[14.516127,50.087532],[14.516114,50.087539],[14.516075,50.087554],[14.516071,50.087556],[14.515883,50.087631],[14.515864,50.087639],[14.515858,50.087641],[14.515823,50.087653],[14.515742,50.087683],[14.515745,50.087687],[14.515383,50.087802],[14.514788,50.087992],[14.514797,50.088003],[14.514799,50.088006],[14.514555,50.088109],[14.514422,50.088188],[14.51428,50.088298],[14.514222,50.088343],[14.514188,50.088371],[14.513602,50.088576],[14.51356,50.088585],[14.51333,50.088625],[14.513311,50.088734],[14.51321,50.088702],[14.512965,50.088628],[14.512885,50.088603],[14.512568,50.088684],[14.511899,50.08879],[14.510751,50.088898],[14.509868,50.088997],[14.508509,50.089105],[14.507678,50.089178],[14.507126,50.089237],[14.506293,50.089304],[14.506109,50.089315],[14.505659,50.089351],[14.505537,50.089358],[14.504451,50.089544],[14.504057,50.089542],[14.503902,50.089543],[14.503486,50.089638],[14.503314,50.089661],[14.503319,50.089689],[14.502554,50.089786],[14.502456,50.089799],[14.502358,50.089823],[14.502201,50.089861],[14.502201,50.089861],[14.50203,50.089903],[14.501635,50.090005],[14.501636,50.090033],[14.501628,50.090041],[14.501529,50.090145],[14.501491,50.090224],[14.501444,50.090323],[14.501422,50.090345],[14.50194,50.090511],[14.501946,50.090513],[14.502169,50.090584],[14.502326,50.090635],[14.500982,50.090879],[14.500231,50.091097],[14.498383,50.091741],[14.498289,50.091774],[14.498287,50.091776],[14.498115,50.091979],[14.497385,50.092837],[14.497115,50.093155],[14.497056,50.093225],[14.496857,50.09346],[14.496447,50.094147],[14.496383,50.094256],[14.496268,50.09445],[14.496238,50.09457],[14.496168,50.09485],[14.496137,50.094977],[14.496011,50.095485],[14.495976,50.095629],[14.495959,50.095694],[14.495959,50.095695],[14.495959,50.09576],[14.495954,50.096386],[14.495961,50.096386],[14.496124,50.096513],[14.496897,50.096538],[14.497876,50.09663],[14.498317,50.096695],[14.498893,50.096726],[14.498905,50.096668],[14.499553,50.09676],[14.500385,50.096835],[14.501865,50.09693],[14.503695,50.097214],[14.50368,50.097271],[14.504531,50.097348],[14.505579,50.097414],[14.505815,50.097466],[14.505971,50.097486],[14.506001,50.097444],[14.505992,50.097325],[14.50604,50.097226],[14.506125,50.097158],[14.506672,50.09732],[14.508168,50.097621],[14.509203,50.097921],[14.509347,50.097956],[14.509705,50.098116],[14.510354,50.098256],[14.510677,50.098446],[14.51174,50.09877],[14.512133,50.098935],[14.513024,50.099234],[14.513115,50.099251],[14.51362,50.099487],[14.513512,50.09983],[14.513442,50.100372],[14.514654,50.100476],[14.516069,50.100568],[14.51688,50.100479],[14.518028,50.100256],[14.518866,50.100046],[14.520706,50.099763],[14.525262,50.098041],[14.526218,50.09773],[14.527281,50.097474],[14.527979,50.09736],[14.528596,50.097291],[14.528968,50.097269],[14.529574,50.097247],[14.530271,50.097236],[14.530277,50.097235]]]}},{"type":"Feature","properties":{"cislo":9020,"kod":28249,"mestskaCast":"praha-9"},"geometry":{"type":"Polygon","coordinates":[[[14.481149,50.121682],[14.481589,50.121462],[14.48318,50.122175],[14.483953,50.122486],[14.485117,50.123],[14.484793,50.123445],[14.485464,50.123778],[14.485953,50.123518],[14.485838,50.123437],[14.485276,50.123025],[14.485929,50.12261],[14.484262,50.12162],[14.484438,50.121326],[14.484913,50.12135],[14.485382,50.121001],[14.485155,50.120809],[14.485016,50.120733],[14.484942,50.120681],[14.484761,50.120602],[14.484294,50.12008],[14.4854,50.119723],[14.485004,50.119262],[14.483553,50.11918],[14.483193,50.118749],[14.482674,50.117889],[14.482209,50.117673],[14.48184,50.117609],[14.480056,50.117523],[14.478735,50.117438],[14.478079,50.117394],[14.477792,50.117374],[14.477577,50.117363],[14.477241,50.117347],[14.47701,50.117341],[14.476584,50.117337],[14.475776,50.117331],[14.475774,50.117353],[14.47577,50.117367],[14.475767,50.117402],[14.475767,50.117479],[14.475768,50.117628],[14.475772,50.117748],[14.475766,50.117749],[14.475768,50.1178],[14.47577,50.117851],[14.47577,50.117859],[14.475777,50.117861],[14.475781,50.1179],[14.475781,50.117928],[14.475893,50.117931],[14.476025,50.117929],[14.476355,50.117926],[14.476615,50.117937],[14.476613,50.117959],[14.476602,50.118081],[14.476587,50.118232],[14.476582,50.118309],[14.476568,50.118461],[14.476561,50.118544],[14.476539,50.11878],[14.476517,50.119026],[14.476189,50.119187],[14.476458,50.119284],[14.47683,50.119433],[14.476884,50.119455],[14.476906,50.11946],[14.477398,50.119625],[14.477486,50.119645],[14.477649,50.119681],[14.477785,50.119712],[14.477868,50.119731],[14.478175,50.119858],[14.478288,50.119906],[14.478545,50.12003],[14.478561,50.120036],[14.478752,50.120119],[14.478812,50.120166],[14.478892,50.120233],[14.478895,50.120235],[14.479189,50.120455],[14.4795,50.120547],[14.47954,50.120559],[14.479537,50.120582],[14.479586,50.120561],[14.479585,50.120536],[14.479621,50.120518],[14.479681,50.120543],[14.479733,50.120563],[14.479812,50.120589],[14.479963,50.120627],[14.480046,50.120656],[14.480189,50.120708],[14.48015,50.120762],[14.480124,50.120886],[14.480164,50.120975],[14.480115,50.121078],[14.480202,50.121145],[14.480292,50.12123],[14.480314,50.121315],[14.480329,50.121371],[14.480333,50.121402],[14.480345,50.121494],[14.480357,50.121586],[14.480365,50.121594],[14.480465,50.121695],[14.480788,50.12147],[14.481058,50.121628],[14.481149,50.121682]]]}},{"type":"Feature","properties":{"cislo":9021,"kod":28251,"mestskaCast":"praha-9"},"geometry":{"type":"Polygon","coordinates":[[[14.485066,50.124637],[14.486052,50.124155],[14.486608,50.123731],[14.486534,50.123416],[14.486323,50.12308],[14.485838,50.123437],[14.485953,50.123518],[14.485464,50.123778],[14.484793,50.123445],[14.485117,50.123],[14.483953,50.122486],[14.48318,50.122175],[14.481589,50.121462],[14.481149,50.121682],[14.481365,50.121779],[14.481723,50.121937],[14.482334,50.122208],[14.482692,50.122369],[14.482874,50.12245],[14.483463,50.122713],[14.483279,50.123002],[14.483477,50.123075],[14.483546,50.123112],[14.483802,50.123325],[14.483922,50.12344],[14.484746,50.124234],[14.485071,50.124551],[14.485076,50.124593],[14.485066,50.124637]]]}},{"type":"Feature","properties":{"cislo":9022,"kod":28253,"mestskaCast":"praha-9"},"geometry":{"type":"Polygon","coordinates":[[[14.486052,50.124155],[14.488536,50.125416],[14.489542,50.12467],[14.487906,50.1238],[14.487155,50.123417],[14.486608,50.123731],[14.486052,50.124155]]]}},{"type":"Feature","properties":{"cislo":9023,"kod":28255,"mestskaCast":"praha-9"},"geometry":{"type":"Polygon","coordinates":[[[14.485667,50.128469],[14.485667,50.12847],[14.486443,50.128091],[14.488303,50.126712],[14.488767,50.12619],[14.488196,50.125822],[14.488449,50.125627],[14.488534,50.125425],[14.488536,50.125416],[14.486052,50.124155],[14.485066,50.124637],[14.485024,50.124678],[14.484886,50.124767],[14.484793,50.124828],[14.484729,50.124883],[14.4847,50.124906],[14.484667,50.124952],[14.484646,50.125051],[14.484614,50.125048],[14.484255,50.12487],[14.484095,50.124861],[14.483954,50.124944],[14.483787,50.125172],[14.484042,50.125202],[14.484032,50.125246],[14.484003,50.125257],[14.483871,50.125243],[14.483751,50.125205],[14.48365,50.125145],[14.483602,50.125196],[14.483574,50.125177],[14.48355,50.125191],[14.483573,50.125229],[14.483561,50.125283],[14.483539,50.125316],[14.482622,50.125241],[14.482607,50.125313],[14.482594,50.125427],[14.48258,50.125424],[14.482568,50.125428],[14.482437,50.125508],[14.482481,50.125541],[14.482332,50.125626],[14.482325,50.126076],[14.482389,50.126126],[14.48308,50.126619],[14.483083,50.126622],[14.483273,50.126758],[14.484095,50.127346],[14.4841,50.127349],[14.484121,50.127364],[14.484919,50.127933],[14.485536,50.128377],[14.485573,50.128403],[14.485639,50.12845],[14.485646,50.128455],[14.485667,50.128469]]]}},{"type":"Feature","properties":{"cislo":9024,"kod":28257,"mestskaCast":"praha-9"},"geometry":{"type":"Polygon","coordinates":[[[14.495003,50.126738],[14.494199,50.126268],[14.49509,50.125665],[14.491852,50.123829],[14.491161,50.124358],[14.488767,50.12619],[14.488303,50.126712],[14.490701,50.127585],[14.492344,50.126432],[14.494075,50.127382],[14.495003,50.126738]]]}},{"type":"Feature","properties":{"cislo":9025,"kod":28259,"mestskaCast":"praha-9"},"geometry":{"type":"Polygon","coordinates":[[[14.487033,50.129447],[14.487062,50.129468],[14.488609,50.130741],[14.489773,50.130888],[14.491815,50.131146],[14.494948,50.131313],[14.495557,50.131376],[14.496757,50.131387],[14.496756,50.131369],[14.496755,50.131318],[14.496754,50.131298],[14.49676,50.131298],[14.496851,50.131299],[14.497005,50.131301],[14.497091,50.131303],[14.49782,50.131313],[14.497872,50.131309],[14.497872,50.131309],[14.497923,50.131137],[14.497957,50.130618],[14.498011,50.130254],[14.498012,50.130244],[14.498026,50.130135],[14.498128,50.12942],[14.498173,50.129158],[14.498176,50.129141],[14.498188,50.129083],[14.498231,50.128875],[14.498269,50.128622],[14.498272,50.128605],[14.49828,50.128554],[14.498291,50.128482],[14.496443,50.128797],[14.496725,50.127733],[14.495003,50.126738],[14.494075,50.127382],[14.492344,50.126432],[14.490701,50.127585],[14.488303,50.126712],[14.486443,50.128091],[14.485667,50.12847],[14.487033,50.129447]]]}},{"type":"Feature","properties":{"cislo":9026,"kod":28261,"mestskaCast":"praha-9"},"geometry":{"type":"Polygon","coordinates":[[[14.498291,50.128482],[14.498296,50.128448],[14.498301,50.128414],[14.498313,50.128338],[14.498331,50.128218],[14.498389,50.127834],[14.498418,50.127646],[14.498427,50.127576],[14.49844,50.127478],[14.498517,50.127472],[14.498533,50.127565],[14.498479,50.127568],[14.498481,50.127574],[14.498494,50.127573],[14.498498,50.127594],[14.498498,50.127595],[14.498485,50.127596],[14.49851,50.127732],[14.498514,50.127732],[14.498515,50.127735],[14.498596,50.127729],[14.498577,50.12762],[14.498841,50.1276],[14.498921,50.128036],[14.498923,50.12805],[14.498941,50.128142],[14.498988,50.128125],[14.499103,50.128082],[14.499248,50.12803],[14.499421,50.127958],[14.499422,50.127958],[14.499556,50.127897],[14.499723,50.127817],[14.499766,50.127796],[14.499826,50.127768],[14.499826,50.127768],[14.49987,50.127745],[14.500244,50.127558],[14.500275,50.127534],[14.500311,50.127525],[14.500447,50.127422],[14.501076,50.126952],[14.501102,50.126929],[14.501264,50.126758],[14.50127,50.126751],[14.501118,50.126632],[14.50104,50.126636],[14.501004,50.126638],[14.500994,50.126639],[14.500993,50.12663],[14.500966,50.126632],[14.500967,50.126641],[14.500909,50.126645],[14.500907,50.126635],[14.500862,50.126639],[14.500857,50.126611],[14.50082,50.126614],[14.500825,50.12664],[14.500737,50.126646],[14.500739,50.126658],[14.500746,50.126697],[14.500698,50.126701],[14.500697,50.126698],[14.500696,50.126693],[14.500656,50.126696],[14.500633,50.126576],[14.500634,50.126576],[14.500613,50.126441],[14.500182,50.126476],[14.500147,50.126309],[14.500017,50.126325],[14.500012,50.126279],[14.499841,50.126291],[14.499845,50.126337],[14.499716,50.126344],[14.499695,50.126179],[14.499266,50.126205],[14.499275,50.126296],[14.498959,50.126323],[14.498447,50.125543],[14.497863,50.125963],[14.497684,50.126274],[14.497716,50.126722],[14.497353,50.126971],[14.49509,50.125665],[14.494199,50.126268],[14.495003,50.126738],[14.496725,50.127733],[14.496443,50.128797],[14.498291,50.128482]]]}},{"type":"Feature","properties":{"cislo":9027,"kod":28263,"mestskaCast":"praha-9"},"geometry":{"type":"Polygon","coordinates":[[[14.498447,50.125543],[14.49871,50.125303],[14.498762,50.125253],[14.498689,50.125201],[14.496525,50.123958],[14.496107,50.124267],[14.495564,50.124627],[14.497863,50.125963],[14.498447,50.125543]]]}},{"type":"Feature","properties":{"cislo":9028,"kod":28265,"mestskaCast":"praha-9"},"geometry":{"type":"Polygon","coordinates":[[[14.49509,50.125665],[14.497353,50.126971],[14.497716,50.126722],[14.497684,50.126274],[14.497863,50.125963],[14.495564,50.124627],[14.496107,50.124267],[14.495789,50.124103],[14.496855,50.123334],[14.496191,50.12294],[14.493961,50.122209],[14.493741,50.12238],[14.49349,50.122567],[14.491852,50.123829],[14.49509,50.125665]]]}},{"type":"Feature","properties":{"cislo":9029,"kod":28267,"mestskaCast":"praha-9"},"geometry":{"type":"Polygon","coordinates":[[[14.488767,50.12619],[14.491161,50.124358],[14.490106,50.123812],[14.489873,50.123447],[14.488839,50.123129],[14.487906,50.1238],[14.489542,50.12467],[14.488536,50.125416],[14.488534,50.125425],[14.488449,50.125627],[14.488196,50.125822],[14.488767,50.12619]]]}},{"type":"Feature","properties":{"cislo":9030,"kod":28269,"mestskaCast":"praha-9"},"geometry":{"type":"Polygon","coordinates":[[[14.487906,50.1238],[14.488839,50.123129],[14.489873,50.123447],[14.490293,50.12313],[14.487884,50.121847],[14.487451,50.121628],[14.487565,50.12142],[14.488289,50.121003],[14.488352,50.120972],[14.488158,50.120755],[14.487728,50.120454],[14.486382,50.120481],[14.485155,50.120809],[14.485382,50.121001],[14.484913,50.12135],[14.484438,50.121326],[14.484262,50.12162],[14.485929,50.12261],[14.485276,50.123025],[14.485838,50.123437],[14.486323,50.12308],[14.486534,50.123416],[14.486608,50.123731],[14.487155,50.123417],[14.487906,50.1238]]]}},{"type":"Feature","properties":{"cislo":9031,"kod":28271,"mestskaCast":"praha-9"},"geometry":{"type":"Polygon","coordinates":[[[14.490293,50.12313],[14.4909,50.123328],[14.491852,50.123829],[14.49349,50.122567],[14.493741,50.12238],[14.493107,50.122043],[14.493307,50.121897],[14.49295,50.121721],[14.491219,50.123021],[14.49097,50.123198],[14.490916,50.123185],[14.490751,50.123097],[14.490801,50.123065],[14.491005,50.122902],[14.488383,50.121492],[14.487884,50.121847],[14.490293,50.12313]]]}},{"type":"Feature","properties":{"cislo":9032,"kod":28273,"mestskaCast":"praha-9"},"geometry":{"type":"MultiPolygon","coordinates":[[[[14.488383,50.121492],[14.491005,50.122902],[14.490801,50.123065],[14.490751,50.123097],[14.490916,50.123185],[14.49097,50.123198],[14.491219,50.123021],[14.49295,50.121721],[14.492981,50.121705],[14.493187,50.121533],[14.492958,50.121413],[14.490637,50.120183],[14.489328,50.12123],[14.488383,50.121492]]],[[[14.483193,50.118749],[14.483553,50.11918],[14.485004,50.119262],[14.4854,50.119723],[14.484294,50.12008],[14.484761,50.120602],[14.484942,50.120681],[14.485016,50.120733],[14.485155,50.120809],[14.486382,50.120481],[14.487728,50.120454],[14.488158,50.120755],[14.488352,50.120972],[14.48985,50.120232],[14.489416,50.118887],[14.488388,50.119278],[14.48796,50.119032],[14.488663,50.118712],[14.488499,50.11829],[14.486185,50.118685],[14.485923,50.118127],[14.483193,50.118749]]]]}},{"type":"Feature","properties":{"cislo":9033,"kod":28275,"mestskaCast":"praha-9"},"geometry":{"type":"MultiPolygon","coordinates":[[[[14.487884,50.121847],[14.488383,50.121492],[14.489328,50.12123],[14.490637,50.120183],[14.492958,50.121413],[14.493187,50.121533],[14.493285,50.121469],[14.493311,50.12148],[14.493401,50.121524],[14.494989,50.120357],[14.494976,50.120356],[14.494206,50.119462],[14.492855,50.118645],[14.492626,50.118262],[14.491509,50.118273],[14.490424,50.118531],[14.489416,50.118887],[14.48985,50.120232],[14.488352,50.120972],[14.488289,50.121003],[14.487565,50.12142],[14.487451,50.121628],[14.487884,50.121847]]],[[[14.496022,50.119549],[14.495345,50.12008],[14.49633,50.120557],[14.496946,50.120048],[14.496022,50.119549]]]]}},{"type":"Feature","properties":{"cislo":9034,"kod":28277,"mestskaCast":"praha-9"},"geometry":{"type":"Polygon","coordinates":[[[14.493961,50.122209],[14.49633,50.120557],[14.495345,50.12008],[14.496022,50.119549],[14.496358,50.119298],[14.49556,50.118402],[14.494462,50.118723],[14.493608,50.118421],[14.492626,50.118262],[14.492855,50.118645],[14.494206,50.119462],[14.494976,50.120356],[14.494989,50.120357],[14.493401,50.121524],[14.493311,50.12148],[14.493285,50.121469],[14.493187,50.121533],[14.492981,50.121705],[14.49295,50.121721],[14.493307,50.121897],[14.493107,50.122043],[14.493741,50.12238],[14.493961,50.122209]]]}},{"type":"Feature","properties":{"cislo":9035,"kod":28279,"mestskaCast":"praha-9"},"geometry":{"type":"MultiPolygon","coordinates":[[[[14.491161,50.124358],[14.491852,50.123829],[14.4909,50.123328],[14.490293,50.12313],[14.489873,50.123447],[14.490106,50.123812],[14.491161,50.124358]]],[[[14.499063,50.118455],[14.500109,50.117649],[14.500526,50.117213],[14.500699,50.116866],[14.50076,50.116445],[14.500721,50.116096],[14.500517,50.115797],[14.499845,50.115502],[14.498808,50.115402],[14.497839,50.11538],[14.497388,50.115177],[14.496922,50.115046],[14.496796,50.114844],[14.49644,50.114858],[14.49569,50.114801],[14.49559,50.114874],[14.495347,50.114953],[14.495308,50.115004],[14.494964,50.114965],[14.495001,50.115186],[14.492688,50.115581],[14.492087,50.115619],[14.492161,50.115735],[14.492172,50.115817],[14.49041,50.115472],[14.48973,50.115285],[14.48973,50.115285],[14.48973,50.115285],[14.489697,50.115343],[14.489329,50.115998],[14.489262,50.116034],[14.488687,50.116334],[14.488231,50.116484],[14.487939,50.116531],[14.487685,50.116572],[14.487475,50.116606],[14.486408,50.116967],[14.485679,50.117082],[14.485568,50.1171],[14.484633,50.117359],[14.482674,50.117889],[14.483193,50.118749],[14.485923,50.118127],[14.486185,50.118685],[14.488499,50.11829],[14.488663,50.118712],[14.48796,50.119032],[14.488388,50.119278],[14.489416,50.118887],[14.490424,50.118531],[14.491509,50.118273],[14.492626,50.118262],[14.493608,50.118421],[14.494462,50.118723],[14.49556,50.118402],[14.496358,50.119298],[14.496022,50.119549],[14.496946,50.120048],[14.499063,50.118455]]]]}},{"type":"Feature","properties":{"cislo":9036,"kod":28281,"mestskaCast":"praha-9"},"geometry":{"type":"Polygon","coordinates":[[[14.499605,50.122214],[14.501794,50.120746],[14.500748,50.120155],[14.500729,50.12058],[14.500447,50.120909],[14.499133,50.121783],[14.49633,50.120557],[14.493961,50.122209],[14.496191,50.12294],[14.496558,50.122673],[14.497075,50.122564],[14.498131,50.123174],[14.499438,50.122336],[14.499605,50.122214]]]}},{"type":"Feature","properties":{"cislo":9037,"kod":28283,"mestskaCast":"praha-9"},"geometry":{"type":"Polygon","coordinates":[[[14.498447,50.125543],[14.498959,50.126323],[14.499275,50.126296],[14.499266,50.126205],[14.499695,50.126179],[14.499716,50.126344],[14.499845,50.126337],[14.499841,50.126291],[14.500012,50.126279],[14.500017,50.126325],[14.500147,50.126309],[14.500182,50.126476],[14.500613,50.126441],[14.500634,50.126576],[14.500673,50.126579],[14.500677,50.126579],[14.500705,50.12658],[14.50071,50.126581],[14.500795,50.126586],[14.501471,50.126631],[14.501518,50.126634],[14.501536,50.126635],[14.502257,50.126077],[14.500948,50.125064],[14.501365,50.124828],[14.498706,50.123261],[14.498131,50.123174],[14.497075,50.122564],[14.496558,50.122673],[14.496191,50.12294],[14.496855,50.123334],[14.495789,50.124103],[14.496107,50.124267],[14.496525,50.123958],[14.498689,50.125201],[14.498762,50.125253],[14.49871,50.125303],[14.498447,50.125543]]]}},{"type":"Feature","properties":{"cislo":9038,"kod":28285,"mestskaCast":"praha-9"},"geometry":{"type":"Polygon","coordinates":[[[14.503055,50.124314],[14.503913,50.124861],[14.503708,50.124961],[14.504502,50.125475],[14.505974,50.124661],[14.506443,50.124112],[14.506125,50.123884],[14.50616,50.123652],[14.507287,50.122798],[14.50541,50.121798],[14.504941,50.122147],[14.506479,50.123144],[14.503904,50.12477],[14.503556,50.124548],[14.50566,50.123281],[14.50371,50.122094],[14.503525,50.121769],[14.501794,50.120746],[14.499605,50.122214],[14.500695,50.1228],[14.500362,50.123569],[14.502349,50.123853],[14.503055,50.124314]]]}},{"type":"Feature","properties":{"cislo":9039,"kod":28287,"mestskaCast":"praha-9"},"geometry":{"type":"MultiPolygon","coordinates":[[[[14.501365,50.124828],[14.503055,50.124314],[14.502349,50.123853],[14.500362,50.123569],[14.500695,50.1228],[14.499605,50.122214],[14.499438,50.122336],[14.498131,50.123174],[14.498706,50.123261],[14.501365,50.124828]]],[[[14.500748,50.120155],[14.500817,50.119898],[14.50114,50.119572],[14.499063,50.118455],[14.496946,50.120048],[14.49633,50.120557],[14.499133,50.121783],[14.500447,50.120909],[14.500729,50.12058],[14.500748,50.120155]]]]}},{"type":"Feature","properties":{"cislo":9040,"kod":28289,"mestskaCast":"praha-9"},"geometry":{"type":"MultiPolygon","coordinates":[[[[14.504502,50.125475],[14.503708,50.124961],[14.503913,50.124861],[14.503055,50.124314],[14.501365,50.124828],[14.500948,50.125064],[14.502257,50.126077],[14.504101,50.125504],[14.504264,50.1256],[14.504502,50.125475]]],[[[14.507287,50.122798],[14.508561,50.123445],[14.509035,50.123604],[14.508867,50.123399],[14.508215,50.122616],[14.508052,50.122384],[14.50799,50.122279],[14.507992,50.12227],[14.507982,50.122251],[14.507892,50.121943],[14.507859,50.121695],[14.507851,50.121668],[14.507889,50.12109],[14.507988,50.12069],[14.50812,50.120266],[14.508248,50.119933],[14.508532,50.119323],[14.506856,50.119239],[14.50482,50.11906],[14.50114,50.119572],[14.500817,50.119898],[14.500748,50.120155],[14.501794,50.120746],[14.503525,50.121769],[14.504293,50.12121],[14.50541,50.121798],[14.507287,50.122798]]]]}},{"type":"Feature","properties":{"cislo":9041,"kod":28291,"mestskaCast":"praha-9"},"geometry":{"type":"Polygon","coordinates":[[[14.50541,50.121798],[14.504293,50.12121],[14.503525,50.121769],[14.50371,50.122094],[14.50566,50.123281],[14.503556,50.124548],[14.503904,50.12477],[14.506479,50.123144],[14.504941,50.122147],[14.50541,50.121798]]]}},{"type":"Feature","properties":{"cislo":9042,"kod":28293,"mestskaCast":"praha-9"},"geometry":{"type":"Polygon","coordinates":[[[14.506439,50.127045],[14.506462,50.127047],[14.506581,50.127064],[14.506666,50.127076],[14.506679,50.127076],[14.506701,50.127079],[14.506858,50.127098],[14.506939,50.127108],[14.507118,50.127115],[14.507214,50.127107],[14.507394,50.12707],[14.50741,50.127067],[14.507121,50.126921],[14.507121,50.126921],[14.507117,50.126919],[14.507059,50.12689],[14.507046,50.126883],[14.506999,50.126859],[14.50699,50.126855],[14.507081,50.126796],[14.506794,50.126638],[14.506694,50.126582],[14.506721,50.126568],[14.506852,50.126497],[14.507437,50.126248],[14.507474,50.126233],[14.507898,50.126059],[14.508147,50.125962],[14.508411,50.125856],[14.508813,50.125708],[14.508817,50.125707],[14.508931,50.125665],[14.509133,50.125595],[14.509137,50.125594],[14.509182,50.125579],[14.509378,50.125521],[14.509431,50.125507],[14.50944,50.125504],[14.509459,50.125499],[14.5095,50.125488],[14.509731,50.12544],[14.50995,50.125581],[14.509956,50.125579],[14.509956,50.125579],[14.509694,50.124824],[14.509465,50.124305],[14.509346,50.124067],[14.509234,50.123867],[14.509035,50.123604],[14.508561,50.123445],[14.507287,50.122798],[14.50616,50.123652],[14.506125,50.123884],[14.506443,50.124112],[14.505974,50.124661],[14.504502,50.125475],[14.504264,50.1256],[14.504101,50.125504],[14.502257,50.126077],[14.501536,50.126635],[14.501705,50.126646],[14.501709,50.126646],[14.50173,50.126648],[14.501739,50.126649],[14.501781,50.126651],[14.50179,50.126652],[14.501844,50.126655],[14.502045,50.126667],[14.502059,50.126668],[14.502062,50.126668],[14.502323,50.126683],[14.502339,50.126684],[14.502541,50.126696],[14.502597,50.126699],[14.502602,50.1267],[14.502619,50.126701],[14.502884,50.126716],[14.502915,50.126718],[14.50292,50.126718],[14.502958,50.12672],[14.503638,50.126787],[14.50401,50.126812],[14.504036,50.126814],[14.504124,50.12682],[14.504159,50.126823],[14.504252,50.126833],[14.505356,50.126944],[14.505649,50.126976],[14.506243,50.127027],[14.506347,50.127036],[14.506439,50.127045]]]}},{"type":"Feature","properties":{"cislo":9043,"kod":28295,"mestskaCast":"praha-9"},"geometry":{"type":"Polygon","coordinates":[[[14.499063,50.118455],[14.50114,50.119572],[14.50482,50.11906],[14.506856,50.119239],[14.508532,50.119323],[14.508806,50.118829],[14.508583,50.118819],[14.508535,50.118778],[14.507959,50.117167],[14.507189,50.116809],[14.506436,50.116498],[14.505693,50.116342],[14.504047,50.116116],[14.503183,50.116067],[14.500721,50.116096],[14.50076,50.116445],[14.500699,50.116866],[14.500526,50.117213],[14.500109,50.117649],[14.499063,50.118455]]]}}]}
