{"type":"FeatureCollection","features":[{"type":"Feature","properties":{"cislo":57001,"kod":27699,"mestskaCast":"praha-zlicin"},"geometry":{"type":"Polygon","coordinates":[[[14.293207,50.077514],[14.29325,50.077474],[14.29334,50.077391],[14.293421,50.077315],[14.293496,50.077245],[14.293497,50.077244],[14.293504,50.077207],[14.293513,50.077151],[14.293516,50.077138],[14.293485,50.077117],[14.293448,50.077091],[14.293413,50.077066],[14.293387,50.077048],[14.293353,50.07703],[14.293216,50.076956],[14.293134,50.076912],[14.293026,50.076827],[14.293006,50.076811],[14.292959,50.076774],[14.292896,50.076725],[14.292695,50.076566],[14.292538,50.076441],[14.292484,50.076388],[14.292468,50.076372],[14.292454,50.076359],[14.292436,50.07634],[14.292196,50.076085],[14.292193,50.076081],[14.29209,50.075976],[14.29202,50.075903],[14.292004,50.075886],[14.291977,50.075847],[14.291968,50.075833],[14.291942,50.075795],[14.291933,50.075782],[14.291894,50.075723],[14.29186,50.075665],[14.29181,50.075579],[14.291764,50.075499],[14.291534,50.07523],[14.291458,50.075141],[14.291437,50.075103],[14.291381,50.075001],[14.29138,50.074998],[14.291346,50.074938],[14.291344,50.074915],[14.29134,50.074882],[14.291326,50.074763],[14.291296,50.074516],[14.291296,50.074515],[14.291297,50.074476],[14.291304,50.074294],[14.291306,50.074218],[14.291312,50.07419],[14.291314,50.074179],[14.29133,50.074099],[14.291344,50.074029],[14.291353,50.073986],[14.29146,50.073451],[14.291469,50.073406],[14.291552,50.07262],[14.291594,50.072263],[14.291607,50.072015],[14.291609,50.071984],[14.291607,50.071482],[14.291606,50.07133],[14.291606,50.07133],[14.291606,50.07133],[14.29165,50.071197],[14.291653,50.071186],[14.291653,50.071186],[14.29167,50.071093],[14.29167,50.071086],[14.29167,50.071062],[14.291692,50.070981],[14.29191,50.070171],[14.291838,50.070169],[14.291747,50.070166],[14.291772,50.070088],[14.292112,50.069058],[14.292113,50.069055],[14.292404,50.068205],[14.292468,50.068047],[14.292591,50.067742],[14.292609,50.067698],[14.292662,50.067568],[14.292726,50.067469],[14.292822,50.06731],[14.292845,50.067272],[14.292914,50.06707],[14.29297,50.066862],[14.292982,50.06682],[14.293013,50.066707],[14.293031,50.066641],[14.293031,50.066641],[14.293077,50.066617],[14.293161,50.066573],[14.293567,50.066392],[14.294031,50.066164],[14.294229,50.066066],[14.294546,50.065906],[14.294612,50.065872],[14.294738,50.065807],[14.294956,50.065953],[14.294956,50.065953],[14.2958,50.065553],[14.296441,50.065209],[14.296513,50.065233],[14.29659,50.065257],[14.296601,50.065261],[14.296721,50.065298],[14.29678,50.065271],[14.296834,50.065246],[14.296883,50.065261],[14.297021,50.065301],[14.297078,50.065318],[14.29714,50.065337],[14.297214,50.064975],[14.297222,50.064936],[14.2973,50.0649],[14.297339,50.064882],[14.297403,50.064852],[14.297678,50.064724],[14.29771,50.064715],[14.297851,50.064677],[14.298037,50.064628],[14.298403,50.064426],[14.298405,50.064409],[14.298411,50.064359],[14.298788,50.064102],[14.298999,50.063961],[14.299206,50.063853],[14.29931,50.063811],[14.299381,50.063779],[14.299322,50.063714],[14.300115,50.063259],[14.299557,50.062981],[14.299154,50.062709],[14.298494,50.062251],[14.297502,50.061576],[14.297175,50.061341],[14.296724,50.060415],[14.296077,50.060344],[14.296005,50.060316],[14.295969,50.060354],[14.295946,50.060345],[14.295911,50.060381],[14.295902,50.060377],[14.295894,50.060385],[14.295811,50.060351],[14.295758,50.060406],[14.295736,50.060397],[14.295683,50.060376],[14.295657,50.060369],[14.295477,50.060329],[14.295411,50.060314],[14.295214,50.060268],[14.295033,50.060226],[14.294861,50.060187],[14.294722,50.060156],[14.294676,50.06013],[14.294557,50.060041],[14.29446,50.059968],[14.294326,50.059866],[14.294262,50.059817],[14.294187,50.05983],[14.294165,50.059819],[14.29377,50.059856],[14.293278,50.059477],[14.29303,50.059457],[14.29297,50.059724],[14.292632,50.059819],[14.292612,50.059825],[14.292594,50.059834],[14.292498,50.059916],[14.292417,50.059983],[14.292371,50.06001],[14.292328,50.06003],[14.29227,50.060048],[14.29224,50.060051],[14.292184,50.060053],[14.292059,50.060046],[14.291987,50.060039],[14.291924,50.0601],[14.291665,50.06035],[14.29173,50.060366],[14.291529,50.060564],[14.291504,50.060602],[14.291512,50.060647],[14.291534,50.060708],[14.291571,50.060732],[14.291397,50.060767],[14.29132,50.060743],[14.291069,50.060794],[14.290399,50.060801],[14.29039,50.06088],[14.289894,50.060761],[14.289404,50.060724],[14.28886,50.060724],[14.288519,50.060759],[14.287959,50.060815],[14.287869,50.060813],[14.287594,50.060626],[14.284888,50.060133],[14.283361,50.059855],[14.281902,50.060015],[14.281659,50.060029],[14.281439,50.060137],[14.27935,50.059949],[14.278875,50.059861],[14.278531,50.059757],[14.27706,50.059453],[14.277025,50.059159],[14.276578,50.059074],[14.276575,50.059091],[14.276528,50.059178],[14.276508,50.059203],[14.276451,50.059335],[14.276398,50.059384],[14.276371,50.059382],[14.276262,50.059363],[14.276195,50.059348],[14.276181,50.059347],[14.275866,50.0593],[14.275521,50.059269],[14.275239,50.059334],[14.274458,50.059355],[14.274135,50.059353],[14.274206,50.059805],[14.274245,50.060208],[14.274266,50.060436],[14.274277,50.061363],[14.274271,50.06139],[14.274273,50.061445],[14.274269,50.061462],[14.274282,50.0616],[14.274353,50.062378],[14.274378,50.063043],[14.274374,50.063451],[14.274366,50.063487],[14.274254,50.06394],[14.2742,50.064252],[14.274145,50.065482],[14.274138,50.065708],[14.274033,50.065999],[14.273967,50.066238],[14.273883,50.06643],[14.273684,50.066893],[14.273777,50.06692],[14.274048,50.066971],[14.274155,50.066999],[14.275042,50.067197],[14.275836,50.067377],[14.276613,50.067629],[14.27744,50.067912],[14.27856,50.068276],[14.279225,50.068526],[14.279045,50.068837],[14.27879,50.069558],[14.278773,50.069638],[14.278701,50.069841],[14.278584,50.069857],[14.278513,50.06986],[14.278483,50.069866],[14.278542,50.070053],[14.278623,50.070133],[14.278718,50.070214],[14.278726,50.070242],[14.278788,50.070348],[14.278786,50.07042],[14.278779,50.070456],[14.278752,50.07058],[14.27874,50.070634],[14.278721,50.070723],[14.278654,50.070835],[14.278607,50.070858],[14.278552,50.070917],[14.278551,50.070918],[14.278551,50.070918],[14.278557,50.070919],[14.278553,50.070923],[14.278476,50.071059],[14.278452,50.071142],[14.278345,50.071194],[14.278357,50.071264],[14.278372,50.071355],[14.278271,50.071421],[14.278271,50.071506],[14.278192,50.071532],[14.278131,50.07167],[14.278105,50.07173],[14.278056,50.071748],[14.277947,50.071853],[14.277911,50.071877],[14.277962,50.071916],[14.277894,50.072001],[14.277792,50.072067],[14.277583,50.072116],[14.277803,50.072194],[14.278028,50.072283],[14.277778,50.072478],[14.277557,50.072681],[14.277372,50.072865],[14.277263,50.072986],[14.277342,50.072988],[14.277484,50.072991],[14.277587,50.072987],[14.278252,50.07294],[14.278867,50.072974],[14.279046,50.072982],[14.279708,50.073065],[14.280325,50.073113],[14.280438,50.073137],[14.280519,50.073154],[14.280615,50.073174],[14.280789,50.073211],[14.28091,50.073237],[14.281072,50.073271],[14.281095,50.073276],[14.281124,50.073293],[14.281229,50.073356],[14.281374,50.073442],[14.28181,50.073727],[14.282008,50.073893],[14.282179,50.074076],[14.282434,50.074305],[14.282451,50.074297],[14.282688,50.074188],[14.283527,50.073876],[14.28357,50.073864],[14.284484,50.073589],[14.284922,50.07353],[14.285242,50.073502],[14.285323,50.073495],[14.285929,50.073488],[14.286514,50.073482],[14.286722,50.073479],[14.287352,50.073451],[14.287379,50.07345],[14.287444,50.073447],[14.28747,50.073446],[14.287528,50.073444],[14.287582,50.073442],[14.287759,50.073435],[14.28788,50.07343],[14.288052,50.073423],[14.288291,50.073413],[14.288308,50.073412],[14.288351,50.073409],[14.288571,50.07339],[14.288666,50.073382],[14.288834,50.073368],[14.289006,50.073354],[14.289037,50.073349],[14.28906,50.073345],[14.289172,50.073327],[14.289387,50.073292],[14.289882,50.073228],[14.289941,50.07322],[14.290193,50.073178],[14.290301,50.073419],[14.290361,50.073724],[14.290371,50.073778],[14.290387,50.073856],[14.29039,50.073869],[14.290396,50.073957],[14.290406,50.074085],[14.290411,50.074145],[14.290412,50.07416],[14.290416,50.074337],[14.290419,50.074496],[14.290404,50.074639],[14.290382,50.074861],[14.290374,50.074935],[14.290234,50.074938],[14.29012,50.07494],[14.290122,50.074997],[14.290128,50.075165],[14.290131,50.075221],[14.290113,50.075321],[14.290107,50.075356],[14.290091,50.075443],[14.290089,50.075451],[14.290079,50.075497],[14.290072,50.075524],[14.290042,50.075658],[14.290025,50.075729],[14.29002,50.075751],[14.28999,50.075883],[14.289985,50.075902],[14.289974,50.075946],[14.289832,50.076228],[14.289814,50.076252],[14.289758,50.076331],[14.289644,50.07649],[14.289626,50.076506],[14.289595,50.076532],[14.289503,50.076612],[14.289472,50.076639],[14.289414,50.076666],[14.28938,50.076682],[14.289217,50.076756],[14.289268,50.076829],[14.289286,50.076856],[14.289293,50.076866],[14.289297,50.076872],[14.289336,50.076927],[14.289455,50.076921],[14.289647,50.076918],[14.289874,50.076912],[14.289864,50.076939],[14.289859,50.077003],[14.289851,50.077138],[14.290121,50.077149],[14.290676,50.077179],[14.290708,50.07718],[14.290727,50.077181],[14.290731,50.077181],[14.290736,50.077181],[14.290742,50.077182],[14.290939,50.07719],[14.290944,50.07719],[14.290947,50.07719],[14.291052,50.077194],[14.291055,50.077194],[14.291059,50.077194],[14.291297,50.077204],[14.291345,50.077208],[14.291348,50.077208],[14.291352,50.077208],[14.291356,50.077208],[14.291381,50.07721],[14.291386,50.077211],[14.291389,50.077211],[14.291393,50.077211],[14.291437,50.077215],[14.291449,50.077216],[14.291467,50.077217],[14.291484,50.077218],[14.291768,50.07724],[14.291771,50.07724],[14.291775,50.07724],[14.291782,50.077241],[14.29179,50.077242],[14.291793,50.077242],[14.292572,50.077294],[14.292897,50.077374],[14.292981,50.077428],[14.292994,50.077437],[14.293009,50.077446],[14.293017,50.077451],[14.29303,50.07746],[14.293102,50.077484],[14.293168,50.077506],[14.293189,50.077513],[14.293207,50.077514]]]}},{"type":"Feature","properties":{"cislo":57002,"kod":27701,"mestskaCast":"praha-zlicin"},"geometry":{"type":"Polygon","coordinates":[[[14.287594,50.060626],[14.287869,50.060813],[14.287959,50.060815],[14.288519,50.060759],[14.28886,50.060724],[14.289404,50.060724],[14.289894,50.060761],[14.29039,50.06088],[14.290399,50.060801],[14.291069,50.060794],[14.29132,50.060743],[14.291397,50.060767],[14.291571,50.060732],[14.291534,50.060708],[14.291512,50.060647],[14.291504,50.060602],[14.291529,50.060564],[14.29173,50.060366],[14.291665,50.06035],[14.291924,50.0601],[14.291987,50.060039],[14.292059,50.060046],[14.292184,50.060053],[14.29224,50.060051],[14.29227,50.060048],[14.292328,50.06003],[14.292371,50.06001],[14.292417,50.059983],[14.292498,50.059916],[14.292594,50.059834],[14.292612,50.059825],[14.292632,50.059819],[14.29297,50.059724],[14.29303,50.059457],[14.292902,50.059209],[14.29267,50.059297],[14.292507,50.059217],[14.292332,50.05916],[14.292096,50.05907],[14.291888,50.059017],[14.291604,50.058943],[14.291272,50.058844],[14.291033,50.058781],[14.290738,50.058897],[14.290691,50.058933],[14.290647,50.05894],[14.290457,50.058923],[14.290411,50.058919],[14.290194,50.058896],[14.289929,50.058874],[14.289736,50.058856],[14.289502,50.058837],[14.289456,50.058842],[14.289266,50.058812],[14.289111,50.058802],[14.289051,50.058757],[14.28912,50.058412],[14.288958,50.05825],[14.288915,50.05819],[14.288505,50.058061],[14.288328,50.058],[14.288124,50.057927],[14.287935,50.057869],[14.2877,50.057794],[14.287553,50.058861],[14.287442,50.058851],[14.287095,50.058829],[14.286989,50.059382],[14.28526,50.059285],[14.285078,50.059578],[14.285084,50.059709],[14.284888,50.060133],[14.287594,50.060626]]]}},{"type":"Feature","properties":{"cislo":57003,"kod":27703,"mestskaCast":"praha-zlicin"},"geometry":{"type":"Polygon","coordinates":[[[14.278531,50.059757],[14.278875,50.059861],[14.27935,50.059949],[14.281439,50.060137],[14.281659,50.060029],[14.281902,50.060015],[14.283361,50.059855],[14.284888,50.060133],[14.285084,50.059709],[14.285078,50.059578],[14.28526,50.059285],[14.286989,50.059382],[14.287095,50.058829],[14.287442,50.058851],[14.287553,50.058861],[14.2877,50.057794],[14.287324,50.057642],[14.287035,50.057543],[14.286275,50.057275],[14.285962,50.057093],[14.285899,50.05706],[14.285655,50.056947],[14.28559,50.056923],[14.285065,50.056677],[14.283673,50.056007],[14.283495,50.055918],[14.283167,50.055807],[14.282915,50.05573],[14.282808,50.055702],[14.282812,50.055685],[14.281827,50.055414],[14.28111,50.056058],[14.280466,50.056817],[14.279941,50.057351],[14.279525,50.057777],[14.279159,50.058162],[14.278788,50.058637],[14.278646,50.058905],[14.278569,50.059062],[14.278676,50.05909],[14.278531,50.059757]]]}},{"type":"Feature","properties":{"cislo":57004,"kod":27705,"mestskaCast":"praha-zlicin"},"geometry":{"type":"Polygon","coordinates":[[[14.266755,50.072628],[14.266837,50.072633],[14.266886,50.072636],[14.266977,50.072642],[14.267007,50.072644],[14.267748,50.072689],[14.268865,50.072758],[14.269818,50.072814],[14.27322,50.073002],[14.274808,50.073058],[14.275302,50.073087],[14.275622,50.07275],[14.275975,50.072468],[14.276302,50.07223],[14.276639,50.072045],[14.2769,50.071906],[14.276926,50.071893],[14.277093,50.07181],[14.277305,50.071711],[14.277507,50.071584],[14.27774,50.071429],[14.277789,50.071391],[14.277811,50.071374],[14.27786,50.071336],[14.27812,50.071078],[14.27825,50.070872],[14.278374,50.070891],[14.27855,50.070918],[14.278551,50.070918],[14.278551,50.070918],[14.278552,50.070917],[14.278607,50.070858],[14.278654,50.070835],[14.278721,50.070723],[14.27874,50.070634],[14.278752,50.07058],[14.278779,50.070456],[14.278786,50.07042],[14.278788,50.070348],[14.278726,50.070242],[14.278718,50.070214],[14.278623,50.070133],[14.278542,50.070053],[14.278483,50.069866],[14.278513,50.06986],[14.278584,50.069857],[14.278701,50.069841],[14.278773,50.069638],[14.27879,50.069558],[14.279045,50.068837],[14.279225,50.068526],[14.27856,50.068276],[14.27744,50.067912],[14.276613,50.067629],[14.275836,50.067377],[14.275042,50.067197],[14.274155,50.066999],[14.274048,50.066971],[14.273777,50.06692],[14.273684,50.066893],[14.273883,50.06643],[14.273967,50.066238],[14.274033,50.065999],[14.274138,50.065708],[14.274145,50.065482],[14.2742,50.064252],[14.274254,50.06394],[14.274366,50.063487],[14.274374,50.063451],[14.274378,50.063043],[14.274353,50.062378],[14.274282,50.0616],[14.274269,50.061462],[14.274273,50.061445],[14.274271,50.06139],[14.274277,50.061363],[14.274266,50.060436],[14.274245,50.060208],[14.274206,50.059805],[14.274135,50.059353],[14.274458,50.059355],[14.275239,50.059334],[14.275521,50.059269],[14.275866,50.0593],[14.276181,50.059347],[14.276195,50.059348],[14.276262,50.059363],[14.276371,50.059382],[14.276398,50.059384],[14.276451,50.059335],[14.276508,50.059203],[14.276528,50.059178],[14.276575,50.059091],[14.276578,50.059074],[14.276592,50.059011],[14.276605,50.058949],[14.276609,50.058931],[14.276613,50.058913],[14.276617,50.058895],[14.276617,50.058832],[14.276622,50.058805],[14.276626,50.058787],[14.276636,50.058743],[14.276669,50.058655],[14.276643,50.058644],[14.276521,50.058624],[14.276525,50.058606],[14.276554,50.058472],[14.276553,50.058409],[14.276571,50.058328],[14.276588,50.058248],[14.276436,50.058235],[14.276422,50.058233],[14.276408,50.058232],[14.276313,50.058215],[14.276286,50.058212],[14.276189,50.058203],[14.276146,50.058272],[14.275685,50.058185],[14.275325,50.058089],[14.275119,50.057998],[14.274816,50.057835],[14.274612,50.057671],[14.27358,50.05697],[14.273403,50.056873],[14.273199,50.056709],[14.273329,50.05663],[14.273581,50.056444],[14.274521,50.056792],[14.27478,50.056379],[14.274887,50.056144],[14.274977,50.055988],[14.275077,50.055788],[14.274648,50.055686],[14.273477,50.055427],[14.273218,50.055385],[14.273228,50.055277],[14.273276,50.055118],[14.273414,50.054677],[14.273477,50.054519],[14.27271,50.05435],[14.272354,50.0543],[14.272329,50.054416],[14.272247,50.054989],[14.272188,50.055456],[14.271868,50.055436],[14.271824,50.055442],[14.271739,50.055443],[14.271725,50.055442],[14.271689,50.055221],[14.271572,50.054331],[14.271566,50.054333],[14.271549,50.054336],[14.271517,50.054343],[14.271515,50.054343],[14.270932,50.054339],[14.270885,50.054338],[14.270117,50.054204],[14.269938,50.054146],[14.269929,50.054143],[14.269445,50.053926],[14.269442,50.053925],[14.268897,50.05366],[14.268846,50.053637],[14.268416,50.053446],[14.267356,50.053054],[14.267305,50.053041],[14.266778,50.05291],[14.266549,50.052852],[14.26582,50.05267],[14.265422,50.052582],[14.264837,50.052451],[14.264308,50.052332],[14.26404,50.052867],[14.264034,50.05288],[14.263232,50.05411],[14.263225,50.054121],[14.263213,50.054139],[14.263207,50.054148],[14.262321,50.055506],[14.262319,50.055509],[14.262312,50.05552],[14.262305,50.05553],[14.262081,50.055474],[14.261435,50.055312],[14.261361,50.055298],[14.261149,50.055257],[14.260521,50.055136],[14.258117,50.054563],[14.257231,50.054423],[14.256868,50.055004],[14.256763,50.055168],[14.256557,50.055431],[14.2565,50.055537],[14.256474,50.055568],[14.256448,50.055599],[14.255895,50.056263],[14.255817,50.056397],[14.255812,50.056407],[14.255688,50.056703],[14.255679,50.056742],[14.255598,50.057087],[14.254152,50.057141],[14.25357,50.057133],[14.253355,50.057115],[14.25331,50.057111],[14.252914,50.057082],[14.252188,50.056995],[14.251867,50.056953],[14.251336,50.056898],[14.251298,50.056894],[14.250848,50.056769],[14.250746,50.056836],[14.250745,50.056839],[14.250735,50.056857],[14.250722,50.056883],[14.250648,50.05699],[14.250398,50.05735],[14.250335,50.057408],[14.250105,50.057623],[14.249797,50.057776],[14.249456,50.057945],[14.249202,50.058015],[14.249024,50.058069],[14.248856,50.058101],[14.248609,50.058149],[14.248181,50.058257],[14.248087,50.058308],[14.248086,50.058309],[14.248075,50.058352],[14.248065,50.058393],[14.248055,50.058433],[14.248033,50.05852],[14.248032,50.058525],[14.24801,50.058611],[14.247927,50.058943],[14.247864,50.059206],[14.24774,50.059722],[14.247759,50.060043],[14.247765,50.060132],[14.247766,50.060151],[14.247771,50.060234],[14.247777,50.060333],[14.247806,50.060812],[14.247818,50.061014],[14.247823,50.061099],[14.24779,50.061277],[14.247756,50.061462],[14.247692,50.061813],[14.247686,50.061833],[14.247622,50.062038],[14.247585,50.062146],[14.24756,50.062224],[14.247609,50.062248],[14.247848,50.062249],[14.248644,50.062276],[14.249078,50.062302],[14.249269,50.062313],[14.249478,50.062328],[14.249899,50.062358],[14.250303,50.062386],[14.250375,50.062391],[14.251105,50.062455],[14.251275,50.062469],[14.251332,50.062474],[14.252593,50.062543],[14.252639,50.062546],[14.252854,50.062541],[14.252995,50.062548],[14.253044,50.062551],[14.253309,50.062565],[14.2536,50.062731],[14.253823,50.063013],[14.253993,50.06309],[14.254151,50.063148],[14.254208,50.063164],[14.25453,50.063258],[14.255192,50.063447],[14.25587,50.063666],[14.256261,50.063804],[14.256847,50.06404],[14.257534,50.064181],[14.258108,50.06427],[14.258474,50.064339],[14.258716,50.064424],[14.25875,50.064767],[14.258791,50.065182],[14.258815,50.065419],[14.258833,50.065604],[14.258853,50.065797],[14.25891,50.066122],[14.259086,50.067118],[14.259104,50.067407],[14.259111,50.067522],[14.258986,50.067564],[14.258648,50.067665],[14.258583,50.067684],[14.258337,50.067758],[14.258259,50.067826],[14.258241,50.068145],[14.25819,50.068562],[14.258229,50.069045],[14.25799,50.069524],[14.257959,50.069756],[14.257942,50.069888],[14.257906,50.070161],[14.257858,50.070519],[14.2578,50.070832],[14.257884,50.071133],[14.258001,50.071419],[14.258053,50.071517],[14.260752,50.071867],[14.261344,50.071943],[14.261549,50.071969],[14.261587,50.071974],[14.266755,50.072628]]]}},{"type":"Feature","properties":{"cislo":57005,"kod":121906,"mestskaCast":"praha-zlicin"},"geometry":{"type":"Polygon","coordinates":[[[14.300115,50.063259],[14.300271,50.06317],[14.300444,50.06307],[14.300742,50.062879],[14.300959,50.062892],[14.300958,50.062892],[14.300926,50.062834],[14.30082,50.062706],[14.301216,50.0625],[14.302129,50.062025],[14.302132,50.062025],[14.302354,50.062021],[14.302468,50.062019],[14.302496,50.062019],[14.302697,50.062023],[14.302707,50.062023],[14.302837,50.062026],[14.302863,50.062026],[14.302864,50.062025],[14.302903,50.061919],[14.303048,50.061531],[14.303993,50.061037],[14.304114,50.060973],[14.304115,50.060973],[14.304115,50.060973],[14.304187,50.060944],[14.304371,50.060871],[14.30444,50.060852],[14.304454,50.060648],[14.304458,50.060604],[14.304467,50.060469],[14.304487,50.060195],[14.304512,50.059857],[14.304557,50.059248],[14.304567,50.059102],[14.304588,50.058813],[14.304589,50.058809],[14.304589,50.058806],[14.304595,50.058726],[14.304601,50.05864],[14.304606,50.058566],[14.304607,50.058563],[14.304607,50.058562],[14.304655,50.057905],[14.304664,50.057777],[14.304673,50.05765],[14.304696,50.057343],[14.304698,50.05731],[14.304698,50.057303],[14.304691,50.057301],[14.30459,50.05727],[14.304502,50.057243],[14.304339,50.057193],[14.30416,50.057138],[14.3038,50.057027],[14.303623,50.056973],[14.302786,50.056716],[14.301368,50.05628],[14.300107,50.055893],[14.299597,50.055736],[14.29715,50.054984],[14.2972,50.054945],[14.297407,50.054724],[14.297425,50.054704],[14.297463,50.054664],[14.297566,50.054552],[14.297581,50.05454],[14.297591,50.054532],[14.297602,50.054523],[14.297725,50.054424],[14.297801,50.054364],[14.297827,50.054342],[14.297834,50.054337],[14.297923,50.054182],[14.297946,50.054142],[14.29798,50.054084],[14.297989,50.054067],[14.29808,50.053832],[14.298091,50.053767],[14.298088,50.053724],[14.298091,50.053642],[14.298095,50.053527],[14.298117,50.052898],[14.298139,50.052773],[14.298206,50.052497],[14.298212,50.052475],[14.298233,50.05239],[14.29825,50.05232],[14.298258,50.052291],[14.298259,50.052289],[14.298259,50.052289],[14.298064,50.052268],[14.296324,50.052108],[14.296083,50.052084],[14.295949,50.052072],[14.295858,50.052064],[14.29559,50.052035],[14.295309,50.052011],[14.295034,50.051986],[14.294751,50.051954],[14.294481,50.051931],[14.294229,50.051922],[14.294177,50.051916],[14.293927,50.051874],[14.293641,50.051845],[14.293369,50.051819],[14.293346,50.051818],[14.293084,50.051791],[14.29282,50.051763],[14.292548,50.051737],[14.292473,50.051734],[14.292242,50.051721],[14.291992,50.051682],[14.291715,50.05165],[14.291164,50.051598],[14.290893,50.051562],[14.290614,50.051531],[14.290478,50.051522],[14.290343,50.051523],[14.290316,50.051523],[14.290208,50.051524],[14.290191,50.051523],[14.290064,50.051486],[14.289792,50.051456],[14.289513,50.051421],[14.289233,50.051383],[14.28896,50.051352],[14.28868,50.051316],[14.288411,50.051282],[14.288135,50.051246],[14.287863,50.051199],[14.28759,50.05116],[14.287308,50.051123],[14.287036,50.051084],[14.286766,50.051042],[14.286505,50.051003],[14.28622,50.05096],[14.286158,50.050952],[14.285736,50.050886],[14.285669,50.050872],[14.285404,50.050829],[14.28513,50.050785],[14.284857,50.050738],[14.284697,50.050713],[14.284594,50.050693],[14.28432,50.050648],[14.284051,50.050601],[14.283778,50.05055],[14.283513,50.050504],[14.28342,50.050487],[14.283133,50.050453],[14.282851,50.050417],[14.282816,50.050413],[14.282485,50.050365],[14.282155,50.050308],[14.281834,50.050257],[14.281694,50.050238],[14.28166,50.050233],[14.281503,50.050209],[14.281411,50.050195],[14.281333,50.050183],[14.281116,50.050148],[14.280922,50.050123],[14.280593,50.050087],[14.280526,50.050076],[14.280274,50.050042],[14.279944,50.049994],[14.27962,50.049949],[14.27958,50.049941],[14.279282,50.049903],[14.27895,50.049864],[14.278612,50.04982],[14.278279,50.049785],[14.277939,50.049776],[14.277923,50.049776],[14.277921,50.049781],[14.277823,50.049788],[14.277631,50.049801],[14.277417,50.049835],[14.277391,50.049752],[14.277379,50.049714],[14.277361,50.049657],[14.27734,50.049651],[14.277256,50.049629],[14.277227,50.049622],[14.277187,50.049614],[14.277168,50.04961],[14.277166,50.049643],[14.27692,50.049613],[14.276733,50.049589],[14.27639,50.049547],[14.27634,50.049527],[14.276248,50.049474],[14.276163,50.049362],[14.276114,50.049355],[14.275966,50.049336],[14.275913,50.049329],[14.275937,50.049399],[14.275889,50.049465],[14.275863,50.049471],[14.275792,50.049485],[14.275518,50.049476],[14.275489,50.049473],[14.275441,50.049467],[14.275249,50.049443],[14.274934,50.049414],[14.274926,50.049413],[14.274908,50.049411],[14.274811,50.049377],[14.274666,50.049285],[14.274673,50.049327],[14.274726,50.049376],[14.274656,50.049412],[14.274648,50.049416],[14.274646,50.049417],[14.27471,50.049506],[14.274737,50.049527],[14.274823,50.049594],[14.274911,50.049685],[14.274971,50.049758],[14.27505,50.049945],[14.275076,50.050147],[14.275075,50.05015],[14.275063,50.050201],[14.275029,50.050345],[14.274967,50.050442],[14.274902,50.050545],[14.274721,50.050698],[14.274629,50.05075],[14.274479,50.050834],[14.274203,50.050925],[14.273975,50.050948],[14.273906,50.050955],[14.273856,50.05096],[14.2736,50.050949],[14.273535,50.050946],[14.27291,50.050739],[14.272714,50.050641],[14.272642,50.050601],[14.272637,50.050611],[14.272626,50.050698],[14.272613,50.050712],[14.272508,50.050824],[14.27224,50.051435],[14.272063,50.051928],[14.271694,50.052587],[14.27167,50.052642],[14.271658,50.052669],[14.271499,50.05308],[14.271452,50.053349],[14.271461,50.053611],[14.271483,50.053757],[14.27154,50.053971],[14.27162,50.05427],[14.271633,50.054319],[14.271589,50.054328],[14.271583,50.054329],[14.271572,50.054331],[14.271689,50.055221],[14.271725,50.055442],[14.271739,50.055443],[14.271824,50.055442],[14.271868,50.055436],[14.272188,50.055456],[14.272247,50.054989],[14.272329,50.054416],[14.272354,50.0543],[14.27271,50.05435],[14.273477,50.054519],[14.273414,50.054677],[14.273276,50.055118],[14.273228,50.055277],[14.273218,50.055385],[14.273477,50.055427],[14.274648,50.055686],[14.275077,50.055788],[14.274977,50.055988],[14.274887,50.056144],[14.27478,50.056379],[14.274521,50.056792],[14.273581,50.056444],[14.273329,50.05663],[14.273199,50.056709],[14.273403,50.056873],[14.27358,50.05697],[14.274612,50.057671],[14.274816,50.057835],[14.275119,50.057998],[14.275325,50.058089],[14.275685,50.058185],[14.276146,50.058272],[14.276189,50.058203],[14.276286,50.058212],[14.276313,50.058215],[14.276408,50.058232],[14.276422,50.058233],[14.276436,50.058235],[14.276588,50.058248],[14.276571,50.058328],[14.276553,50.058409],[14.276554,50.058472],[14.276525,50.058606],[14.276521,50.058624],[14.276643,50.058644],[14.276669,50.058655],[14.276636,50.058743],[14.276626,50.058787],[14.276622,50.058805],[14.276617,50.058832],[14.276617,50.058895],[14.276613,50.058913],[14.276609,50.058931],[14.276605,50.058949],[14.276592,50.059011],[14.276578,50.059074],[14.277025,50.059159],[14.27706,50.059453],[14.278531,50.059757],[14.278676,50.05909],[14.278569,50.059062],[14.278646,50.058905],[14.278788,50.058637],[14.279159,50.058162],[14.279525,50.057777],[14.279941,50.057351],[14.280466,50.056817],[14.28111,50.056058],[14.281827,50.055414],[14.282812,50.055685],[14.282808,50.055702],[14.282915,50.05573],[14.283167,50.055807],[14.283495,50.055918],[14.283673,50.056007],[14.285065,50.056677],[14.28559,50.056923],[14.285655,50.056947],[14.285899,50.05706],[14.285962,50.057093],[14.286275,50.057275],[14.287035,50.057543],[14.287324,50.057642],[14.2877,50.057794],[14.287935,50.057869],[14.288124,50.057927],[14.288328,50.058],[14.288505,50.058061],[14.288915,50.05819],[14.288958,50.05825],[14.28912,50.058412],[14.289051,50.058757],[14.289111,50.058802],[14.289266,50.058812],[14.289456,50.058842],[14.289502,50.058837],[14.289736,50.058856],[14.289929,50.058874],[14.290194,50.058896],[14.290411,50.058919],[14.290457,50.058923],[14.290647,50.05894],[14.290691,50.058933],[14.290738,50.058897],[14.291033,50.058781],[14.291272,50.058844],[14.291604,50.058943],[14.291888,50.059017],[14.292096,50.05907],[14.292332,50.05916],[14.292507,50.059217],[14.29267,50.059297],[14.292902,50.059209],[14.29303,50.059457],[14.293278,50.059477],[14.29377,50.059856],[14.294165,50.059819],[14.294187,50.05983],[14.294262,50.059817],[14.294326,50.059866],[14.29446,50.059968],[14.294557,50.060041],[14.294676,50.06013],[14.294722,50.060156],[14.294861,50.060187],[14.295033,50.060226],[14.295214,50.060268],[14.295411,50.060314],[14.295477,50.060329],[14.295657,50.060369],[14.295683,50.060376],[14.295736,50.060397],[14.295758,50.060406],[14.295811,50.060351],[14.295894,50.060385],[14.295902,50.060377],[14.295911,50.060381],[14.295946,50.060345],[14.295969,50.060354],[14.296005,50.060316],[14.296077,50.060344],[14.296724,50.060415],[14.297175,50.061341],[14.297502,50.061576],[14.298494,50.062251],[14.299154,50.062709],[14.299557,50.062981],[14.300115,50.063259]]]}}]}
