{"type":"FeatureCollection","features":[{"type":"Feature","properties":{"cislo":27001,"kod":30629,"mestskaCast":"praha-dablice"},"geometry":{"type":"Polygon","coordinates":[[[14.47979,50.139695],[14.47979,50.139696],[14.479742,50.139699],[14.479659,50.139705],[14.479465,50.139719],[14.479436,50.139721],[14.47894,50.139751],[14.47879,50.13976],[14.478655,50.139769],[14.478562,50.139775],[14.478516,50.139778],[14.478468,50.139781],[14.477955,50.139814],[14.477746,50.139829],[14.477657,50.139835],[14.477601,50.139726],[14.477554,50.139632],[14.477512,50.139666],[14.476751,50.14029],[14.476718,50.140274],[14.475574,50.139707],[14.475501,50.139671],[14.47458,50.138962],[14.474459,50.138869],[14.473313,50.138227],[14.473282,50.13821],[14.47323,50.138181],[14.473571,50.137765],[14.473778,50.137529],[14.474222,50.137026],[14.474222,50.137026],[14.472482,50.136367],[14.471708,50.136074],[14.470633,50.135667],[14.470429,50.135598],[14.468296,50.134879],[14.465845,50.134138],[14.46444,50.133701],[14.462764,50.133136],[14.461373,50.132733],[14.46136,50.132729],[14.460307,50.133564],[14.459554,50.134039],[14.459499,50.134089],[14.459192,50.134368],[14.458974,50.134568],[14.458627,50.134894],[14.458423,50.135086],[14.458241,50.135285],[14.4582,50.135329],[14.458179,50.135321],[14.458162,50.135314],[14.456427,50.137023],[14.456423,50.137056],[14.456421,50.13707],[14.456331,50.137855],[14.456312,50.138025],[14.456292,50.138196],[14.456277,50.138328],[14.456261,50.138461],[14.456248,50.138577],[14.456244,50.138614],[14.456231,50.138737],[14.456229,50.138767],[14.456199,50.139032],[14.456198,50.13904],[14.456174,50.139265],[14.456163,50.139361],[14.45616,50.139391],[14.456153,50.139455],[14.456152,50.139462],[14.456132,50.139639],[14.456106,50.139874],[14.456102,50.139912],[14.456085,50.140064],[14.456077,50.140139],[14.456064,50.140263],[14.456055,50.140337],[14.456042,50.14046],[14.456033,50.140535],[14.45602,50.14066],[14.455994,50.140885],[14.456249,50.140992],[14.456344,50.141032],[14.457491,50.14151],[14.457842,50.141659],[14.458139,50.141743],[14.458364,50.141801],[14.458572,50.141853],[14.458657,50.141874],[14.458829,50.141916],[14.459262,50.142021],[14.459867,50.142166],[14.460028,50.14222],[14.460104,50.142248],[14.461473,50.142729],[14.462613,50.142993],[14.462844,50.143052],[14.463789,50.143294],[14.464073,50.143375],[14.465363,50.143746],[14.465911,50.143934],[14.466249,50.144106],[14.466252,50.144108],[14.466561,50.144136],[14.467864,50.144316],[14.467853,50.14433],[14.467847,50.144338],[14.467804,50.144395],[14.467786,50.144418],[14.467783,50.144422],[14.467686,50.144854],[14.467545,50.146121],[14.467347,50.1475],[14.467035,50.149675],[14.467032,50.14969],[14.467031,50.149706],[14.46703,50.149717],[14.46703,50.149729],[14.466986,50.150363],[14.466953,50.150841],[14.466982,50.152197],[14.466984,50.152267],[14.466984,50.152267],[14.472581,50.150757],[14.475504,50.149898],[14.477821,50.14923],[14.479511,50.148726],[14.481057,50.148362],[14.481973,50.148171],[14.482463,50.148059],[14.482712,50.148018],[14.482957,50.147994],[14.482877,50.147969],[14.482792,50.147907],[14.482726,50.147819],[14.482604,50.147663],[14.482484,50.147562],[14.482269,50.147444],[14.482464,50.147388],[14.482616,50.147338],[14.482796,50.14729],[14.482977,50.147234],[14.483129,50.147183],[14.483163,50.147159],[14.48216,50.146563],[14.482082,50.146529],[14.481306,50.145598],[14.480599,50.144874],[14.480321,50.144586],[14.479712,50.143934],[14.478571,50.14279],[14.478463,50.142635],[14.478829,50.142576],[14.479154,50.142505],[14.47935,50.14245],[14.47948,50.142371],[14.479629,50.142266],[14.479772,50.142124],[14.479886,50.141989],[14.480003,50.141836],[14.480134,50.14162],[14.480213,50.141446],[14.480263,50.141278],[14.480322,50.141065],[14.480358,50.140896],[14.480361,50.140751],[14.480347,50.14055],[14.479795,50.139694],[14.47979,50.139695]]]}},{"type":"Feature","properties":{"cislo":27002,"kod":30631,"mestskaCast":"praha-dablice"},"geometry":{"type":"Polygon","coordinates":[[[14.502378,50.164013],[14.502455,50.162991],[14.502506,50.162304],[14.502737,50.15923],[14.502739,50.159211],[14.502739,50.159208],[14.502967,50.159225],[14.50335,50.159255],[14.503415,50.15926],[14.503558,50.159271],[14.503627,50.159235],[14.503968,50.159133],[14.50423,50.159054],[14.504323,50.159026],[14.504312,50.159002],[14.505545,50.158676],[14.505564,50.158556],[14.505604,50.1583],[14.505618,50.158214],[14.50562,50.1582],[14.505627,50.158171],[14.505677,50.157937],[14.505727,50.157759],[14.505855,50.157327],[14.505872,50.157283],[14.505924,50.157147],[14.505998,50.156952],[14.506101,50.156679],[14.506159,50.156527],[14.506174,50.156476],[14.506222,50.156309],[14.506252,50.156203],[14.506334,50.155977],[14.50642,50.155738],[14.506391,50.155734],[14.506137,50.155691],[14.505691,50.155634],[14.504963,50.155561],[14.503538,50.155437],[14.503586,50.155156],[14.503623,50.155035],[14.503676,50.154863],[14.503724,50.154707],[14.503741,50.15464],[14.503828,50.154294],[14.503849,50.154214],[14.504037,50.153744],[14.504043,50.153734],[14.504061,50.153703],[14.504157,50.15354],[14.504252,50.153463],[14.504422,50.153325],[14.504442,50.153308],[14.50449,50.153272],[14.504548,50.15323],[14.504576,50.153209],[14.50405,50.153134],[14.503375,50.153038],[14.503378,50.153019],[14.503555,50.152016],[14.503504,50.151919],[14.503442,50.151803],[14.50343,50.15178],[14.503344,50.151761],[14.503275,50.151745],[14.503187,50.151725],[14.503101,50.151706],[14.503092,50.151715],[14.503086,50.15172],[14.502705,50.151632],[14.501333,50.151323],[14.500236,50.151081],[14.499884,50.151],[14.499564,50.150909],[14.499173,50.150775],[14.498784,50.150612],[14.498057,50.150255],[14.497712,50.150072],[14.497414,50.149885],[14.497304,50.14977],[14.497242,50.149434],[14.497209,50.149254],[14.49711,50.148718],[14.49711,50.148716],[14.497122,50.148628],[14.497122,50.148626],[14.497127,50.148594],[14.497125,50.148539],[14.497123,50.148429],[14.497147,50.148263],[14.497155,50.148209],[14.497181,50.148102],[14.497207,50.148054],[14.49721,50.148048],[14.497237,50.147997],[14.497284,50.147935],[14.49733,50.147895],[14.497412,50.147846],[14.497577,50.147771],[14.497873,50.147663],[14.497911,50.147649],[14.497969,50.147629],[14.498138,50.14757],[14.498382,50.147467],[14.498833,50.147243],[14.498873,50.147223],[14.499166,50.147106],[14.499555,50.146976],[14.49963,50.146949],[14.499839,50.146872],[14.499916,50.146848],[14.499998,50.146823],[14.500189,50.146788],[14.500255,50.146781],[14.50052,50.146756],[14.500583,50.146755],[14.500595,50.146755],[14.500936,50.146749],[14.50118,50.146729],[14.501268,50.146712],[14.501597,50.146651],[14.501642,50.146638],[14.501928,50.146552],[14.501951,50.146545],[14.501986,50.146529],[14.502235,50.146416],[14.502392,50.146345],[14.502544,50.146256],[14.502572,50.14624],[14.502708,50.146156],[14.50288,50.146048],[14.502929,50.146017],[14.503148,50.14592],[14.503262,50.145882],[14.503334,50.145857],[14.503451,50.145782],[14.503508,50.145703],[14.503636,50.145453],[14.503669,50.145388],[14.503737,50.145257],[14.503752,50.145226],[14.503861,50.145014],[14.504014,50.144749],[14.504142,50.144573],[14.504294,50.144396],[14.504356,50.144308],[14.504392,50.144004],[14.504387,50.143865],[14.504386,50.143836],[14.504358,50.143149],[14.504356,50.143095],[14.50434,50.142683],[14.504291,50.142404],[14.504269,50.142403],[14.502929,50.142346],[14.502823,50.142342],[14.502376,50.142329],[14.501174,50.142294],[14.501167,50.14228],[14.50054,50.142353],[14.497902,50.142403],[14.496484,50.142332],[14.49649,50.142312],[14.496497,50.142291],[14.49664,50.141822],[14.496654,50.141775],[14.496776,50.141377],[14.496807,50.141274],[14.496932,50.140865],[14.496988,50.140681],[14.496992,50.140669],[14.497028,50.140551],[14.497124,50.140099],[14.497325,50.138809],[14.49736,50.138588],[14.497376,50.138483],[14.497378,50.138472],[14.497399,50.138322],[14.497444,50.137996],[14.497447,50.137971],[14.497449,50.137955],[14.497465,50.13784],[14.497476,50.137767],[14.497481,50.137731],[14.49749,50.137665],[14.497639,50.13663],[14.497676,50.136372],[14.497154,50.136346],[14.496853,50.136315],[14.49591,50.136219],[14.495909,50.136219],[14.49583,50.136211],[14.49556,50.136183],[14.495531,50.13618],[14.495507,50.136178],[14.4955,50.136177],[14.495482,50.136176],[14.495463,50.136174],[14.495457,50.136173],[14.495247,50.136151],[14.495202,50.136147],[14.495134,50.13614],[14.49476,50.136102],[14.49471,50.136097],[14.494689,50.136095],[14.494646,50.13609],[14.494639,50.136089],[14.494018,50.136016],[14.493582,50.135972],[14.49333,50.135942],[14.493131,50.135919],[14.492695,50.135869],[14.492522,50.135851],[14.492506,50.135849],[14.491683,50.135764],[14.491384,50.13572],[14.49065,50.135641],[14.490128,50.135574],[14.489657,50.135505],[14.489441,50.135474],[14.489273,50.135441],[14.489258,50.135439],[14.488758,50.135355],[14.488726,50.13535],[14.488583,50.135577],[14.488489,50.135772],[14.488368,50.136127],[14.488334,50.136311],[14.488319,50.136396],[14.488282,50.136523],[14.488172,50.136808],[14.488104,50.137125],[14.487955,50.137503],[14.487879,50.137694],[14.487739,50.137852],[14.487709,50.137885],[14.487403,50.138204],[14.487326,50.138209],[14.486942,50.138178],[14.486209,50.138144],[14.4857,50.13812],[14.485362,50.138121],[14.485063,50.138114],[14.484922,50.138112],[14.484771,50.1381],[14.48459,50.13807],[14.484422,50.138061],[14.484337,50.138058],[14.484168,50.138053],[14.483551,50.138059],[14.482936,50.13807],[14.482657,50.138069],[14.482208,50.138073],[14.482204,50.138074],[14.481297,50.138065],[14.481141,50.138066],[14.480737,50.138069],[14.480331,50.138086],[14.47988,50.138118],[14.479539,50.138178],[14.479223,50.138299],[14.479123,50.138286],[14.479022,50.13832],[14.479015,50.138322],[14.478892,50.138362],[14.478803,50.138325],[14.478776,50.138314],[14.478766,50.13831],[14.478699,50.138282],[14.478639,50.138257],[14.478572,50.138229],[14.478559,50.138232],[14.478565,50.138236],[14.478597,50.138253],[14.478614,50.138264],[14.478667,50.138297],[14.478689,50.13831],[14.478736,50.138351],[14.478757,50.138369],[14.478766,50.138377],[14.478807,50.13841],[14.478808,50.138411],[14.478836,50.138437],[14.478851,50.13845],[14.478856,50.138455],[14.47892,50.138514],[14.478959,50.138551],[14.478999,50.138587],[14.479036,50.138622],[14.479069,50.138653],[14.479076,50.138657],[14.479102,50.138675],[14.479126,50.138688],[14.479163,50.138707],[14.479169,50.138711],[14.479213,50.138743],[14.479361,50.138934],[14.479371,50.138951],[14.479393,50.13899],[14.479418,50.139033],[14.479441,50.139075],[14.479464,50.139115],[14.479488,50.139157],[14.479511,50.139198],[14.479534,50.13924],[14.479558,50.139282],[14.479622,50.139394],[14.479632,50.139413],[14.479655,50.139456],[14.479681,50.139502],[14.47976,50.139643],[14.479775,50.139669],[14.479775,50.13967],[14.47979,50.139695],[14.479795,50.139694],[14.480347,50.14055],[14.480361,50.140751],[14.480358,50.140896],[14.480322,50.141065],[14.480263,50.141278],[14.480213,50.141446],[14.480134,50.14162],[14.480003,50.141836],[14.479886,50.141989],[14.479772,50.142124],[14.479629,50.142266],[14.47948,50.142371],[14.47935,50.14245],[14.479154,50.142505],[14.478829,50.142576],[14.478463,50.142635],[14.478571,50.14279],[14.479712,50.143934],[14.480321,50.144586],[14.480599,50.144874],[14.481306,50.145598],[14.482082,50.146529],[14.48216,50.146563],[14.483163,50.147159],[14.483129,50.147183],[14.482977,50.147234],[14.482796,50.14729],[14.482616,50.147338],[14.482464,50.147388],[14.482269,50.147444],[14.482484,50.147562],[14.482604,50.147663],[14.482726,50.147819],[14.482792,50.147907],[14.482877,50.147969],[14.482957,50.147994],[14.482712,50.148018],[14.482463,50.148059],[14.481973,50.148171],[14.481057,50.148362],[14.479511,50.148726],[14.477821,50.14923],[14.475504,50.149898],[14.472581,50.150757],[14.466984,50.152267],[14.466984,50.152267],[14.46701,50.153506],[14.46878,50.153501],[14.468817,50.153498],[14.468846,50.153496],[14.468855,50.153627],[14.468889,50.153908],[14.468899,50.15396],[14.468936,50.154171],[14.468956,50.154289],[14.468986,50.154429],[14.469026,50.154614],[14.46907,50.154831],[14.469098,50.154941],[14.469184,50.155285],[14.469277,50.155645],[14.469365,50.155986],[14.469445,50.156312],[14.469467,50.156392],[14.469538,50.156725],[14.469529,50.15676],[14.469624,50.158087],[14.470003,50.158085],[14.469964,50.158434],[14.46996,50.158471],[14.469611,50.160547],[14.469608,50.160565],[14.47239,50.160836],[14.472467,50.16084],[14.474852,50.160963],[14.475973,50.161081],[14.476659,50.161152],[14.477272,50.161224],[14.477308,50.161228],[14.477369,50.161235],[14.477379,50.161236],[14.477388,50.161237],[14.477406,50.161239],[14.477616,50.161264],[14.477683,50.161272],[14.47789,50.161296],[14.47792,50.161299],[14.477929,50.1613],[14.477938,50.161301],[14.47809,50.161319],[14.478377,50.161353],[14.478389,50.161354],[14.4791,50.161437],[14.481127,50.161502],[14.482185,50.161521],[14.483176,50.161547],[14.483232,50.161548],[14.483275,50.16155],[14.483336,50.161551],[14.483364,50.161552],[14.483367,50.161552],[14.483387,50.161553],[14.483441,50.161545],[14.48345,50.161543],[14.483545,50.161529],[14.483563,50.161526],[14.483573,50.161525],[14.483599,50.161521],[14.483618,50.161521],[14.483636,50.161521],[14.483706,50.161522],[14.483803,50.161524],[14.483864,50.161524],[14.483971,50.161526],[14.484004,50.161526],[14.485869,50.161551],[14.488758,50.161548],[14.4888,50.161548],[14.488803,50.161548],[14.48893,50.161575],[14.488975,50.161618],[14.488976,50.161618],[14.488992,50.161634],[14.488983,50.161865],[14.488979,50.161956],[14.488976,50.162047],[14.488975,50.162073],[14.488989,50.162102],[14.489058,50.162238],[14.48906,50.162242],[14.489061,50.162345],[14.489065,50.16272],[14.489065,50.16273],[14.489065,50.16275],[14.489066,50.162819],[14.489066,50.162822],[14.489066,50.162826],[14.489072,50.16339],[14.489077,50.163929],[14.489306,50.163875],[14.489394,50.163855],[14.489824,50.163748],[14.490208,50.163647],[14.490611,50.16354],[14.490703,50.163513],[14.490931,50.163446],[14.491037,50.163415],[14.491469,50.163289],[14.491885,50.163167],[14.491892,50.163165],[14.492335,50.163039],[14.492745,50.162915],[14.493162,50.162789],[14.493592,50.162658],[14.493803,50.162595],[14.494005,50.162534],[14.494478,50.162397],[14.494795,50.1623],[14.495239,50.162168],[14.49537,50.162127],[14.495634,50.162045],[14.495703,50.162024],[14.495748,50.162013],[14.495758,50.16202],[14.495803,50.16205],[14.495812,50.162056],[14.495825,50.162065],[14.497245,50.163017],[14.498036,50.163515],[14.498069,50.163536],[14.498112,50.163563],[14.498366,50.163722],[14.498432,50.163761],[14.49888,50.16402],[14.499314,50.164272],[14.499473,50.164363],[14.499898,50.164305],[14.501056,50.164147],[14.502379,50.164026],[14.502378,50.164013]]]}}]}
