{"type":"FeatureCollection","features":[{"type":"Feature","properties":{"cislo":35001,"kod":27809,"mestskaCast":"praha-kralovice"},"geometry":{"type":"Polygon","coordinates":[[[14.640221,50.048413],[14.640347,50.048182],[14.640794,50.047622],[14.641279,50.047045],[14.64174,50.046505],[14.642454,50.045718],[14.642758,50.045411],[14.642938,50.045195],[14.6432,50.044814],[14.643304,50.044676],[14.64342,50.044521],[14.64347,50.044455],[14.643577,50.044312],[14.643639,50.044229],[14.643686,50.044167],[14.643663,50.043949],[14.643655,50.043877],[14.643658,50.043599],[14.643672,50.04349],[14.643693,50.043325],[14.643709,50.0432],[14.643794,50.042886],[14.643998,50.042297],[14.644002,50.042286],[14.644015,50.042251],[14.644032,50.042206],[14.64404,50.042183],[14.644058,50.042185],[14.644126,50.042195],[14.644183,50.042203],[14.644279,50.042217],[14.644602,50.042289],[14.644911,50.042373],[14.645107,50.042438],[14.645756,50.042652],[14.646364,50.042868],[14.646812,50.04306],[14.647122,50.043208],[14.647265,50.043275],[14.647489,50.043378],[14.647708,50.043506],[14.647948,50.043668],[14.648125,50.043803],[14.648349,50.044006],[14.648491,50.044156],[14.648578,50.044272],[14.648716,50.044456],[14.648793,50.044615],[14.648859,50.044727],[14.648993,50.044952],[14.649075,50.045082],[14.649153,50.045168],[14.649344,50.045379],[14.649492,50.045532],[14.649608,50.045651],[14.65006,50.04607],[14.65011,50.046115],[14.650364,50.046322],[14.650495,50.046414],[14.650758,50.0466],[14.650895,50.046696],[14.650972,50.046734],[14.650984,50.04674],[14.651313,50.046957],[14.651443,50.047039],[14.65171,50.047209],[14.651895,50.047323],[14.651978,50.047375],[14.652031,50.047428],[14.652298,50.047697],[14.652531,50.047946],[14.652656,50.048099],[14.652709,50.048191],[14.65273,50.048229],[14.652806,50.048385],[14.652888,50.048501],[14.653042,50.04867],[14.653376,50.048955],[14.653415,50.048981],[14.65359,50.0491],[14.653869,50.049254],[14.654324,50.049],[14.654841,50.048638],[14.655149,50.048354],[14.655664,50.047914],[14.655818,50.047785],[14.656493,50.047222],[14.657001,50.046874],[14.657352,50.04664],[14.657374,50.046625],[14.657609,50.046478],[14.657947,50.046267],[14.658586,50.045868],[14.658772,50.045752],[14.658823,50.045723],[14.659022,50.045608],[14.659506,50.045329],[14.659906,50.045098],[14.660148,50.044958],[14.660365,50.044672],[14.660497,50.044329],[14.660666,50.04404],[14.661038,50.043586],[14.661481,50.043018],[14.661599,50.042896],[14.661917,50.042569],[14.662715,50.041741],[14.663079,50.041392],[14.663125,50.041354],[14.663173,50.041314],[14.663279,50.041227],[14.663732,50.040854],[14.663773,50.040823],[14.664087,50.040589],[14.664479,50.040297],[14.664494,50.040285],[14.664587,50.040216],[14.665517,50.039522],[14.666684,50.038699],[14.666829,50.038552],[14.666852,50.038527],[14.666213,50.038429],[14.6651,50.038294],[14.664411,50.038176],[14.663344,50.038061],[14.661795,50.037893],[14.660825,50.037802],[14.660369,50.03778],[14.659605,50.037796],[14.658865,50.037815],[14.658206,50.03779],[14.658093,50.037798],[14.65806,50.037801],[14.65776,50.037823],[14.657455,50.037821],[14.656958,50.037817],[14.656958,50.037795],[14.656955,50.037745],[14.656955,50.037727],[14.656954,50.037713],[14.656942,50.037424],[14.65693,50.03713],[14.656912,50.036696],[14.656908,50.036602],[14.656878,50.036224],[14.656871,50.036139],[14.656835,50.035691],[14.656794,50.035186],[14.656775,50.03494],[14.656755,50.034698],[14.656703,50.034047],[14.656622,50.033581],[14.656615,50.033542],[14.656501,50.032882],[14.656462,50.032657],[14.656438,50.032518],[14.656402,50.032308],[14.656395,50.032275],[14.656279,50.0317],[14.656128,50.030955],[14.656202,50.030882],[14.656334,50.03075],[14.656555,50.03053],[14.65678,50.030306],[14.656828,50.030259],[14.657297,50.029791],[14.657469,50.029621],[14.657484,50.029606],[14.65755,50.029539],[14.657755,50.029336],[14.657791,50.0293],[14.657882,50.02921],[14.657915,50.029177],[14.658055,50.029038],[14.658305,50.028788],[14.658638,50.028457],[14.658749,50.028346],[14.658868,50.028228],[14.659128,50.027969],[14.659381,50.027717],[14.659822,50.027278],[14.659851,50.027249],[14.6599,50.0272],[14.65993,50.027171],[14.659966,50.027135],[14.659996,50.027105],[14.660131,50.026971],[14.660256,50.026847],[14.660388,50.026715],[14.66051,50.026593],[14.660593,50.026511],[14.66101,50.026096],[14.661123,50.025983],[14.661349,50.025758],[14.661167,50.025795],[14.660224,50.025743],[14.659788,50.025706],[14.659555,50.025686],[14.65828,50.025429],[14.65803,50.025409],[14.658018,50.025452],[14.657997,50.025525],[14.657983,50.025577],[14.657861,50.025961],[14.65737,50.025928],[14.657079,50.025907],[14.656977,50.025905],[14.65664,50.025897],[14.655798,50.025878],[14.655551,50.025873],[14.655531,50.025872],[14.65542,50.025898],[14.655394,50.026159],[14.655393,50.02617],[14.65539,50.0262],[14.65502,50.026192],[14.654971,50.026191],[14.654796,50.026193],[14.653579,50.026207],[14.652157,50.026275],[14.651443,50.026271],[14.651174,50.026248],[14.651134,50.026479],[14.65113,50.026505],[14.651118,50.026512],[14.6511,50.026524],[14.651088,50.026531],[14.651061,50.026551],[14.650415,50.026893],[14.65042,50.026923],[14.650273,50.026948],[14.64988,50.027025],[14.649896,50.027042],[14.649872,50.027047],[14.649048,50.027221],[14.648506,50.027447],[14.648279,50.027599],[14.64827,50.027605],[14.647148,50.027336],[14.646892,50.027279],[14.64664,50.027223],[14.646285,50.027881],[14.646128,50.028126],[14.645812,50.028619],[14.645495,50.028503],[14.645328,50.028423],[14.644703,50.02812],[14.644024,50.027855],[14.64338,50.027656],[14.642849,50.027595],[14.642876,50.027518],[14.643322,50.02671],[14.642791,50.026651],[14.642442,50.026611],[14.641552,50.026515],[14.640839,50.026448],[14.640828,50.026631],[14.640746,50.026908],[14.640694,50.026904],[14.640649,50.026895],[14.640596,50.026889],[14.6405,50.02688],[14.640141,50.026817],[14.639286,50.026668],[14.638674,50.026513],[14.638073,50.026337],[14.638046,50.026329],[14.637927,50.026295],[14.63784,50.026273],[14.63774,50.026248],[14.637157,50.026104],[14.637147,50.026101],[14.636721,50.026025],[14.636574,50.025999],[14.636069,50.025983],[14.636046,50.025982],[14.636028,50.025982],[14.635993,50.025983],[14.635988,50.026012],[14.636055,50.026338],[14.636017,50.026508],[14.635949,50.026593],[14.635823,50.026777],[14.63584,50.02688],[14.635865,50.027025],[14.635821,50.027026],[14.635709,50.027026],[14.634419,50.02701],[14.633989,50.026982],[14.633313,50.026933],[14.632708,50.02689],[14.631635,50.026798],[14.631043,50.026724],[14.630976,50.026716],[14.630941,50.026681],[14.630887,50.026629],[14.630863,50.026607],[14.630713,50.027048],[14.630581,50.027398],[14.630428,50.02792],[14.630335,50.028365],[14.630289,50.029022],[14.630211,50.029419],[14.630078,50.030073],[14.630043,50.030338],[14.630002,50.030698],[14.629894,50.031197],[14.629783,50.031731],[14.629779,50.031752],[14.629691,50.032297],[14.629645,50.032462],[14.629437,50.032952],[14.629312,50.03323],[14.629186,50.033499],[14.628887,50.033995],[14.628805,50.034182],[14.628739,50.034364],[14.628695,50.034587],[14.628668,50.034697],[14.628659,50.034734],[14.629011,50.035155],[14.628944,50.035403],[14.628838,50.035544],[14.628802,50.035594],[14.628762,50.035602],[14.628027,50.035739],[14.626473,50.036018],[14.624594,50.036388],[14.624623,50.036454],[14.624753,50.036752],[14.624832,50.036995],[14.624837,50.037019],[14.624889,50.037294],[14.6249,50.037523],[14.624917,50.037777],[14.624992,50.037783],[14.624973,50.037974],[14.624897,50.038214],[14.624783,50.038429],[14.623845,50.038194],[14.62383,50.03819],[14.62295,50.037954],[14.622875,50.03805],[14.622726,50.038425],[14.62248,50.039068],[14.622283,50.039567],[14.622278,50.03958],[14.622466,50.039637],[14.622663,50.039717],[14.62264,50.039736],[14.622335,50.039796],[14.622327,50.039797],[14.622225,50.040313],[14.622172,50.040597],[14.622124,50.040855],[14.622132,50.040924],[14.622689,50.041043],[14.624317,50.041534],[14.624647,50.041634],[14.624686,50.04165],[14.62585,50.042125],[14.625875,50.042144],[14.625879,50.042147],[14.625887,50.042152],[14.625905,50.042167],[14.625931,50.042187],[14.626102,50.042105],[14.626158,50.042078],[14.626248,50.042034],[14.626668,50.041818],[14.626767,50.041759],[14.627172,50.041501],[14.627361,50.041399],[14.627404,50.04137],[14.62746,50.041333],[14.627517,50.041296],[14.627544,50.041406],[14.627849,50.041624],[14.627896,50.041678],[14.628009,50.041844],[14.628121,50.042194],[14.628173,50.042485],[14.628151,50.042787],[14.628124,50.043062],[14.628071,50.043183],[14.627975,50.043344],[14.62762,50.043685],[14.627539,50.043786],[14.627457,50.043983],[14.627398,50.044136],[14.627388,50.044162],[14.627591,50.044163],[14.627714,50.044148],[14.627792,50.044152],[14.627889,50.044156],[14.627896,50.044157],[14.628185,50.044171],[14.628197,50.044171],[14.628278,50.044175],[14.628291,50.044176],[14.628399,50.044181],[14.628423,50.044229],[14.628635,50.044361],[14.62886,50.044415],[14.629429,50.044552],[14.629485,50.044566],[14.630265,50.044751],[14.631098,50.045105],[14.631179,50.045194],[14.63121,50.04529],[14.631222,50.045327],[14.631257,50.045438],[14.631269,50.045476],[14.631488,50.046167],[14.631491,50.046177],[14.631515,50.046252],[14.63164,50.046232],[14.631647,50.046231],[14.631691,50.046225],[14.63228,50.04615],[14.633165,50.045887],[14.633406,50.045878],[14.633587,50.045926],[14.633599,50.045832],[14.633646,50.045834],[14.633709,50.045837],[14.63383,50.045933],[14.633956,50.046056],[14.63415,50.046216],[14.634315,50.046347],[14.634528,50.04649],[14.63469,50.04658],[14.634867,50.046657],[14.63522,50.046782],[14.635581,50.046879],[14.635921,50.046972],[14.636249,50.047051],[14.636628,50.047129],[14.636998,50.047194],[14.637334,50.047243],[14.637455,50.047277],[14.637503,50.047303],[14.637543,50.047451],[14.637633,50.047706],[14.637729,50.047956],[14.637838,50.048197],[14.637922,50.048278],[14.637963,50.048279],[14.638347,50.04829],[14.638584,50.048294],[14.638932,50.048299],[14.639279,50.048314],[14.639473,50.048328],[14.639818,50.048357],[14.640161,50.048399],[14.640221,50.048413]]]}}]}
