{"type":"FeatureCollection","features":[{"type":"Feature","properties":{"cislo":52001,"kod":26521,"mestskaCast":"praha-troja"},"geometry":{"type":"Polygon","coordinates":[[[14.405395,50.130196],[14.405401,50.130197],[14.405726,50.130081],[14.406419,50.130226],[14.406435,50.129975],[14.406463,50.129634],[14.406498,50.129556],[14.406598,50.129335],[14.406399,50.129346],[14.406332,50.129339],[14.406263,50.129325],[14.406204,50.129309],[14.406143,50.129284],[14.406102,50.129259],[14.406067,50.129226],[14.40604,50.129188],[14.406029,50.129151],[14.406027,50.129113],[14.406029,50.129083],[14.406035,50.12905],[14.406047,50.129012],[14.40607,50.128978],[14.406097,50.128948],[14.406129,50.128918],[14.406159,50.128896],[14.406213,50.128851],[14.406443,50.128662],[14.406664,50.128416],[14.406752,50.128273],[14.406772,50.128241],[14.406869,50.128024],[14.406819,50.128018],[14.406803,50.12787],[14.406808,50.127814],[14.406822,50.127651],[14.406827,50.127597],[14.40686,50.127221],[14.406873,50.127067],[14.407109,50.126902],[14.408022,50.126949],[14.408036,50.12695],[14.408166,50.126956],[14.408169,50.126957],[14.408129,50.126921],[14.40812,50.126854],[14.408157,50.126772],[14.408167,50.126748],[14.408339,50.126344],[14.408428,50.126134],[14.408476,50.126023],[14.408526,50.125935],[14.40859,50.125858],[14.40868,50.125777],[14.408797,50.125708],[14.408912,50.125656],[14.408973,50.125634],[14.409398,50.1255],[14.410053,50.125281],[14.41046,50.125148],[14.411416,50.124866],[14.412098,50.124713],[14.412239,50.124744],[14.412482,50.124859],[14.412544,50.124919],[14.412592,50.124903],[14.412654,50.124882],[14.412703,50.124866],[14.412734,50.124907],[14.412973,50.125167],[14.413038,50.125215],[14.413119,50.125276],[14.413187,50.125236],[14.413198,50.125229],[14.413368,50.125127],[14.413417,50.125099],[14.413585,50.125143],[14.413625,50.125153],[14.41365,50.12516],[14.413641,50.125175],[14.413939,50.125293],[14.413957,50.125112],[14.41396,50.125084],[14.413976,50.125006],[14.414165,50.125051],[14.414377,50.125092],[14.414512,50.125115],[14.414648,50.125136],[14.414795,50.125154],[14.414921,50.125168],[14.415061,50.125181],[14.4152,50.125189],[14.415339,50.125199],[14.415478,50.125205],[14.415619,50.125209],[14.415759,50.125212],[14.415897,50.125212],[14.416124,50.125205],[14.41612,50.125128],[14.416093,50.125094],[14.415933,50.124898],[14.415839,50.124828],[14.415834,50.124823],[14.415732,50.124718],[14.415621,50.124642],[14.415489,50.124596],[14.415351,50.1245],[14.415624,50.124508],[14.416119,50.124456],[14.416376,50.124529],[14.416565,50.124375],[14.416758,50.124388],[14.416815,50.124392],[14.41759,50.124389],[14.418298,50.124329],[14.418727,50.124309],[14.419499,50.124272],[14.419577,50.124353],[14.420194,50.124314],[14.420488,50.124292],[14.421096,50.124295],[14.421142,50.124304],[14.421206,50.124317],[14.421376,50.124288],[14.421637,50.124243],[14.42186,50.124217],[14.422105,50.124211],[14.422292,50.12417],[14.422451,50.124135],[14.422582,50.124068],[14.422906,50.123971],[14.423649,50.12378],[14.423652,50.123777],[14.423802,50.123645],[14.423901,50.123558],[14.42395,50.123567],[14.424033,50.123348],[14.424231,50.123069],[14.424467,50.122781],[14.424975,50.122021],[14.42511,50.121687],[14.425117,50.121634],[14.424283,50.120831],[14.423796,50.120389],[14.42391,50.120388],[14.424971,50.120615],[14.425382,50.120664],[14.425636,50.120688],[14.426038,50.120676],[14.426318,50.120693],[14.426522,50.120721],[14.426846,50.120806],[14.427305,50.12097],[14.427763,50.121097],[14.428006,50.121155],[14.428187,50.121223],[14.428291,50.121254],[14.428523,50.121323],[14.429298,50.121572],[14.429649,50.121709],[14.429674,50.121722],[14.429779,50.121776],[14.430119,50.121952],[14.430502,50.122066],[14.430736,50.122183],[14.43076,50.122196],[14.430769,50.122202],[14.430879,50.122266],[14.431062,50.122372],[14.431266,50.122446],[14.431378,50.122476],[14.431494,50.122501],[14.432096,50.122615],[14.432561,50.122787],[14.433501,50.123082],[14.434088,50.123348],[14.434089,50.123347],[14.434126,50.123326],[14.434476,50.122614],[14.434571,50.12242],[14.434617,50.122302],[14.434694,50.121875],[14.434674,50.121735],[14.434431,50.121485],[14.434329,50.121386],[14.434148,50.121184],[14.434132,50.12116],[14.434052,50.121072],[14.434002,50.121025],[14.433837,50.120881],[14.433804,50.120834],[14.433768,50.120752],[14.433746,50.120603],[14.433729,50.120514],[14.433689,50.120438],[14.433601,50.120309],[14.433366,50.120095],[14.433341,50.120039],[14.433359,50.119971],[14.433483,50.119844],[14.433988,50.119167],[14.434044,50.119097],[14.434091,50.119038],[14.4341,50.119025],[14.434227,50.118936],[14.434317,50.118873],[14.434331,50.118862],[14.434575,50.118737],[14.43434,50.118565],[14.434063,50.118357],[14.433888,50.118226],[14.43367,50.118064],[14.433619,50.118023],[14.433573,50.117981],[14.433532,50.117936],[14.433495,50.117889],[14.433463,50.117842],[14.43338,50.117694],[14.433369,50.117674],[14.433373,50.1176],[14.43335,50.117577],[14.433353,50.117572],[14.433349,50.117568],[14.433333,50.117547],[14.43332,50.117526],[14.433311,50.117503],[14.433306,50.11748],[14.433304,50.117457],[14.433304,50.117283],[14.433304,50.117102],[14.433306,50.11704],[14.433317,50.116834],[14.433324,50.116759],[14.433335,50.116692],[14.433378,50.116407],[14.433431,50.116305],[14.433447,50.116276],[14.433467,50.116249],[14.433491,50.116223],[14.433519,50.116198],[14.433551,50.116175],[14.433586,50.116155],[14.433624,50.116136],[14.433664,50.11612],[14.433707,50.116107],[14.43375,50.116097],[14.434305,50.116009],[14.434329,50.116005],[14.434492,50.115981],[14.434834,50.115932],[14.435026,50.115905],[14.435451,50.115844],[14.435732,50.115805],[14.435984,50.115768],[14.436171,50.115741],[14.436451,50.115701],[14.436803,50.115652],[14.437067,50.115614],[14.437135,50.115604],[14.43726,50.115586],[14.437273,50.11549],[14.43728,50.115433],[14.437291,50.11535],[14.437295,50.11532],[14.437322,50.115099],[14.43733,50.115029],[14.437409,50.114404],[14.437452,50.114067],[14.437472,50.114023],[14.437476,50.114015],[14.437499,50.113964],[14.437511,50.113923],[14.437524,50.11388],[14.437527,50.113871],[14.437528,50.113869],[14.437544,50.113816],[14.437546,50.113809],[14.437571,50.113727],[14.43765,50.113591],[14.437745,50.113422],[14.437765,50.113388],[14.437769,50.113378],[14.437774,50.113365],[14.438097,50.112651],[14.435304,50.11215],[14.434455,50.112025],[14.434385,50.112015],[14.434322,50.112005],[14.432996,50.111811],[14.430512,50.111662],[14.428425,50.111923],[14.427927,50.111974],[14.427508,50.112017],[14.426157,50.112155],[14.423805,50.112655],[14.422324,50.113171],[14.420633,50.113819],[14.418661,50.11434],[14.416653,50.114518],[14.414198,50.114272],[14.411567,50.113755],[14.4096,50.113586],[14.407503,50.113453],[14.405346,50.113868],[14.403509,50.114351],[14.401917,50.115226],[14.400619,50.116134],[14.399522,50.117066],[14.398606,50.117887],[14.397859,50.118614],[14.397041,50.119473],[14.396347,50.1204],[14.395962,50.121138],[14.395828,50.121975],[14.395228,50.121854],[14.394955,50.121799],[14.394951,50.121798],[14.394953,50.1218],[14.395178,50.121971],[14.39636,50.122867],[14.397545,50.123939],[14.398934,50.125129],[14.400138,50.126323],[14.400782,50.12714],[14.40075,50.128321],[14.400874,50.129388],[14.401729,50.12951],[14.4019,50.129535],[14.402047,50.129556],[14.402238,50.129632],[14.402488,50.129731],[14.402697,50.129888],[14.402763,50.129962],[14.402863,50.130073],[14.403203,50.130231],[14.403458,50.130159],[14.403646,50.130085],[14.40395,50.130017],[14.404054,50.129923],[14.404306,50.129849],[14.404479,50.129888],[14.404584,50.129943],[14.404716,50.129987],[14.404822,50.129984],[14.405001,50.129934],[14.405113,50.129915],[14.405189,50.130154],[14.405253,50.130167],[14.405395,50.130196]]]}}]}
