{"type":"FeatureCollection","features":[{"type":"Feature","properties":{"cislo":11001,"kod":28303,"mestskaCast":"praha-11"},"geometry":{"type":"Polygon","coordinates":[[[14.518643,50.039056],[14.518645,50.039055],[14.518654,50.039052],[14.518683,50.039042],[14.518683,50.039042],[14.516974,50.038693],[14.517092,50.038468],[14.516655,50.038402],[14.516542,50.038538],[14.516476,50.038586],[14.516387,50.038606],[14.516211,50.038636],[14.515724,50.038674],[14.515471,50.038208],[14.513273,50.037742],[14.513023,50.038056],[14.512563,50.037834],[14.512287,50.037937],[14.512032,50.038214],[14.511778,50.038546],[14.51097,50.039636],[14.510738,50.039997],[14.511251,50.040568],[14.511254,50.04057],[14.511254,50.04057],[14.511315,50.040538],[14.511354,50.040532],[14.511359,50.040531],[14.511374,50.040529],[14.51146,50.040539],[14.511679,50.040591],[14.511732,50.040604],[14.511916,50.040642],[14.512051,50.040648],[14.512161,50.040634],[14.512218,50.040609],[14.512508,50.040486],[14.512735,50.040365],[14.512918,50.040262],[14.513189,50.04014],[14.513349,50.040069],[14.513923,50.039791],[14.514377,50.039559],[14.51446,50.039534],[14.514467,50.039533],[14.514605,50.039525],[14.514917,50.039506],[14.515304,50.039479],[14.515587,50.039458],[14.515919,50.039433],[14.515975,50.039457],[14.515984,50.039461],[14.515997,50.039467],[14.516396,50.039434],[14.5165,50.039425],[14.516525,50.039421],[14.51661,50.039404],[14.51704,50.039322],[14.517072,50.039339],[14.517617,50.039241],[14.518026,50.039166],[14.518643,50.039056]]]}},{"type":"Feature","properties":{"cislo":11002,"kod":28305,"mestskaCast":"praha-11"},"geometry":{"type":"Polygon","coordinates":[[[14.513273,50.037742],[14.515471,50.038208],[14.515724,50.038674],[14.516211,50.038636],[14.516387,50.038606],[14.516476,50.038586],[14.516542,50.038538],[14.516655,50.038402],[14.517092,50.038468],[14.516974,50.038693],[14.518683,50.039042],[14.518683,50.039042],[14.518696,50.039038],[14.518752,50.039018],[14.518802,50.039001],[14.519104,50.038925],[14.519274,50.038882],[14.519447,50.038838],[14.518559,50.03866],[14.517532,50.038452],[14.517993,50.03754],[14.517588,50.037459],[14.517733,50.037172],[14.516449,50.036914],[14.516178,50.036863],[14.515892,50.036484],[14.515445,50.0364],[14.515573,50.036129],[14.514694,50.035952],[14.514574,50.036123],[14.514472,50.036269],[14.514338,50.036438],[14.514221,50.036591],[14.514104,50.036745],[14.514084,50.03677],[14.513954,50.036922],[14.513819,50.037092],[14.513688,50.037243],[14.513538,50.037421],[14.513409,50.037564],[14.513368,50.037624],[14.513273,50.037742]]]}},{"type":"Feature","properties":{"cislo":11003,"kod":28307,"mestskaCast":"praha-11"},"geometry":{"type":"Polygon","coordinates":[[[14.5191,50.035641],[14.518663,50.035639],[14.518274,50.035613],[14.517997,50.035589],[14.517984,50.035588],[14.517669,50.035542],[14.517424,50.035503],[14.517086,50.035437],[14.516722,50.035359],[14.516196,50.035249],[14.515697,50.035142],[14.515303,50.035071],[14.514694,50.035952],[14.515573,50.036129],[14.515445,50.0364],[14.515892,50.036484],[14.516178,50.036863],[14.516449,50.036914],[14.517733,50.037172],[14.517588,50.037459],[14.517993,50.03754],[14.517532,50.038452],[14.518559,50.03866],[14.51866,50.038451],[14.518719,50.038302],[14.518015,50.038168],[14.517906,50.038149],[14.5191,50.035641]]]}},{"type":"Feature","properties":{"cislo":11004,"kod":28309,"mestskaCast":"praha-11"},"geometry":{"type":"Polygon","coordinates":[[[14.518559,50.03866],[14.519447,50.038838],[14.519592,50.038801],[14.519721,50.038768],[14.520033,50.03867],[14.520087,50.038653],[14.52053,50.038513],[14.520845,50.038404],[14.520952,50.038366],[14.521163,50.038283],[14.521165,50.038282],[14.521364,50.038204],[14.521643,50.038085],[14.521671,50.038075],[14.522202,50.03788],[14.522797,50.037649],[14.522867,50.037621],[14.522988,50.037573],[14.523132,50.037516],[14.523393,50.037409],[14.523538,50.037349],[14.5236,50.037327],[14.523611,50.037326],[14.523823,50.03732],[14.524369,50.037332],[14.525303,50.037445],[14.525362,50.037453],[14.5254,50.037459],[14.525434,50.037464],[14.525441,50.037431],[14.525493,50.037254],[14.525494,50.037245],[14.525569,50.037025],[14.525592,50.036918],[14.525649,50.036714],[14.525683,50.036554],[14.5257,50.036474],[14.52562,50.036385],[14.525606,50.036384],[14.525406,50.036266],[14.525197,50.036185],[14.524965,50.036083],[14.525084,50.035921],[14.525189,50.035757],[14.524095,50.035471],[14.524404,50.035008],[14.524922,50.035153],[14.525086,50.034914],[14.523757,50.034534],[14.523574,50.034799],[14.522937,50.034616],[14.522579,50.035175],[14.522775,50.035246],[14.522627,50.035614],[14.522445,50.035607],[14.522163,50.03561],[14.521924,50.035607],[14.521711,50.035616],[14.521626,50.035617],[14.521273,50.035623],[14.52102,50.035619],[14.520892,50.035625],[14.520596,50.035627],[14.520582,50.035625],[14.520412,50.035629],[14.520016,50.035639],[14.519605,50.035649],[14.519155,50.035645],[14.5191,50.035641],[14.517906,50.038149],[14.518015,50.038168],[14.518719,50.038302],[14.51866,50.038451],[14.518559,50.03866]]]}},{"type":"Feature","properties":{"cislo":11005,"kod":28311,"mestskaCast":"praha-11"},"geometry":{"type":"Polygon","coordinates":[[[14.530464,50.038157],[14.530464,50.038157],[14.530672,50.038177],[14.530851,50.038231],[14.531035,50.037495],[14.531082,50.037472],[14.531155,50.03746],[14.531218,50.03743],[14.531267,50.037398],[14.531304,50.037355],[14.531345,50.037295],[14.531374,50.037225],[14.530866,50.037163],[14.529591,50.036996],[14.526302,50.036626],[14.526387,50.036289],[14.526491,50.036262],[14.526682,50.036224],[14.526891,50.03617],[14.527232,50.036091],[14.527689,50.035995],[14.528057,50.035918],[14.528394,50.035857],[14.528584,50.035828],[14.529063,50.035761],[14.529469,50.035706],[14.529656,50.035686],[14.529757,50.035677],[14.530133,50.035628],[14.530451,50.035593],[14.530768,50.035557],[14.530914,50.035534],[14.531275,50.035493],[14.531549,50.035462],[14.531665,50.035445],[14.531723,50.035441],[14.531656,50.035354],[14.5316,50.035285],[14.53146,50.035082],[14.531396,50.034986],[14.5313,50.034905],[14.531249,50.034882],[14.530973,50.034786],[14.530334,50.034612],[14.529736,50.034441],[14.529576,50.0344],[14.529429,50.03436],[14.529164,50.034282],[14.528578,50.034122],[14.528566,50.034112],[14.528128,50.033983],[14.527756,50.033877],[14.527196,50.033728],[14.526691,50.033584],[14.526545,50.033544],[14.526105,50.033424],[14.526078,50.033422],[14.525412,50.033236],[14.525199,50.033181],[14.524389,50.032947],[14.523763,50.032774],[14.523696,50.032759],[14.523365,50.032657],[14.52266,50.032459],[14.522334,50.032939],[14.522056,50.033386],[14.521826,50.033738],[14.521512,50.034228],[14.521492,50.034253],[14.521344,50.034485],[14.521265,50.034596],[14.521074,50.034897],[14.520829,50.035257],[14.520637,50.035567],[14.520619,50.035583],[14.520596,50.035627],[14.520892,50.035625],[14.52102,50.035619],[14.521273,50.035623],[14.521626,50.035617],[14.521711,50.035616],[14.521924,50.035607],[14.522163,50.03561],[14.522445,50.035607],[14.522627,50.035614],[14.522775,50.035246],[14.522579,50.035175],[14.522937,50.034616],[14.523574,50.034799],[14.523757,50.034534],[14.525086,50.034914],[14.524922,50.035153],[14.524404,50.035008],[14.524095,50.035471],[14.525189,50.035757],[14.525084,50.035921],[14.524965,50.036083],[14.525197,50.036185],[14.525406,50.036266],[14.525606,50.036384],[14.52562,50.036385],[14.5257,50.036474],[14.525683,50.036554],[14.525649,50.036714],[14.525592,50.036918],[14.525569,50.037025],[14.525494,50.037245],[14.525493,50.037254],[14.525441,50.037431],[14.525434,50.037464],[14.525434,50.037464],[14.525517,50.037475],[14.525532,50.037443],[14.525544,50.037416],[14.525545,50.037414],[14.525611,50.037272],[14.525775,50.037318],[14.525844,50.037338],[14.525991,50.037379],[14.526045,50.037394],[14.526548,50.037535],[14.52692,50.037671],[14.527059,50.037727],[14.527614,50.037823],[14.528437,50.037926],[14.528915,50.037936],[14.528974,50.037937],[14.529152,50.038008],[14.529493,50.038144],[14.529787,50.038219],[14.529817,50.03817],[14.529823,50.038161],[14.52986,50.0381],[14.529943,50.038107],[14.529966,50.038109],[14.529983,50.038111],[14.530026,50.038115],[14.530113,50.038123],[14.530464,50.038157]]]}},{"type":"Feature","properties":{"cislo":11006,"kod":28313,"mestskaCast":"praha-11"},"geometry":{"type":"Polygon","coordinates":[[[14.533588,50.039613],[14.534191,50.036229],[14.534232,50.035697],[14.534193,50.035549],[14.534156,50.035391],[14.534094,50.035286],[14.534056,50.035201],[14.533885,50.034941],[14.533625,50.034773],[14.533437,50.034729],[14.533342,50.034712],[14.533203,50.0347],[14.533128,50.034657],[14.53307,50.034597],[14.533083,50.034535],[14.533332,50.033622],[14.532633,50.033534],[14.532264,50.034881],[14.532252,50.034934],[14.532307,50.035075],[14.532348,50.035215],[14.532395,50.035328],[14.532264,50.035343],[14.531957,50.035398],[14.531752,50.035435],[14.531723,50.035441],[14.531665,50.035445],[14.531549,50.035462],[14.531275,50.035493],[14.530914,50.035534],[14.530768,50.035557],[14.530451,50.035593],[14.530133,50.035628],[14.529757,50.035677],[14.529656,50.035686],[14.529469,50.035706],[14.529063,50.035761],[14.528584,50.035828],[14.528394,50.035857],[14.528057,50.035918],[14.527689,50.035995],[14.527232,50.036091],[14.526891,50.03617],[14.526682,50.036224],[14.526491,50.036262],[14.526387,50.036289],[14.526302,50.036626],[14.529591,50.036996],[14.530866,50.037163],[14.531374,50.037225],[14.531345,50.037295],[14.531304,50.037355],[14.531267,50.037398],[14.531218,50.03743],[14.531155,50.03746],[14.531082,50.037472],[14.531035,50.037495],[14.530851,50.038231],[14.531295,50.038365],[14.531498,50.038375],[14.531809,50.038389],[14.532193,50.038537],[14.532642,50.038754],[14.532809,50.038996],[14.532828,50.039024],[14.532851,50.039057],[14.532883,50.039173],[14.532863,50.039247],[14.532853,50.039278],[14.532827,50.039357],[14.532959,50.039403],[14.532989,50.039414],[14.533123,50.03946],[14.533249,50.039504],[14.533514,50.039596],[14.533588,50.039613]]]}},{"type":"Feature","properties":{"cislo":11007,"kod":28315,"mestskaCast":"praha-11"},"geometry":{"type":"Polygon","coordinates":[[[14.52266,50.032459],[14.523365,50.032657],[14.523696,50.032759],[14.523763,50.032774],[14.524389,50.032947],[14.525199,50.033181],[14.525412,50.033236],[14.526078,50.033422],[14.526105,50.033424],[14.526212,50.033052],[14.526246,50.032892],[14.526853,50.032954],[14.526937,50.032689],[14.526967,50.032547],[14.527914,50.032666],[14.529301,50.032833],[14.529384,50.032841],[14.529578,50.032858],[14.529592,50.032859],[14.529678,50.032848],[14.529743,50.032808],[14.529788,50.032731],[14.529832,50.032589],[14.52986,50.032456],[14.529904,50.032314],[14.529959,50.03212],[14.529997,50.032005],[14.53006,50.031711],[14.530004,50.031659],[14.529956,50.031604],[14.530035,50.031289],[14.530559,50.031347],[14.53232,50.031546],[14.532421,50.031138],[14.532258,50.031105],[14.532163,50.031088],[14.532027,50.031067],[14.531849,50.031042],[14.531559,50.031017],[14.531493,50.030993],[14.530709,50.030906],[14.530108,50.030817],[14.52956,50.030742],[14.529477,50.030734],[14.528848,50.030643],[14.528447,50.030608],[14.528406,50.030604],[14.527959,50.03052],[14.527682,50.030432],[14.52742,50.030336],[14.527162,50.030223],[14.526886,50.030063],[14.526407,50.02973],[14.525651,50.029174],[14.52506,50.029839],[14.524268,50.030722],[14.523813,50.031208],[14.52266,50.032459]]]}},{"type":"Feature","properties":{"cislo":11008,"kod":28317,"mestskaCast":"praha-11"},"geometry":{"type":"Polygon","coordinates":[[[14.530501,50.031623],[14.530511,50.031506],[14.530559,50.031347],[14.530035,50.031289],[14.529956,50.031604],[14.530004,50.031659],[14.53006,50.031711],[14.529997,50.032005],[14.529959,50.03212],[14.529904,50.032314],[14.52986,50.032456],[14.529832,50.032589],[14.529788,50.032731],[14.529743,50.032808],[14.529678,50.032848],[14.529592,50.032859],[14.529578,50.032858],[14.529384,50.032841],[14.529301,50.032833],[14.527914,50.032666],[14.526967,50.032547],[14.526937,50.032689],[14.526853,50.032954],[14.526246,50.032892],[14.526212,50.033052],[14.526105,50.033424],[14.526545,50.033544],[14.526691,50.033584],[14.527196,50.033728],[14.527756,50.033877],[14.528128,50.033983],[14.528566,50.034112],[14.528578,50.034122],[14.529164,50.034282],[14.529429,50.03436],[14.529576,50.0344],[14.529878,50.033301],[14.53028,50.033336],[14.530369,50.032981],[14.530945,50.032923],[14.531226,50.031922],[14.530501,50.031686],[14.530501,50.031623]]]}},{"type":"Feature","properties":{"cislo":11009,"kod":28319,"mestskaCast":"praha-11"},"geometry":{"type":"Polygon","coordinates":[[[14.529576,50.0344],[14.529736,50.034441],[14.530334,50.034612],[14.530973,50.034786],[14.531249,50.034882],[14.5313,50.034905],[14.531396,50.034986],[14.53146,50.035082],[14.5316,50.035285],[14.531656,50.035354],[14.531723,50.035441],[14.531752,50.035435],[14.531957,50.035398],[14.532264,50.035343],[14.532395,50.035328],[14.532348,50.035215],[14.532307,50.035075],[14.532252,50.034934],[14.532264,50.034881],[14.532633,50.033534],[14.532097,50.033469],[14.532484,50.032105],[14.532643,50.031684],[14.533087,50.03165],[14.533453,50.031519],[14.533439,50.031517],[14.533366,50.031466],[14.533173,50.031376],[14.533147,50.031365],[14.532965,50.031294],[14.532886,50.031269],[14.532676,50.031196],[14.532515,50.031155],[14.532448,50.03114],[14.532421,50.031138],[14.53232,50.031546],[14.530559,50.031347],[14.530511,50.031506],[14.530501,50.031623],[14.530501,50.031686],[14.531226,50.031922],[14.530945,50.032923],[14.530369,50.032981],[14.53028,50.033336],[14.529878,50.033301],[14.529576,50.0344]]]}},{"type":"Feature","properties":{"cislo":11010,"kod":28321,"mestskaCast":"praha-11"},"geometry":{"type":"Polygon","coordinates":[[[14.532633,50.033534],[14.533332,50.033622],[14.533083,50.034535],[14.53307,50.034597],[14.533128,50.034657],[14.533203,50.0347],[14.533342,50.034712],[14.533437,50.034729],[14.533625,50.034773],[14.533885,50.034941],[14.535141,50.034597],[14.535291,50.03422],[14.535297,50.034194],[14.535329,50.034042],[14.535382,50.033856],[14.535442,50.033571],[14.535444,50.033562],[14.535514,50.033432],[14.535537,50.033389],[14.535662,50.0332],[14.53573,50.033143],[14.535781,50.033102],[14.535668,50.033037],[14.535453,50.032919],[14.535316,50.032834],[14.535193,50.032751],[14.53502,50.032636],[14.534921,50.032573],[14.534813,50.032482],[14.534555,50.032305],[14.534409,50.032192],[14.534225,50.032067],[14.534065,50.031953],[14.534053,50.031943],[14.533847,50.031789],[14.533628,50.031625],[14.533503,50.03155],[14.533453,50.031519],[14.533087,50.03165],[14.532643,50.031684],[14.532484,50.032105],[14.532097,50.033469],[14.532633,50.033534]]]}},{"type":"Feature","properties":{"cislo":11011,"kod":28323,"mestskaCast":"praha-11"},"geometry":{"type":"Polygon","coordinates":[[[14.543553,50.036188],[14.543165,50.03594],[14.54395,50.035525],[14.544113,50.035358],[14.544114,50.035251],[14.544041,50.035105],[14.543693,50.035055],[14.5437,50.035006],[14.54371,50.034944],[14.543934,50.034854],[14.543948,50.034848],[14.544011,50.034701],[14.544041,50.03463],[14.544076,50.034507],[14.544082,50.034488],[14.544018,50.034424],[14.5439,50.034305],[14.543867,50.034272],[14.543664,50.034236],[14.543315,50.034174],[14.543147,50.034144],[14.543129,50.034141],[14.543108,50.034041],[14.543126,50.034015],[14.543172,50.033947],[14.543175,50.033942],[14.54266,50.03371],[14.542469,50.033571],[14.542345,50.033481],[14.542261,50.03342],[14.542264,50.0334],[14.542269,50.033362],[14.542178,50.033363],[14.541982,50.033355],[14.541718,50.033341],[14.541648,50.033335],[14.54141,50.033332],[14.541169,50.033338],[14.5409,50.033342],[14.540886,50.03334],[14.540577,50.033341],[14.540391,50.033352],[14.540247,50.033366],[14.540046,50.033385],[14.539786,50.033416],[14.53964,50.03344],[14.540237,50.031278],[14.539644,50.031217],[14.539715,50.031151],[14.539805,50.031059],[14.53981,50.031032],[14.539807,50.030914],[14.539777,50.030857],[14.539765,50.030847],[14.539695,50.030777],[14.539669,50.030766],[14.539562,50.030738],[14.539548,50.030737],[14.539357,50.030711],[14.539329,50.030709],[14.539254,50.030729],[14.539221,50.030754],[14.539139,50.030874],[14.539118,50.030908],[14.538972,50.030931],[14.538808,50.030908],[14.538559,50.030886],[14.538326,50.030857],[14.538214,50.031255],[14.536986,50.03113],[14.53673,50.032142],[14.536713,50.032222],[14.536664,50.03239],[14.536504,50.032548],[14.536335,50.032679],[14.536232,50.032769],[14.53611,50.032877],[14.536108,50.032886],[14.535848,50.033053],[14.535781,50.033102],[14.53573,50.033143],[14.535662,50.0332],[14.535537,50.033389],[14.535514,50.033432],[14.535444,50.033562],[14.535442,50.033571],[14.535382,50.033856],[14.535329,50.034042],[14.535297,50.034194],[14.535291,50.03422],[14.535141,50.034597],[14.533885,50.034941],[14.534056,50.035201],[14.534094,50.035286],[14.534156,50.035391],[14.534193,50.035549],[14.534232,50.035697],[14.534191,50.036229],[14.533588,50.039613],[14.533868,50.039677],[14.534045,50.039716],[14.534073,50.039722],[14.534236,50.039732],[14.534432,50.039727],[14.534749,50.039738],[14.534671,50.03955],[14.535207,50.039617],[14.535108,50.039785],[14.535299,50.039834],[14.535604,50.039746],[14.535688,50.039754],[14.536571,50.039936],[14.536623,50.039947],[14.536641,50.040032],[14.536761,50.040052],[14.537047,50.040072],[14.537263,50.040088],[14.537375,50.040092],[14.537697,50.040106],[14.537751,50.040104],[14.537833,50.0401],[14.537848,50.0401],[14.538058,50.04007],[14.538065,50.040069],[14.538119,50.040061],[14.538483,50.040009],[14.538765,50.040013],[14.538841,50.039914],[14.538861,50.039818],[14.538868,50.039659],[14.538815,50.039279],[14.538786,50.039156],[14.538792,50.039096],[14.538821,50.039042],[14.538876,50.038971],[14.538956,50.038898],[14.5391,50.038791],[14.539443,50.03859],[14.539422,50.038366],[14.539461,50.038295],[14.539595,50.038202],[14.539877,50.038132],[14.540061,50.038181],[14.54014,50.038257],[14.540277,50.038292],[14.540419,50.038316],[14.540559,50.038318],[14.540933,50.038265],[14.541364,50.038176],[14.541571,50.038154],[14.54192,50.038169],[14.541922,50.038169],[14.54202,50.038174],[14.542282,50.038164],[14.54283,50.038117],[14.543252,50.03808],[14.54326,50.03808],[14.543274,50.038078],[14.5434,50.038067],[14.543572,50.038037],[14.543603,50.037965],[14.543654,50.037842],[14.543621,50.037696],[14.543581,50.037523],[14.543496,50.037248],[14.543488,50.037155],[14.543484,50.03711],[14.543481,50.037073],[14.543443,50.036877],[14.543432,50.036819],[14.543422,50.03677],[14.543406,50.036688],[14.543449,50.036538],[14.543495,50.036384],[14.543553,50.036188]]]}},{"type":"Feature","properties":{"cislo":11012,"kod":28325,"mestskaCast":"praha-11"},"geometry":{"type":"Polygon","coordinates":[[[14.538326,50.030857],[14.538559,50.030886],[14.538808,50.030908],[14.538972,50.030931],[14.539118,50.030908],[14.539139,50.030874],[14.539221,50.030754],[14.539254,50.030729],[14.539329,50.030709],[14.539357,50.030711],[14.539548,50.030737],[14.539562,50.030738],[14.539669,50.030766],[14.539695,50.030777],[14.539765,50.030847],[14.539777,50.030857],[14.539807,50.030914],[14.53981,50.031032],[14.539805,50.031059],[14.539715,50.031151],[14.539644,50.031217],[14.540237,50.031278],[14.53964,50.03344],[14.539786,50.033416],[14.540046,50.033385],[14.540247,50.033366],[14.540391,50.033352],[14.540577,50.033341],[14.540886,50.03334],[14.5409,50.033342],[14.541169,50.033338],[14.54141,50.033332],[14.541648,50.033335],[14.541718,50.033341],[14.541982,50.033355],[14.542178,50.033363],[14.542269,50.033362],[14.542272,50.033344],[14.542276,50.033315],[14.5425,50.033325],[14.543168,50.033323],[14.543203,50.033296],[14.543217,50.033279],[14.543401,50.033055],[14.543414,50.033019],[14.543476,50.03285],[14.543516,50.032739],[14.543567,50.0326],[14.543582,50.032477],[14.543616,50.0322],[14.54365,50.03193],[14.544386,50.031968],[14.544707,50.031984],[14.544821,50.031452],[14.544824,50.031439],[14.544915,50.030988],[14.544948,50.030825],[14.544952,50.030816],[14.545003,50.030667],[14.545053,50.030521],[14.545265,50.03035],[14.545805,50.030752],[14.546036,50.030925],[14.546224,50.030847],[14.546265,50.030829],[14.546593,50.03069],[14.547306,50.030422],[14.547358,50.030402],[14.547383,50.030393],[14.547404,50.030385],[14.547921,50.030156],[14.547936,50.030149],[14.548367,50.02996],[14.548423,50.029936],[14.548566,50.029873],[14.549549,50.029437],[14.549109,50.028848],[14.549024,50.028735],[14.548797,50.02843],[14.548394,50.028786],[14.548377,50.028802],[14.548159,50.028992],[14.54793,50.029122],[14.547688,50.029214],[14.547572,50.029251],[14.547379,50.02932],[14.547327,50.029269],[14.547227,50.029169],[14.547199,50.02914],[14.547169,50.029111],[14.54698,50.028923],[14.546488,50.028433],[14.546318,50.028502],[14.546282,50.028517],[14.546235,50.028536],[14.545684,50.02876],[14.545346,50.028227],[14.54501,50.027625],[14.544839,50.027396],[14.54468,50.027434],[14.544551,50.027464],[14.544506,50.027474],[14.544233,50.027538],[14.543329,50.026737],[14.542375,50.026689],[14.541961,50.026668],[14.541839,50.026667],[14.541196,50.026661],[14.541098,50.026724],[14.540851,50.027133],[14.540508,50.027675],[14.540505,50.027673],[14.540505,50.027673],[14.53983,50.028602],[14.539656,50.02856],[14.539547,50.028541],[14.539246,50.028569],[14.538342,50.028644],[14.538112,50.028669],[14.53791,50.028688],[14.537697,50.028696],[14.537456,50.029637],[14.537609,50.029651],[14.537899,50.029676],[14.537863,50.029845],[14.537802,50.030067],[14.537751,50.030244],[14.537705,50.030394],[14.537657,50.030553],[14.537612,50.030703],[14.537581,50.030782],[14.537763,50.030789],[14.537776,50.03079],[14.538146,50.030841],[14.538326,50.030857]]]}},{"type":"Feature","properties":{"cislo":11013,"kod":28327,"mestskaCast":"praha-11"},"geometry":{"type":"Polygon","coordinates":[[[14.535227,50.029387],[14.535197,50.02953],[14.535072,50.029991],[14.534969,50.030408],[14.534914,50.030603],[14.534789,50.031064],[14.534651,50.031515],[14.534649,50.031524],[14.535586,50.031624],[14.53578,50.031704],[14.536181,50.03174],[14.536084,50.032067],[14.53673,50.032142],[14.536986,50.03113],[14.538214,50.031255],[14.538326,50.030857],[14.538146,50.030841],[14.537776,50.03079],[14.537763,50.030789],[14.537581,50.030782],[14.537612,50.030703],[14.537657,50.030553],[14.537705,50.030394],[14.537751,50.030244],[14.537802,50.030067],[14.537863,50.029845],[14.537899,50.029676],[14.537609,50.029651],[14.537456,50.029637],[14.537697,50.028696],[14.537612,50.028698],[14.53736,50.028694],[14.537178,50.028687],[14.536834,50.028648],[14.536338,50.028596],[14.536064,50.028562],[14.535775,50.028528],[14.535457,50.0285],[14.535443,50.028499],[14.535404,50.028686],[14.535284,50.029184],[14.535227,50.029387]]]}},{"type":"Feature","properties":{"cislo":11014,"kod":28329,"mestskaCast":"praha-11"},"geometry":{"type":"Polygon","coordinates":[[[14.535781,50.033102],[14.535848,50.033053],[14.536108,50.032886],[14.53611,50.032877],[14.536232,50.032769],[14.536335,50.032679],[14.536504,50.032548],[14.536664,50.03239],[14.536713,50.032222],[14.53673,50.032142],[14.536084,50.032067],[14.536181,50.03174],[14.53578,50.031704],[14.535586,50.031624],[14.534649,50.031524],[14.534651,50.031515],[14.534789,50.031064],[14.534914,50.030603],[14.534969,50.030408],[14.535072,50.029991],[14.535197,50.02953],[14.535227,50.029387],[14.53502,50.029369],[14.534662,50.029329],[14.534417,50.030024],[14.534309,50.030532],[14.534088,50.030513],[14.534048,50.030636],[14.534018,50.030779],[14.534003,50.03085],[14.533988,50.030921],[14.533947,50.030981],[14.533869,50.031083],[14.533791,50.031185],[14.533685,50.031285],[14.533453,50.031519],[14.533503,50.03155],[14.533628,50.031625],[14.533847,50.031789],[14.534053,50.031943],[14.534065,50.031953],[14.534225,50.032067],[14.534409,50.032192],[14.534555,50.032305],[14.534813,50.032482],[14.534921,50.032573],[14.53502,50.032636],[14.535193,50.032751],[14.535316,50.032834],[14.535453,50.032919],[14.535668,50.033037],[14.535781,50.033102]]]}},{"type":"Feature","properties":{"cislo":11015,"kod":28331,"mestskaCast":"praha-11"},"geometry":{"type":"Polygon","coordinates":[[[14.533453,50.031519],[14.533685,50.031285],[14.533791,50.031185],[14.533869,50.031083],[14.533947,50.030981],[14.533988,50.030921],[14.534003,50.03085],[14.534018,50.030779],[14.534048,50.030636],[14.534088,50.030513],[14.534309,50.030532],[14.534417,50.030024],[14.534662,50.029329],[14.53502,50.029369],[14.535227,50.029387],[14.535284,50.029184],[14.535404,50.028686],[14.535443,50.028499],[14.535457,50.0285],[14.535775,50.028528],[14.536064,50.028562],[14.536338,50.028596],[14.536834,50.028648],[14.537178,50.028687],[14.53736,50.028694],[14.537612,50.028698],[14.537697,50.028696],[14.53791,50.028688],[14.538112,50.028669],[14.538342,50.028644],[14.539246,50.028569],[14.539547,50.028541],[14.539656,50.02856],[14.53983,50.028602],[14.540505,50.027673],[14.540505,50.027673],[14.540473,50.027661],[14.540419,50.027641],[14.540384,50.027627],[14.538322,50.027078],[14.537774,50.026928],[14.537724,50.026914],[14.537158,50.026758],[14.536152,50.026482],[14.534352,50.026025],[14.534334,50.026021],[14.534143,50.025972],[14.533972,50.025929],[14.533011,50.025867],[14.533011,50.025867],[14.532402,50.026826],[14.531665,50.026915],[14.531443,50.027898],[14.531206,50.028953],[14.531953,50.029019],[14.531493,50.030993],[14.531559,50.031017],[14.531849,50.031042],[14.532027,50.031067],[14.532163,50.031088],[14.532258,50.031105],[14.532421,50.031138],[14.532448,50.03114],[14.532515,50.031155],[14.532676,50.031196],[14.532886,50.031269],[14.532965,50.031294],[14.533147,50.031365],[14.533173,50.031376],[14.533366,50.031466],[14.533439,50.031517],[14.533453,50.031519]]]}},{"type":"Feature","properties":{"cislo":11016,"kod":28333,"mestskaCast":"praha-11"},"geometry":{"type":"Polygon","coordinates":[[[14.531443,50.027898],[14.531665,50.026915],[14.532402,50.026826],[14.533011,50.025867],[14.533011,50.025867],[14.532437,50.025831],[14.53233,50.025807],[14.532304,50.025801],[14.531244,50.025491],[14.530718,50.025314],[14.530211,50.025144],[14.530169,50.02513],[14.530035,50.025087],[14.529722,50.024989],[14.529534,50.02493],[14.529517,50.024925],[14.529062,50.024755],[14.529037,50.024746],[14.528469,50.024539],[14.528405,50.024516],[14.528353,50.024497],[14.528313,50.024485],[14.528101,50.024422],[14.527931,50.02439],[14.527748,50.024355],[14.527312,50.024271],[14.527298,50.024265],[14.527244,50.024239],[14.527171,50.024183],[14.527105,50.024129],[14.527054,50.024046],[14.527017,50.023985],[14.527003,50.023986],[14.526956,50.023988],[14.526945,50.023987],[14.526937,50.023986],[14.525677,50.023861],[14.525564,50.02385],[14.524994,50.023713],[14.524629,50.023625],[14.524553,50.023607],[14.52424,50.023532],[14.524222,50.023529],[14.524214,50.023527],[14.524206,50.023525],[14.523926,50.023442],[14.523785,50.023395],[14.523734,50.023378],[14.523658,50.023353],[14.523656,50.023355],[14.523682,50.023366],[14.524059,50.02358],[14.526099,50.025057],[14.527932,50.026379],[14.526814,50.027606],[14.526339,50.028118],[14.528086,50.028317],[14.528294,50.0276],[14.529547,50.027737],[14.53033,50.027833],[14.530904,50.027879],[14.531443,50.027898]]]}},{"type":"Feature","properties":{"cislo":11017,"kod":28335,"mestskaCast":"praha-11"},"geometry":{"type":"Polygon","coordinates":[[[14.531493,50.030993],[14.531953,50.029019],[14.531206,50.028953],[14.531443,50.027898],[14.530904,50.027879],[14.53033,50.027833],[14.529547,50.027737],[14.528294,50.0276],[14.528086,50.028317],[14.526339,50.028118],[14.526152,50.028338],[14.525809,50.028554],[14.526248,50.028642],[14.527172,50.028752],[14.528307,50.028871],[14.52905,50.028955],[14.528952,50.029354],[14.5299,50.029465],[14.52956,50.030742],[14.530108,50.030817],[14.530709,50.030906],[14.531493,50.030993]]]}},{"type":"Feature","properties":{"cislo":11018,"kod":28337,"mestskaCast":"praha-11"},"geometry":{"type":"Polygon","coordinates":[[[14.52956,50.030742],[14.5299,50.029465],[14.528952,50.029354],[14.52905,50.028955],[14.528307,50.028871],[14.527172,50.028752],[14.526248,50.028642],[14.525809,50.028554],[14.525258,50.028903],[14.525319,50.028945],[14.525651,50.029174],[14.526407,50.02973],[14.526886,50.030063],[14.527162,50.030223],[14.52742,50.030336],[14.527682,50.030432],[14.527959,50.03052],[14.528406,50.030604],[14.528447,50.030608],[14.528848,50.030643],[14.529477,50.030734],[14.52956,50.030742]]]}},{"type":"Feature","properties":{"cislo":11019,"kod":28339,"mestskaCast":"praha-11"},"geometry":{"type":"Polygon","coordinates":[[[14.524297,50.028184],[14.524639,50.028432],[14.525001,50.028718],[14.525258,50.028903],[14.525809,50.028554],[14.526152,50.028338],[14.526339,50.028118],[14.526814,50.027606],[14.527932,50.026379],[14.526099,50.025057],[14.525923,50.02516],[14.525524,50.026513],[14.524755,50.026418],[14.524663,50.026719],[14.52468,50.026838],[14.524297,50.028184]]]}},{"type":"Feature","properties":{"cislo":11020,"kod":28341,"mestskaCast":"praha-11"},"geometry":{"type":"Polygon","coordinates":[[[14.523755,50.027819],[14.523866,50.027892],[14.524285,50.028174],[14.524297,50.028184],[14.52468,50.026838],[14.524663,50.026719],[14.524755,50.026418],[14.525524,50.026513],[14.525923,50.02516],[14.526099,50.025057],[14.524059,50.02358],[14.523682,50.023366],[14.523373,50.024428],[14.522796,50.024359],[14.522575,50.025202],[14.522335,50.02607],[14.522277,50.026146],[14.522166,50.026273],[14.522046,50.026371],[14.521892,50.026503],[14.52212,50.026623],[14.522365,50.026798],[14.522647,50.026996],[14.523059,50.027313],[14.523462,50.027602],[14.523755,50.027819]]]}},{"type":"Feature","properties":{"cislo":11021,"kod":28343,"mestskaCast":"praha-11"},"geometry":{"type":"Polygon","coordinates":[[[14.523682,50.023366],[14.523656,50.023355],[14.523658,50.023353],[14.523088,50.023162],[14.522922,50.023105],[14.522799,50.023063],[14.522337,50.022926],[14.522229,50.022879],[14.521997,50.022769],[14.521987,50.022765],[14.521954,50.022749],[14.521935,50.022741],[14.521918,50.022733],[14.521754,50.022658],[14.521726,50.022645],[14.521567,50.022573],[14.521567,50.022574],[14.52128,50.023137],[14.520815,50.025002],[14.522575,50.025202],[14.522796,50.024359],[14.523373,50.024428],[14.523682,50.023366]]]}},{"type":"Feature","properties":{"cislo":11022,"kod":28345,"mestskaCast":"praha-11"},"geometry":{"type":"Polygon","coordinates":[[[14.52188,50.026493],[14.521892,50.026503],[14.522046,50.026371],[14.522166,50.026273],[14.522277,50.026146],[14.522335,50.02607],[14.522575,50.025202],[14.520815,50.025002],[14.52128,50.023137],[14.521567,50.022574],[14.521567,50.022573],[14.521556,50.022568],[14.521498,50.022542],[14.521033,50.022348],[14.520768,50.022271],[14.520219,50.022112],[14.520027,50.022063],[14.519825,50.022012],[14.519818,50.02201],[14.519516,50.021918],[14.519488,50.021909],[14.519444,50.021896],[14.519406,50.021885],[14.519263,50.021841],[14.519261,50.021841],[14.51926,50.02184],[14.519168,50.021807],[14.519166,50.021808],[14.518347,50.024749],[14.516446,50.024546],[14.515767,50.024695],[14.514733,50.024586],[14.514548,50.025196],[14.515524,50.025308],[14.515676,50.025322],[14.517148,50.025487],[14.518622,50.025644],[14.519146,50.025699],[14.519723,50.025768],[14.520237,50.025867],[14.520679,50.025979],[14.521086,50.026114],[14.521461,50.026274],[14.521854,50.026481],[14.52188,50.026493]]]}},{"type":"Feature","properties":{"cislo":11023,"kod":28347,"mestskaCast":"praha-11"},"geometry":{"type":"Polygon","coordinates":[[[14.519168,50.021807],[14.519065,50.021769],[14.518955,50.021729],[14.518879,50.021702],[14.518339,50.021467],[14.518316,50.021466],[14.51825,50.021463],[14.518199,50.02146],[14.518172,50.021458],[14.517746,50.021297],[14.517484,50.0212],[14.517343,50.021149],[14.517307,50.021136],[14.517297,50.021132],[14.517297,50.021132],[14.517294,50.021135],[14.516752,50.023102],[14.515212,50.022922],[14.514943,50.02386],[14.514848,50.024178],[14.514743,50.024541],[14.514733,50.024586],[14.515767,50.024695],[14.516446,50.024546],[14.518347,50.024749],[14.519166,50.021808],[14.519168,50.021807]]]}},{"type":"Feature","properties":{"cislo":11024,"kod":28349,"mestskaCast":"praha-11"},"geometry":{"type":"Polygon","coordinates":[[[14.515212,50.022922],[14.516752,50.023102],[14.517294,50.021135],[14.517297,50.021132],[14.517297,50.021132],[14.517226,50.021106],[14.517137,50.021074],[14.517018,50.021031],[14.516733,50.020928],[14.516697,50.020915],[14.516283,50.020787],[14.516277,50.020785],[14.516253,50.020778],[14.515894,50.02068],[14.515447,50.020559],[14.515045,50.020469],[14.514863,50.020433],[14.514837,50.020427],[14.514728,50.020405],[14.514683,50.020397],[14.514669,50.020394],[14.514621,50.020386],[14.51453,50.020366],[14.514516,50.020363],[14.514316,50.020319],[14.514309,50.020318],[14.514289,50.020313],[14.514264,50.020308],[14.514255,50.020306],[14.514165,50.020287],[14.514165,50.020287],[14.514164,50.020289],[14.513478,50.022733],[14.515212,50.022922]]]}},{"type":"Feature","properties":{"cislo":11025,"kod":28351,"mestskaCast":"praha-11"},"geometry":{"type":"Polygon","coordinates":[[[14.508821,50.023903],[14.509216,50.023901],[14.50951,50.023909],[14.509799,50.023943],[14.510058,50.023984],[14.510263,50.024011],[14.510453,50.024046],[14.510682,50.024094],[14.510896,50.024149],[14.511134,50.024224],[14.511423,50.024322],[14.5117,50.02441],[14.51196,50.024514],[14.5123,50.024635],[14.512522,50.024718],[14.512784,50.024814],[14.5131,50.024914],[14.5134,50.023697],[14.514943,50.02386],[14.515212,50.022922],[14.513478,50.022733],[14.514164,50.020289],[14.514165,50.020287],[14.514165,50.020287],[14.514053,50.020263],[14.51404,50.02026],[14.513965,50.020244],[14.513954,50.020241],[14.513922,50.020234],[14.513844,50.020269],[14.512771,50.020656],[14.512401,50.020798],[14.512395,50.0208],[14.51186,50.020986],[14.511746,50.021025],[14.511288,50.021149],[14.511239,50.021163],[14.511118,50.021171],[14.511086,50.021177],[14.511005,50.021173],[14.510958,50.02117],[14.510751,50.021145],[14.510576,50.021123],[14.51057,50.021122],[14.510401,50.021094],[14.510119,50.021047],[14.510113,50.021046],[14.509893,50.021002],[14.509667,50.020957],[14.509631,50.021033],[14.509534,50.021004],[14.509455,50.020977],[14.509379,50.02095],[14.508937,50.02081],[14.508798,50.020766],[14.508794,50.02077],[14.508728,50.021018],[14.508707,50.021316],[14.508712,50.021625],[14.508731,50.021935],[14.508748,50.022317],[14.508756,50.022481],[14.508768,50.022691],[14.508801,50.023066],[14.508819,50.023449],[14.508821,50.023903]]]}},{"type":"Feature","properties":{"cislo":11026,"kod":28353,"mestskaCast":"praha-11"},"geometry":{"type":"Polygon","coordinates":[[[14.514548,50.025196],[14.514733,50.024586],[14.514743,50.024541],[14.514848,50.024178],[14.514943,50.02386],[14.5134,50.023697],[14.5131,50.024914],[14.512784,50.024814],[14.512522,50.024718],[14.5123,50.024635],[14.51196,50.024514],[14.5117,50.02441],[14.511423,50.024322],[14.511134,50.024224],[14.510896,50.024149],[14.510682,50.024094],[14.510453,50.024046],[14.510263,50.024011],[14.510058,50.023984],[14.509799,50.023943],[14.50951,50.023909],[14.509216,50.023901],[14.508821,50.023903],[14.508829,50.023931],[14.508816,50.024329],[14.508741,50.024812],[14.508551,50.025513],[14.508423,50.026118],[14.508124,50.027063],[14.508016,50.027507],[14.512035,50.027951],[14.512098,50.027721],[14.512244,50.027098],[14.512309,50.026923],[14.512393,50.026794],[14.512535,50.026589],[14.512843,50.026262],[14.512967,50.026146],[14.513095,50.026003],[14.513213,50.025913],[14.51326,50.02589],[14.51339,50.025874],[14.513406,50.025867],[14.513599,50.025884],[14.5139,50.025928],[14.514327,50.025975],[14.514548,50.025196]]]}},{"type":"Feature","properties":{"cislo":11027,"kod":28355,"mestskaCast":"praha-11"},"geometry":{"type":"Polygon","coordinates":[[[14.51396,50.028175],[14.514361,50.02821],[14.514429,50.027889],[14.514788,50.027921],[14.515524,50.025308],[14.514548,50.025196],[14.514327,50.025975],[14.5139,50.025928],[14.513599,50.025884],[14.513406,50.025867],[14.51339,50.025874],[14.51326,50.02589],[14.513213,50.025913],[14.513095,50.026003],[14.512967,50.026146],[14.512843,50.026262],[14.512535,50.026589],[14.512393,50.026794],[14.512309,50.026923],[14.512244,50.027098],[14.512098,50.027721],[14.512035,50.027951],[14.51396,50.028175]]]}},{"type":"Feature","properties":{"cislo":11028,"kod":28357,"mestskaCast":"praha-11"},"geometry":{"type":"Polygon","coordinates":[[[14.514361,50.02821],[14.51721,50.028524],[14.51764,50.026892],[14.516802,50.026791],[14.517148,50.025487],[14.515676,50.025322],[14.515524,50.025308],[14.514788,50.027921],[14.514429,50.027889],[14.514361,50.02821]]]}},{"type":"Feature","properties":{"cislo":11029,"kod":28359,"mestskaCast":"praha-11"},"geometry":{"type":"Polygon","coordinates":[[[14.51764,50.026892],[14.519498,50.0271],[14.519708,50.027173],[14.520668,50.027294],[14.520788,50.02686],[14.521369,50.026911],[14.521443,50.026826],[14.521562,50.026728],[14.521666,50.026637],[14.52188,50.026493],[14.521854,50.026481],[14.521461,50.026274],[14.521086,50.026114],[14.520679,50.025979],[14.520237,50.025867],[14.519723,50.025768],[14.519146,50.025699],[14.518622,50.025644],[14.517148,50.025487],[14.516802,50.026791],[14.51764,50.026892]]]}},{"type":"Feature","properties":{"cislo":11030,"kod":28361,"mestskaCast":"praha-11"},"geometry":{"type":"Polygon","coordinates":[[[14.520383,50.029174],[14.520469,50.028901],[14.523111,50.029196],[14.523326,50.02838],[14.523587,50.028412],[14.523755,50.027819],[14.523462,50.027602],[14.523059,50.027313],[14.522647,50.026996],[14.522365,50.026798],[14.52212,50.026623],[14.521892,50.026503],[14.52188,50.026493],[14.521666,50.026637],[14.521562,50.026728],[14.521443,50.026826],[14.521369,50.026911],[14.520788,50.02686],[14.520668,50.027294],[14.519708,50.027173],[14.519498,50.0271],[14.51764,50.026892],[14.51721,50.028524],[14.518187,50.028637],[14.518039,50.028869],[14.520205,50.02915],[14.520383,50.029174]]]}},{"type":"Feature","properties":{"cislo":11031,"kod":28363,"mestskaCast":"praha-11"},"geometry":{"type":"Polygon","coordinates":[[[14.525651,50.029174],[14.525319,50.028945],[14.525258,50.028903],[14.525001,50.028718],[14.524639,50.028432],[14.524297,50.028184],[14.524285,50.028174],[14.523866,50.027892],[14.523755,50.027819],[14.523587,50.028412],[14.523326,50.02838],[14.523111,50.029196],[14.520469,50.028901],[14.520383,50.029174],[14.521834,50.029374],[14.521378,50.030931],[14.523813,50.031208],[14.524268,50.030722],[14.52506,50.029839],[14.525651,50.029174]]]}},{"type":"Feature","properties":{"cislo":11032,"kod":28365,"mestskaCast":"praha-11"},"geometry":{"type":"Polygon","coordinates":[[[14.518729,50.032396],[14.519006,50.03242],[14.519297,50.032445],[14.519603,50.032463],[14.519923,50.032482],[14.52012,50.032481],[14.520361,50.032475],[14.520854,50.032473],[14.521249,50.032472],[14.521504,50.032467],[14.521731,50.03246],[14.52194,50.032469],[14.52266,50.032459],[14.523813,50.031208],[14.521378,50.030931],[14.521834,50.029374],[14.520383,50.029174],[14.520205,50.02915],[14.519721,50.030704],[14.520397,50.030773],[14.520303,50.031218],[14.519646,50.031124],[14.519038,50.03127],[14.518729,50.032396]]]}},{"type":"Feature","properties":{"cislo":11033,"kod":28367,"mestskaCast":"praha-11"},"geometry":{"type":"Polygon","coordinates":[[[14.516886,50.032188],[14.5173,50.032225],[14.517891,50.032295],[14.518413,50.032359],[14.518729,50.032396],[14.519038,50.03127],[14.519646,50.031124],[14.520303,50.031218],[14.520397,50.030773],[14.519721,50.030704],[14.520205,50.02915],[14.518039,50.028869],[14.517422,50.029922],[14.517303,50.030347],[14.516144,50.030236],[14.515662,50.031782],[14.516088,50.031828],[14.51618,50.031464],[14.517061,50.03156],[14.516886,50.032188]]]}},{"type":"Feature","properties":{"cislo":11034,"kod":28369,"mestskaCast":"praha-11"},"geometry":{"type":"Polygon","coordinates":[[[14.516886,50.032188],[14.517061,50.03156],[14.51618,50.031464],[14.516088,50.031828],[14.515662,50.031782],[14.516144,50.030236],[14.517303,50.030347],[14.517422,50.029922],[14.518039,50.028869],[14.518187,50.028637],[14.51721,50.028524],[14.514361,50.02821],[14.51396,50.028175],[14.51327,50.030836],[14.514578,50.030979],[14.514502,50.031271],[14.513223,50.031123],[14.51306,50.031762],[14.513528,50.031812],[14.514518,50.031926],[14.515192,50.032003],[14.51599,50.032092],[14.516708,50.032164],[14.516886,50.032188]]]}},{"type":"Feature","properties":{"cislo":11035,"kod":28371,"mestskaCast":"praha-11"},"geometry":{"type":"Polygon","coordinates":[[[14.51306,50.031762],[14.513223,50.031123],[14.514502,50.031271],[14.514578,50.030979],[14.51327,50.030836],[14.51396,50.028175],[14.512035,50.027951],[14.508016,50.027507],[14.507047,50.031152],[14.507429,50.032138],[14.508204,50.032206],[14.508605,50.032241],[14.509129,50.032297],[14.509429,50.032341],[14.509555,50.032343],[14.509826,50.031396],[14.512674,50.031719],[14.51306,50.031762]]]}},{"type":"Feature","properties":{"cislo":11036,"kod":28373,"mestskaCast":"praha-11"},"geometry":{"type":"Polygon","coordinates":[[[14.512898,50.032392],[14.51306,50.031762],[14.512674,50.031719],[14.509826,50.031396],[14.509555,50.032343],[14.509429,50.032341],[14.509129,50.032297],[14.508605,50.032241],[14.508204,50.032206],[14.507429,50.032138],[14.507637,50.032619],[14.508181,50.032712],[14.510628,50.0332],[14.509976,50.03415],[14.511665,50.034225],[14.512355,50.034359],[14.512656,50.033269],[14.512896,50.032401],[14.512898,50.032392]]]}},{"type":"Feature","properties":{"cislo":11037,"kod":28375,"mestskaCast":"praha-11"},"geometry":{"type":"Polygon","coordinates":[[[14.512355,50.034359],[14.512555,50.034412],[14.512806,50.034489],[14.513111,50.034579],[14.513485,50.034676],[14.513699,50.034731],[14.514075,50.034818],[14.514492,50.034909],[14.514951,50.035004],[14.515222,50.035055],[14.515268,50.034905],[14.515582,50.033753],[14.515726,50.033275],[14.515014,50.033177],[14.5134,50.033017],[14.513542,50.032476],[14.512898,50.032392],[14.512896,50.032401],[14.512656,50.033269],[14.512355,50.034359]]]}},{"type":"Feature","properties":{"cislo":11038,"kod":28377,"mestskaCast":"praha-11"},"geometry":{"type":"Polygon","coordinates":[[[14.515303,50.035071],[14.515697,50.035142],[14.516196,50.035249],[14.516722,50.035359],[14.517086,50.035437],[14.517424,50.035503],[14.517669,50.035542],[14.517984,50.035588],[14.517997,50.035589],[14.518158,50.035032],[14.517899,50.034991],[14.518279,50.033527],[14.518694,50.033563],[14.519006,50.03242],[14.518729,50.032396],[14.518413,50.032359],[14.517891,50.032295],[14.5173,50.032225],[14.516886,50.032188],[14.516708,50.032164],[14.51599,50.032092],[14.515192,50.032003],[14.514518,50.031926],[14.513528,50.031812],[14.51306,50.031762],[14.512898,50.032392],[14.513542,50.032476],[14.5134,50.033017],[14.515014,50.033177],[14.515726,50.033275],[14.515582,50.033753],[14.515268,50.034905],[14.515222,50.035055],[14.515303,50.035071]]]}},{"type":"Feature","properties":{"cislo":11039,"kod":28379,"mestskaCast":"praha-11"},"geometry":{"type":"Polygon","coordinates":[[[14.521492,50.034253],[14.521512,50.034228],[14.521826,50.033738],[14.522056,50.033386],[14.522334,50.032939],[14.52266,50.032459],[14.52194,50.032469],[14.521731,50.03246],[14.521504,50.032467],[14.521249,50.032472],[14.520854,50.032473],[14.520361,50.032475],[14.52012,50.032481],[14.519923,50.032482],[14.519603,50.032463],[14.519297,50.032445],[14.519006,50.03242],[14.518694,50.033563],[14.518553,50.034095],[14.519474,50.034203],[14.519541,50.034019],[14.520614,50.03414],[14.520707,50.034166],[14.521492,50.034253]]]}},{"type":"Feature","properties":{"cislo":11040,"kod":28381,"mestskaCast":"praha-11"},"geometry":{"type":"Polygon","coordinates":[[[14.517997,50.035589],[14.518274,50.035613],[14.518663,50.035639],[14.5191,50.035641],[14.519155,50.035645],[14.519605,50.035649],[14.520016,50.035639],[14.520412,50.035629],[14.520582,50.035625],[14.520596,50.035627],[14.520619,50.035583],[14.520637,50.035567],[14.520829,50.035257],[14.521074,50.034897],[14.521265,50.034596],[14.521344,50.034485],[14.521492,50.034253],[14.520707,50.034166],[14.520614,50.03414],[14.519541,50.034019],[14.519474,50.034203],[14.518553,50.034095],[14.518694,50.033563],[14.518279,50.033527],[14.517899,50.034991],[14.518158,50.035032],[14.517997,50.035589]]]}},{"type":"Feature","properties":{"cislo":11041,"kod":28383,"mestskaCast":"praha-11"},"geometry":{"type":"Polygon","coordinates":[[[14.507637,50.032619],[14.507429,50.032138],[14.507047,50.031152],[14.506046,50.031418],[14.505853,50.031464],[14.505275,50.032666],[14.503009,50.032258],[14.502916,50.032231],[14.50275,50.03228],[14.502181,50.032439],[14.501713,50.032588],[14.501927,50.032907],[14.501855,50.033046],[14.501717,50.033233],[14.502243,50.033343],[14.502348,50.03318],[14.502617,50.03324],[14.502657,50.033252],[14.502378,50.033772],[14.502308,50.033902],[14.502219,50.034058],[14.502056,50.034361],[14.501943,50.03456],[14.501703,50.034829],[14.501615,50.034912],[14.501484,50.035064],[14.501461,50.035107],[14.503284,50.035413],[14.503671,50.035447],[14.503892,50.035466],[14.504417,50.035449],[14.504561,50.035371],[14.505085,50.035426],[14.505056,50.035496],[14.505435,50.035566],[14.505721,50.035681],[14.505861,50.035685],[14.505891,50.035342],[14.507308,50.03544],[14.507149,50.035988],[14.50773,50.036039],[14.50838,50.036097],[14.50836,50.036058],[14.508319,50.035919],[14.508252,50.035704],[14.508229,50.035611],[14.508219,50.035529],[14.508189,50.035336],[14.508154,50.035169],[14.508145,50.035078],[14.508114,50.034757],[14.508092,50.034665],[14.508087,50.034555],[14.508065,50.03439],[14.508036,50.034197],[14.507996,50.033985],[14.507957,50.033836],[14.507955,50.033781],[14.507908,50.033605],[14.507866,50.033402],[14.507829,50.033244],[14.507823,50.033207],[14.507754,50.033002],[14.507664,50.032694],[14.507637,50.032619]]]}},{"type":"Feature","properties":{"cislo":11042,"kod":28385,"mestskaCast":"praha-11"},"geometry":{"type":"Polygon","coordinates":[[[14.504263,50.038902],[14.504367,50.038947],[14.504497,50.038995],[14.5046,50.03904],[14.504745,50.039089],[14.504914,50.039159],[14.504965,50.039181],[14.505115,50.038741],[14.505387,50.037458],[14.505995,50.037511],[14.506141,50.036825],[14.506694,50.036874],[14.507113,50.036893],[14.507395,50.03689],[14.507922,50.036864],[14.508306,50.036843],[14.50865,50.036819],[14.50862,50.036762],[14.50855,50.036556],[14.508461,50.036312],[14.508388,50.036125],[14.50838,50.036097],[14.50773,50.036039],[14.507149,50.035988],[14.507308,50.03544],[14.505891,50.035342],[14.505861,50.035685],[14.505721,50.035681],[14.505435,50.035566],[14.505056,50.035496],[14.505085,50.035426],[14.504561,50.035371],[14.504417,50.035449],[14.503892,50.035466],[14.503671,50.035447],[14.503284,50.035413],[14.501461,50.035107],[14.501367,50.035217],[14.501252,50.035361],[14.501102,50.035538],[14.501028,50.035686],[14.501001,50.035747],[14.500888,50.036146],[14.501054,50.03616],[14.50159,50.036226],[14.502163,50.036312],[14.502681,50.036394],[14.503255,50.036481],[14.503789,50.036555],[14.50416,50.036597],[14.503983,50.037498],[14.504564,50.037549],[14.504263,50.038902]]]}},{"type":"Feature","properties":{"cislo":11043,"kod":28387,"mestskaCast":"praha-11"},"geometry":{"type":"Polygon","coordinates":[[[14.505978,50.039588],[14.506182,50.039688],[14.506402,50.039779],[14.50665,50.039874],[14.50687,50.039966],[14.507003,50.040005],[14.507203,50.040058],[14.507282,50.040084],[14.507375,50.04011],[14.507591,50.040156],[14.507618,50.040159],[14.507862,50.040207],[14.508148,50.04025],[14.508273,50.040261],[14.508439,50.040276],[14.508704,50.04029],[14.508887,50.040288],[14.508958,50.040285],[14.50924,50.040283],[14.509341,50.040274],[14.50954,50.040264],[14.50983,50.040226],[14.510006,50.040196],[14.510268,50.040155],[14.510524,50.040078],[14.510738,50.039997],[14.51097,50.039636],[14.511778,50.038546],[14.512032,50.038214],[14.512287,50.037937],[14.512563,50.037834],[14.513023,50.038056],[14.513273,50.037742],[14.513368,50.037624],[14.513409,50.037564],[14.513538,50.037421],[14.513688,50.037243],[14.513819,50.037092],[14.513954,50.036922],[14.514084,50.03677],[14.514104,50.036745],[14.514221,50.036591],[14.514338,50.036438],[14.514472,50.036269],[14.514574,50.036123],[14.514694,50.035952],[14.515303,50.035071],[14.515222,50.035055],[14.514951,50.035004],[14.514492,50.034909],[14.514075,50.034818],[14.513699,50.034731],[14.513485,50.034676],[14.513111,50.034579],[14.512806,50.034489],[14.512555,50.034412],[14.512355,50.034359],[14.511665,50.034225],[14.509976,50.03415],[14.510628,50.0332],[14.508181,50.032712],[14.507637,50.032619],[14.507664,50.032694],[14.507754,50.033002],[14.507823,50.033207],[14.507829,50.033244],[14.507866,50.033402],[14.507908,50.033605],[14.507955,50.033781],[14.507957,50.033836],[14.507996,50.033985],[14.508036,50.034197],[14.508065,50.03439],[14.508087,50.034555],[14.508092,50.034665],[14.508114,50.034757],[14.508145,50.035078],[14.508154,50.035169],[14.508189,50.035336],[14.508219,50.035529],[14.508229,50.035611],[14.508252,50.035704],[14.508319,50.035919],[14.50836,50.036058],[14.50838,50.036097],[14.508388,50.036125],[14.508461,50.036312],[14.50855,50.036556],[14.50862,50.036762],[14.50865,50.036819],[14.508748,50.037018],[14.508807,50.037141],[14.508901,50.037295],[14.509006,50.037467],[14.509168,50.037699],[14.509284,50.037882],[14.509422,50.038094],[14.509517,50.038247],[14.509295,50.038228],[14.508934,50.038205],[14.508782,50.038192],[14.508436,50.038161],[14.508175,50.038129],[14.50797,50.038964],[14.508482,50.039009],[14.508398,50.039338],[14.507252,50.039228],[14.507084,50.039422],[14.506506,50.039289],[14.506202,50.039462],[14.505978,50.039588]]]}},{"type":"Feature","properties":{"cislo":11044,"kod":28389,"mestskaCast":"praha-11"},"geometry":{"type":"Polygon","coordinates":[[[14.504965,50.039181],[14.505978,50.039588],[14.506202,50.039462],[14.506506,50.039289],[14.507084,50.039422],[14.507252,50.039228],[14.508398,50.039338],[14.508482,50.039009],[14.50797,50.038964],[14.508175,50.038129],[14.508436,50.038161],[14.508782,50.038192],[14.508934,50.038205],[14.509295,50.038228],[14.509517,50.038247],[14.509422,50.038094],[14.509284,50.037882],[14.509168,50.037699],[14.509006,50.037467],[14.508901,50.037295],[14.508807,50.037141],[14.508748,50.037018],[14.50865,50.036819],[14.508306,50.036843],[14.507922,50.036864],[14.507395,50.03689],[14.507113,50.036893],[14.506694,50.036874],[14.506141,50.036825],[14.505995,50.037511],[14.505387,50.037458],[14.505115,50.038741],[14.504965,50.039181]]]}},{"type":"Feature","properties":{"cislo":11045,"kod":28391,"mestskaCast":"praha-11"},"geometry":{"type":"Polygon","coordinates":[[[14.507047,50.031152],[14.508016,50.027507],[14.508124,50.027063],[14.508423,50.026118],[14.508551,50.025513],[14.508741,50.024812],[14.508816,50.024329],[14.508829,50.023931],[14.508821,50.023903],[14.508819,50.023449],[14.508801,50.023066],[14.508768,50.022691],[14.508756,50.022481],[14.508434,50.022607],[14.507653,50.022902],[14.506959,50.023186],[14.506155,50.023523],[14.505402,50.02382],[14.504806,50.02404],[14.504236,50.024271],[14.503359,50.024621],[14.502346,50.025012],[14.501591,50.025318],[14.50095,50.025552],[14.500687,50.025665],[14.501931,50.02611],[14.502575,50.026258],[14.503117,50.02636],[14.501723,50.027753],[14.501593,50.027705],[14.501319,50.027998],[14.501434,50.028054],[14.499943,50.029574],[14.500137,50.029655],[14.499834,50.029955],[14.500082,50.030049],[14.499346,50.030792],[14.501448,50.031776],[14.501969,50.031976],[14.502916,50.032231],[14.503009,50.032258],[14.505275,50.032666],[14.505853,50.031464],[14.506046,50.031418],[14.507047,50.031152]]]}},{"type":"Feature","properties":{"cislo":11046,"kod":28393,"mestskaCast":"praha-11"},"geometry":{"type":"Polygon","coordinates":[[[14.495028,50.036275],[14.495456,50.035986],[14.495944,50.035675],[14.496519,50.03529],[14.49709,50.034922],[14.497502,50.034641],[14.497632,50.034562],[14.498122,50.034242],[14.49896,50.033744],[14.499874,50.033289],[14.500694,50.032944],[14.501138,50.032774],[14.501591,50.032632],[14.501713,50.032588],[14.502181,50.032439],[14.50275,50.03228],[14.502916,50.032231],[14.501969,50.031976],[14.501448,50.031776],[14.499346,50.030792],[14.500082,50.030049],[14.499834,50.029955],[14.500137,50.029655],[14.499943,50.029574],[14.501434,50.028054],[14.501319,50.027998],[14.501593,50.027705],[14.501723,50.027753],[14.503117,50.02636],[14.502575,50.026258],[14.501931,50.02611],[14.500687,50.025665],[14.500272,50.025828],[14.499621,50.026107],[14.499042,50.026382],[14.498476,50.026659],[14.497806,50.027027],[14.49711,50.027456],[14.496533,50.02785],[14.495992,50.028274],[14.49556,50.028653],[14.495139,50.029043],[14.494783,50.029393],[14.49434,50.029889],[14.493923,50.03046],[14.493605,50.030895],[14.493287,50.031466],[14.492972,50.032219],[14.492696,50.032921],[14.492382,50.033673],[14.492067,50.034426],[14.492637,50.034794],[14.493257,50.035193],[14.493886,50.035548],[14.49453,50.035968],[14.495016,50.036265],[14.495028,50.036275]]]}},{"type":"Feature","properties":{"cislo":11047,"kod":28395,"mestskaCast":"praha-11"},"geometry":{"type":"Polygon","coordinates":[[[14.497502,50.034641],[14.499163,50.035577],[14.499527,50.035654],[14.499432,50.035836],[14.499524,50.036135],[14.499863,50.036065],[14.500072,50.036074],[14.500888,50.036146],[14.501001,50.035747],[14.501028,50.035686],[14.501102,50.035538],[14.501252,50.035361],[14.501367,50.035217],[14.501461,50.035107],[14.501484,50.035064],[14.501615,50.034912],[14.501703,50.034829],[14.501943,50.03456],[14.502056,50.034361],[14.502219,50.034058],[14.502308,50.033902],[14.502378,50.033772],[14.502657,50.033252],[14.502617,50.03324],[14.502348,50.03318],[14.502243,50.033343],[14.501717,50.033233],[14.501855,50.033046],[14.501927,50.032907],[14.501713,50.032588],[14.501591,50.032632],[14.501138,50.032774],[14.500694,50.032944],[14.499874,50.033289],[14.49896,50.033744],[14.498122,50.034242],[14.497632,50.034562],[14.497502,50.034641]]]}},{"type":"Feature","properties":{"cislo":11048,"kod":28397,"mestskaCast":"praha-11"},"geometry":{"type":"Polygon","coordinates":[[[14.497827,50.037692],[14.497881,50.037705],[14.498166,50.037758],[14.498328,50.03779],[14.498587,50.037831],[14.49882,50.037861],[14.498945,50.037871],[14.499055,50.037881],[14.499278,50.037892],[14.4996,50.037902],[14.499671,50.037899],[14.500062,50.037915],[14.500554,50.037922],[14.50089,50.037934],[14.500961,50.037931],[14.501265,50.037958],[14.501429,50.037981],[14.501866,50.038047],[14.501908,50.03805],[14.502203,50.038122],[14.502282,50.038147],[14.502549,50.038216],[14.502561,50.038226],[14.502848,50.038333],[14.50307,50.038416],[14.503201,50.038464],[14.503266,50.038487],[14.503461,50.038568],[14.503538,50.038602],[14.503718,50.038681],[14.503926,50.038763],[14.504172,50.038867],[14.504263,50.038902],[14.504564,50.037549],[14.503983,50.037498],[14.50416,50.036597],[14.503789,50.036555],[14.503255,50.036481],[14.502681,50.036394],[14.502163,50.036312],[14.50159,50.036226],[14.501054,50.03616],[14.500888,50.036146],[14.500072,50.036074],[14.499863,50.036065],[14.499524,50.036135],[14.499432,50.035836],[14.499527,50.035654],[14.499163,50.035577],[14.497502,50.034641],[14.49709,50.034922],[14.496519,50.03529],[14.495944,50.035675],[14.495456,50.035986],[14.495028,50.036275],[14.495505,50.036553],[14.495836,50.036781],[14.496158,50.036991],[14.496498,50.037184],[14.496537,50.037197],[14.496831,50.037341],[14.497221,50.037493],[14.497483,50.037589],[14.497536,50.037602],[14.497748,50.037666],[14.497827,50.037692]]]}},{"type":"Feature","properties":{"cislo":11049,"kod":28399,"mestskaCast":"praha-11"},"geometry":{"type":"Polygon","coordinates":[[[14.488775,50.044691],[14.488776,50.044692],[14.488892,50.044575],[14.488963,50.044503],[14.488949,50.0445],[14.488782,50.04446],[14.488799,50.044304],[14.488806,50.04425],[14.488837,50.044009],[14.488843,50.043919],[14.488846,50.043865],[14.488846,50.043858],[14.488847,50.043837],[14.488834,50.043628],[14.488813,50.043566],[14.488796,50.043514],[14.488757,50.043393],[14.488697,50.043249],[14.488668,50.04318],[14.488595,50.043006],[14.488566,50.042938],[14.488638,50.042895],[14.488782,50.042811],[14.488901,50.042723],[14.488933,50.0427],[14.489003,50.042649],[14.48908,50.042593],[14.48914,50.042543],[14.489176,50.042513],[14.48921,50.042485],[14.489273,50.042433],[14.489292,50.042418],[14.48933,50.042386],[14.489492,50.042254],[14.489836,50.041998],[14.489853,50.041985],[14.489899,50.041984],[14.489988,50.041981],[14.489985,50.042013],[14.489982,50.042046],[14.489978,50.042085],[14.490052,50.042245],[14.490081,50.042307],[14.490128,50.042407],[14.490138,50.042419],[14.490157,50.042443],[14.490281,50.042596],[14.490345,50.042676],[14.490359,50.042693],[14.490371,50.042697],[14.490415,50.042713],[14.490631,50.042791],[14.490771,50.042791],[14.490927,50.042792],[14.490969,50.042805],[14.490972,50.042806],[14.491073,50.042837],[14.491101,50.042891],[14.49142,50.042988],[14.491528,50.043043],[14.491745,50.043125],[14.491928,50.043167],[14.492145,50.043256],[14.492306,50.043323],[14.492341,50.043337],[14.492406,50.043364],[14.492658,50.04348],[14.493021,50.043648],[14.493052,50.04373],[14.493164,50.043842],[14.493227,50.043872],[14.493315,50.04388],[14.493407,50.043867],[14.493627,50.043835],[14.493674,50.043569],[14.493779,50.043619],[14.493936,50.043665],[14.49426,50.04373],[14.494302,50.043871],[14.49477,50.04425],[14.495086,50.044506],[14.495185,50.044515],[14.495277,50.044523],[14.495328,50.044527],[14.495523,50.04408],[14.496051,50.044222],[14.497705,50.044663],[14.49777,50.044563],[14.497642,50.04452],[14.497667,50.044456],[14.497737,50.044277],[14.497798,50.044122],[14.497874,50.04393],[14.497871,50.04393],[14.497647,50.043792],[14.499778,50.041647],[14.496242,50.040184],[14.49606,50.040113],[14.49614,50.040002],[14.496384,50.039715],[14.496405,50.039681],[14.496549,50.039467],[14.496785,50.039152],[14.496966,50.038895],[14.497007,50.038835],[14.497213,50.038527],[14.497414,50.038245],[14.497613,50.037972],[14.497732,50.03781],[14.497827,50.037692],[14.497748,50.037666],[14.497536,50.037602],[14.497483,50.037589],[14.497221,50.037493],[14.496831,50.037341],[14.496537,50.037197],[14.496498,50.037184],[14.496158,50.036991],[14.495836,50.036781],[14.495505,50.036553],[14.495028,50.036275],[14.495016,50.036265],[14.49453,50.035968],[14.493886,50.035548],[14.493257,50.035193],[14.492637,50.034794],[14.492067,50.034426],[14.492053,50.034425],[14.491888,50.034873],[14.491733,50.035204],[14.491561,50.035552],[14.491423,50.035867],[14.49126,50.036106],[14.491061,50.036379],[14.490846,50.03666],[14.490599,50.036965],[14.490344,50.037233],[14.490039,50.037542],[14.488672,50.039073],[14.486747,50.041236],[14.486759,50.04124],[14.486789,50.041257],[14.486814,50.041284],[14.486843,50.041319],[14.486871,50.041345],[14.486899,50.041376],[14.487064,50.041502],[14.487149,50.041566],[14.487285,50.041649],[14.487413,50.041716],[14.487642,50.041823],[14.487742,50.041875],[14.487846,50.041936],[14.487931,50.042001],[14.488,50.042072],[14.488056,50.042155],[14.488076,50.042218],[14.488084,50.04228],[14.488084,50.042287],[14.488081,50.042374],[14.488054,50.042454],[14.488052,50.042458],[14.488002,50.042542],[14.487922,50.042652],[14.488021,50.042689],[14.488051,50.0427],[14.488084,50.042719],[14.488066,50.042744],[14.487925,50.042991],[14.487775,50.043233],[14.487685,50.043337],[14.487441,50.043574],[14.487336,50.04367],[14.487326,50.043679],[14.487259,50.04374],[14.486899,50.044072],[14.486836,50.044129],[14.486662,50.04429],[14.486388,50.044482],[14.48632,50.04453],[14.486329,50.044531],[14.486372,50.044535],[14.486414,50.044539],[14.486803,50.044567],[14.486867,50.044567],[14.486869,50.044567],[14.487069,50.044568],[14.487497,50.044569],[14.487593,50.044565],[14.487852,50.044555],[14.487962,50.04455],[14.488164,50.044554],[14.488276,50.044555],[14.48852,50.044549],[14.488569,50.044576],[14.488653,50.044623],[14.488775,50.044691]]]}},{"type":"Feature","properties":{"cislo":11050,"kod":28401,"mestskaCast":"praha-11"},"geometry":{"type":"Polygon","coordinates":[[[14.511254,50.04057],[14.511254,50.04057],[14.511251,50.040568],[14.510738,50.039997],[14.510524,50.040078],[14.510268,50.040155],[14.510006,50.040196],[14.50983,50.040226],[14.50954,50.040264],[14.509341,50.040274],[14.50924,50.040283],[14.508958,50.040285],[14.508887,50.040288],[14.508704,50.04029],[14.508439,50.040276],[14.508273,50.040261],[14.508148,50.04025],[14.507862,50.040207],[14.507618,50.040159],[14.507591,50.040156],[14.507375,50.04011],[14.507282,50.040084],[14.507203,50.040058],[14.507003,50.040005],[14.50687,50.039966],[14.50665,50.039874],[14.506402,50.039779],[14.506182,50.039688],[14.505978,50.039588],[14.504965,50.039181],[14.504914,50.039159],[14.504745,50.039089],[14.5046,50.03904],[14.504497,50.038995],[14.504367,50.038947],[14.504263,50.038902],[14.504172,50.038867],[14.503926,50.038763],[14.503718,50.038681],[14.503538,50.038602],[14.503461,50.038568],[14.503266,50.038487],[14.503201,50.038464],[14.50307,50.038416],[14.502848,50.038333],[14.502561,50.038226],[14.502549,50.038216],[14.502282,50.038147],[14.502203,50.038122],[14.501908,50.03805],[14.501866,50.038047],[14.501429,50.037981],[14.501265,50.037958],[14.500961,50.037931],[14.50089,50.037934],[14.500554,50.037922],[14.500062,50.037915],[14.499671,50.037899],[14.4996,50.037902],[14.499278,50.037892],[14.499055,50.037881],[14.498945,50.037871],[14.49882,50.037861],[14.498587,50.037831],[14.498328,50.03779],[14.498166,50.037758],[14.497881,50.037705],[14.497827,50.037692],[14.497732,50.03781],[14.497613,50.037972],[14.497414,50.038245],[14.497213,50.038527],[14.497007,50.038835],[14.496966,50.038895],[14.496785,50.039152],[14.496549,50.039467],[14.496405,50.039681],[14.496384,50.039715],[14.49614,50.040002],[14.49606,50.040113],[14.496242,50.040184],[14.499778,50.041647],[14.497647,50.043792],[14.497871,50.04393],[14.497874,50.04393],[14.497874,50.043929],[14.497992,50.043942],[14.498015,50.043945],[14.498194,50.043964],[14.498737,50.044024],[14.499199,50.044075],[14.499199,50.044075],[14.499616,50.044121],[14.500359,50.044203],[14.502486,50.044438],[14.502644,50.044455],[14.505209,50.044745],[14.507953,50.045061],[14.510711,50.045376],[14.512251,50.045558],[14.512363,50.045571],[14.512307,50.045355],[14.512292,50.04525],[14.512275,50.0451],[14.512259,50.04486],[14.512274,50.044648],[14.51232,50.044509],[14.512388,50.044201],[14.512411,50.044105],[14.512513,50.043842],[14.512636,50.043582],[14.512803,50.043337],[14.512978,50.043096],[14.513183,50.042862],[14.513497,50.042503],[14.5135,50.042495],[14.513515,50.042454],[14.513518,50.042448],[14.513515,50.042429],[14.513508,50.042387],[14.513455,50.042364],[14.513417,50.042347],[14.513265,50.042279],[14.512944,50.04213],[14.512731,50.042018],[14.512485,50.041849],[14.512259,50.041684],[14.512047,50.041497],[14.51186,50.041309],[14.511612,50.041039],[14.511283,50.040689],[14.5112,50.040599],[14.511254,50.04057]]]}},{"type":"Feature","properties":{"cislo":11051,"kod":28403,"mestskaCast":"praha-11"},"geometry":{"type":"Polygon","coordinates":[[[14.500687,50.025665],[14.50095,50.025552],[14.501591,50.025318],[14.502346,50.025012],[14.503359,50.024621],[14.504236,50.024271],[14.504806,50.02404],[14.505402,50.02382],[14.506155,50.023523],[14.506959,50.023186],[14.507653,50.022902],[14.508434,50.022607],[14.508756,50.022481],[14.508748,50.022317],[14.508731,50.021935],[14.508712,50.021625],[14.508707,50.021316],[14.508728,50.021018],[14.508794,50.02077],[14.508798,50.020766],[14.50819,50.020573],[14.507942,50.020503],[14.507776,50.020421],[14.507425,50.020315],[14.507409,50.020339],[14.507207,50.020306],[14.506869,50.020209],[14.506599,50.020132],[14.506548,50.02012],[14.505982,50.019981],[14.505522,50.019896],[14.505489,50.01989],[14.50498,50.019819],[14.504664,50.019789],[14.50447,50.019771],[14.50423,50.019758],[14.503973,50.019744],[14.503817,50.019742],[14.503457,50.019738],[14.503304,50.019738],[14.502944,50.019756],[14.502839,50.019764],[14.502601,50.019782],[14.502442,50.019794],[14.50238,50.019801],[14.501951,50.019851],[14.501939,50.019853],[14.501446,50.019933],[14.501445,50.019932],[14.501433,50.019906],[14.500987,50.019998],[14.50083,50.020031],[14.500818,50.020033],[14.500718,50.020059],[14.500549,50.020101],[14.500298,50.020165],[14.500164,50.020198],[14.499593,50.020348],[14.499517,50.020367],[14.499385,50.020402],[14.499255,50.020435],[14.499145,50.020464],[14.499158,50.020482],[14.498912,50.020578],[14.498386,50.020708],[14.498027,50.020795],[14.49765,50.02088],[14.497292,50.020956],[14.496912,50.02103],[14.496544,50.021094],[14.496185,50.02115],[14.496169,50.021152],[14.496156,50.021154],[14.496136,50.021157],[14.49611,50.02116],[14.496005,50.021174],[14.495905,50.023302],[14.496509,50.02331],[14.496526,50.02343],[14.496518,50.023538],[14.496483,50.023634],[14.49644,50.023703],[14.496817,50.023718],[14.497501,50.023416],[14.497744,50.023664],[14.497979,50.023884],[14.498109,50.024004],[14.498258,50.024163],[14.498406,50.02433],[14.498516,50.024476],[14.49862,50.024585],[14.498718,50.02472],[14.498831,50.024848],[14.498917,50.02491],[14.499062,50.025023],[14.499205,50.025081],[14.499359,50.025149],[14.499567,50.025231],[14.499775,50.025313],[14.500126,50.025452],[14.500372,50.025556],[14.500687,50.025665]]]}},{"type":"Feature","properties":{"cislo":11052,"kod":28405,"mestskaCast":"praha-11"},"geometry":{"type":"Polygon","coordinates":[[[14.498917,50.02491],[14.498831,50.024848],[14.498718,50.02472],[14.49862,50.024585],[14.498516,50.024476],[14.498406,50.02433],[14.498258,50.024163],[14.498109,50.024004],[14.497979,50.023884],[14.497744,50.023664],[14.497501,50.023416],[14.496817,50.023718],[14.49644,50.023703],[14.496483,50.023634],[14.496518,50.023538],[14.496526,50.02343],[14.496509,50.02331],[14.495905,50.023302],[14.496005,50.021174],[14.495784,50.021205],[14.495422,50.021251],[14.495015,50.021297],[14.494493,50.021354],[14.494267,50.021379],[14.493497,50.021462],[14.493116,50.021503],[14.493051,50.02151],[14.493051,50.02151],[14.494221,50.021947],[14.494913,50.02267],[14.493397,50.023308],[14.496052,50.026001],[14.496524,50.025834],[14.497053,50.025663],[14.497553,50.025498],[14.498009,50.025339],[14.498436,50.025186],[14.498833,50.024976],[14.498917,50.02491]]]}},{"type":"Feature","properties":{"cislo":11053,"kod":28407,"mestskaCast":"praha-11"},"geometry":{"type":"Polygon","coordinates":[[[14.496052,50.026001],[14.493397,50.023308],[14.494913,50.02267],[14.494221,50.021947],[14.493051,50.02151],[14.493051,50.02151],[14.492733,50.021544],[14.491962,50.021627],[14.491884,50.021636],[14.491604,50.021666],[14.491497,50.021678],[14.491106,50.021741],[14.490664,50.021842],[14.490524,50.021887],[14.490219,50.021987],[14.489805,50.022158],[14.489493,50.022322],[14.489415,50.022363],[14.48914,50.022543],[14.489054,50.022609],[14.488961,50.02268],[14.488937,50.022701],[14.488913,50.022723],[14.488913,50.022723],[14.488915,50.022723],[14.489613,50.023021],[14.492726,50.026208],[14.492183,50.026441],[14.492813,50.027059],[14.493051,50.027198],[14.493263,50.027063],[14.493587,50.026864],[14.493929,50.026713],[14.494338,50.026577],[14.49479,50.026435],[14.495322,50.026255],[14.495857,50.026057],[14.496052,50.026001]]]}},{"type":"Feature","properties":{"cislo":11054,"kod":28409,"mestskaCast":"praha-11"},"geometry":{"type":"Polygon","coordinates":[[[14.48795,50.026096],[14.490773,50.026181],[14.491056,50.026442],[14.49188,50.026142],[14.492183,50.026441],[14.492726,50.026208],[14.489613,50.023021],[14.488915,50.022723],[14.488913,50.022723],[14.488913,50.022723],[14.488894,50.02274],[14.488788,50.022833],[14.488668,50.022924],[14.488652,50.022937],[14.488499,50.02311],[14.488478,50.023134],[14.488416,50.023262],[14.488252,50.023537],[14.488184,50.023706],[14.488176,50.023728],[14.488124,50.023859],[14.488077,50.024103],[14.488072,50.024128],[14.488063,50.024253],[14.488055,50.024374],[14.488045,50.024512],[14.488015,50.025023],[14.487984,50.025517],[14.487981,50.025569],[14.487969,50.025772],[14.487966,50.025819],[14.487954,50.026022],[14.48795,50.026096]]]}},{"type":"Feature","properties":{"cislo":11055,"kod":28411,"mestskaCast":"praha-11"},"geometry":{"type":"Polygon","coordinates":[[[14.488317,50.032644],[14.489381,50.03301],[14.490017,50.033265],[14.490773,50.033686],[14.491388,50.03404],[14.492053,50.034425],[14.492067,50.034426],[14.492382,50.033673],[14.492696,50.032921],[14.492972,50.032219],[14.493287,50.031466],[14.493605,50.030895],[14.493923,50.03046],[14.49434,50.029889],[14.494783,50.029393],[14.495139,50.029043],[14.49556,50.028653],[14.495992,50.028274],[14.496533,50.02785],[14.49711,50.027456],[14.497806,50.027027],[14.498476,50.026659],[14.499042,50.026382],[14.499621,50.026107],[14.500272,50.025828],[14.500687,50.025665],[14.500372,50.025556],[14.500126,50.025452],[14.499775,50.025313],[14.499567,50.025231],[14.499359,50.025149],[14.499205,50.025081],[14.499062,50.025023],[14.498917,50.02491],[14.498833,50.024976],[14.498436,50.025186],[14.498009,50.025339],[14.497553,50.025498],[14.497053,50.025663],[14.496524,50.025834],[14.496052,50.026001],[14.495857,50.026057],[14.495322,50.026255],[14.49479,50.026435],[14.494338,50.026577],[14.493929,50.026713],[14.493587,50.026864],[14.493263,50.027063],[14.493051,50.027198],[14.492813,50.027059],[14.492183,50.026441],[14.49188,50.026142],[14.491056,50.026442],[14.490773,50.026181],[14.48795,50.026096],[14.487946,50.026164],[14.48781,50.026301],[14.487693,50.027159],[14.487639,50.027937],[14.487653,50.028658],[14.487698,50.028949],[14.487692,50.028948],[14.487692,50.02895],[14.487729,50.029243],[14.487714,50.029578],[14.487696,50.02993],[14.48764,50.030261],[14.487622,50.030541],[14.487605,50.030821],[14.487618,50.030894],[14.487632,50.031095],[14.487677,50.031344],[14.487777,50.031607],[14.487892,50.031926],[14.488051,50.032239],[14.488317,50.032644]]]}},{"type":"Feature","properties":{"cislo":11056,"kod":28413,"mestskaCast":"praha-11"},"geometry":{"type":"Polygon","coordinates":[[[14.487618,50.030894],[14.487605,50.030821],[14.487622,50.030541],[14.48764,50.030261],[14.487696,50.02993],[14.487714,50.029578],[14.487729,50.029243],[14.487692,50.02895],[14.487692,50.028948],[14.487258,50.028942],[14.48667,50.028913],[14.486637,50.028911],[14.486084,50.028884],[14.486042,50.028882],[14.485989,50.02888],[14.48549,50.028839],[14.485409,50.030881],[14.487618,50.030894]]]}},{"type":"Feature","properties":{"cislo":11057,"kod":28415,"mestskaCast":"praha-11"},"geometry":{"type":"Polygon","coordinates":[[[14.484505,50.028771],[14.484404,50.029776],[14.4844,50.029858],[14.484379,50.029892],[14.484346,50.029916],[14.48425,50.029972],[14.483972,50.030083],[14.483772,50.030165],[14.483557,50.030246],[14.483341,50.030336],[14.483445,50.030445],[14.48361,50.030596],[14.483757,50.030763],[14.483921,50.030923],[14.484084,50.031082],[14.484142,50.031142],[14.4842,50.031201],[14.484313,50.031329],[14.484359,50.031379],[14.484441,50.031459],[14.484475,50.031498],[14.484489,50.031563],[14.484402,50.031709],[14.484296,50.031809],[14.484308,50.031819],[14.48439,50.031899],[14.484529,50.032038],[14.484665,50.032195],[14.484894,50.032442],[14.485087,50.032595],[14.485131,50.032654],[14.485289,50.03284],[14.485413,50.032987],[14.485421,50.033015],[14.485523,50.033196],[14.485563,50.033273],[14.485583,50.033311],[14.485614,50.033368],[14.485748,50.033334],[14.486632,50.033085],[14.488317,50.032644],[14.488051,50.032239],[14.487892,50.031926],[14.487777,50.031607],[14.487677,50.031344],[14.487632,50.031095],[14.487618,50.030894],[14.485409,50.030881],[14.48549,50.028839],[14.485416,50.028833],[14.484561,50.028775],[14.48452,50.028772],[14.484505,50.028771]]]}},{"type":"Feature","properties":{"cislo":11058,"kod":28417,"mestskaCast":"praha-11"},"geometry":{"type":"Polygon","coordinates":[[[14.481767,50.033637],[14.482423,50.034194],[14.482425,50.034185],[14.48247,50.034171],[14.482805,50.034055],[14.483193,50.033953],[14.483683,50.033833],[14.484306,50.033688],[14.48496,50.033528],[14.485614,50.033368],[14.485583,50.033311],[14.485563,50.033273],[14.485523,50.033196],[14.485421,50.033015],[14.485413,50.032987],[14.485289,50.03284],[14.485131,50.032654],[14.485087,50.032595],[14.484894,50.032442],[14.484665,50.032195],[14.484529,50.032038],[14.48439,50.031899],[14.484308,50.031819],[14.484296,50.031809],[14.484402,50.031709],[14.484489,50.031563],[14.484475,50.031498],[14.484441,50.031459],[14.484359,50.031379],[14.484313,50.031329],[14.4842,50.031201],[14.484142,50.031142],[14.484084,50.031082],[14.483921,50.030923],[14.483757,50.030763],[14.48361,50.030596],[14.483445,50.030445],[14.483341,50.030336],[14.483557,50.030246],[14.483772,50.030165],[14.483972,50.030083],[14.48425,50.029972],[14.484346,50.029916],[14.484379,50.029892],[14.4844,50.029858],[14.484404,50.029776],[14.484505,50.028771],[14.484191,50.028749],[14.483072,50.028674],[14.481896,50.028862],[14.481111,50.029],[14.480993,50.029046],[14.480991,50.029046],[14.480994,50.029049],[14.480403,50.031166],[14.480398,50.031456],[14.482295,50.033402],[14.481767,50.033637]]]}},{"type":"Feature","properties":{"cislo":11059,"kod":28419,"mestskaCast":"praha-11"},"geometry":{"type":"Polygon","coordinates":[[[14.480398,50.031456],[14.480396,50.031465],[14.478497,50.032251],[14.478915,50.032669],[14.47999,50.033045],[14.4806,50.033625],[14.481404,50.033287],[14.481767,50.033637],[14.482295,50.033402],[14.480398,50.031456]]]}},{"type":"Feature","properties":{"cislo":11060,"kod":28421,"mestskaCast":"praha-11"},"geometry":{"type":"Polygon","coordinates":[[[14.481278,50.040511],[14.481401,50.040529],[14.481635,50.040564],[14.481884,50.040602],[14.482178,50.040648],[14.482484,50.040696],[14.482737,50.040732],[14.482759,50.040735],[14.48285,50.040746],[14.482891,50.040751],[14.482891,50.040751],[14.48283,50.040637],[14.482549,50.040367],[14.482043,50.040032],[14.481538,50.039688],[14.481194,50.039449],[14.480786,50.03925],[14.48054,50.039146],[14.480013,50.038909],[14.479661,50.038706],[14.479475,50.03859],[14.479389,50.038464],[14.479233,50.038269],[14.479179,50.038191],[14.47907,50.037973],[14.478984,50.037584],[14.478974,50.037429],[14.478978,50.037148],[14.479121,50.036607],[14.479138,50.036527],[14.479311,50.036243],[14.479399,50.036096],[14.479457,50.03602],[14.480033,50.035363],[14.480259,50.035165],[14.480893,50.034767],[14.481345,50.034562],[14.481913,50.03434],[14.482423,50.034194],[14.481767,50.033637],[14.481404,50.033287],[14.4806,50.033625],[14.47999,50.033045],[14.478915,50.032669],[14.478497,50.032251],[14.480396,50.031465],[14.480398,50.031456],[14.480403,50.031166],[14.480994,50.029049],[14.480991,50.029046],[14.480974,50.029052],[14.479822,50.029475],[14.479684,50.029502],[14.478651,50.029525],[14.478168,50.029562],[14.478137,50.029565],[14.477804,50.0296],[14.477413,50.029706],[14.477235,50.029755],[14.476528,50.03027],[14.47503,50.030634],[14.473796,50.030955],[14.472949,50.031249],[14.472223,50.031563],[14.471155,50.032327],[14.470133,50.033534],[14.469727,50.034056],[14.469394,50.035381],[14.46935,50.035558],[14.46935,50.035559],[14.469068,50.036729],[14.469067,50.036814],[14.469121,50.036871],[14.469312,50.037073],[14.469332,50.037156],[14.469269,50.037481],[14.46924,50.037615],[14.469237,50.037735],[14.469223,50.038053],[14.469234,50.03808],[14.469308,50.038354],[14.469327,50.038407],[14.469352,50.038513],[14.469388,50.038659],[14.469448,50.038792],[14.469485,50.038875],[14.469518,50.038947],[14.469519,50.038956],[14.46952,50.03896],[14.470034,50.039064],[14.470111,50.03908],[14.470228,50.039116],[14.470267,50.039128],[14.470383,50.039166],[14.470496,50.039203],[14.470762,50.039296],[14.471005,50.03938],[14.471253,50.039461],[14.471497,50.039542],[14.471736,50.039611],[14.471967,50.039667],[14.472145,50.039689],[14.472334,50.039699],[14.472632,50.039715],[14.472666,50.039843],[14.472671,50.039861],[14.472705,50.039984],[14.472994,50.039968],[14.473588,50.039924],[14.473653,50.03992],[14.474203,50.039895],[14.474521,50.039887],[14.474848,50.039882],[14.47524,50.039889],[14.475641,50.039899],[14.475978,50.039921],[14.476704,50.039979],[14.477331,50.040046],[14.479057,50.040263],[14.479547,50.040321],[14.479801,50.040359],[14.479964,50.040374],[14.480232,50.040399],[14.480527,50.040427],[14.480818,50.040454],[14.480967,50.040468],[14.481118,50.040488],[14.481262,50.040509],[14.481278,50.040511]]]}},{"type":"Feature","properties":{"cislo":11061,"kod":28423,"mestskaCast":"praha-11"},"geometry":{"type":"Polygon","coordinates":[[[14.488672,50.039073],[14.490039,50.037542],[14.490344,50.037233],[14.490599,50.036965],[14.490846,50.03666],[14.491061,50.036379],[14.49126,50.036106],[14.491423,50.035867],[14.491561,50.035552],[14.491733,50.035204],[14.491888,50.034873],[14.492053,50.034425],[14.491388,50.03404],[14.490773,50.033686],[14.490017,50.033265],[14.489381,50.03301],[14.488317,50.032644],[14.486632,50.033085],[14.485748,50.033334],[14.485614,50.033368],[14.48496,50.033528],[14.484306,50.033688],[14.483683,50.033833],[14.483193,50.033953],[14.482805,50.034055],[14.48247,50.034171],[14.482425,50.034185],[14.483322,50.034936],[14.48381,50.03536],[14.484697,50.036227],[14.485839,50.035756],[14.486098,50.035997],[14.485351,50.03633],[14.485301,50.036299],[14.485186,50.03618],[14.484783,50.036353],[14.485376,50.036941],[14.485695,50.036832],[14.485996,50.03714],[14.486614,50.036886],[14.488672,50.039073]]]}},{"type":"Feature","properties":{"cislo":11062,"kod":28425,"mestskaCast":"praha-11"},"geometry":{"type":"Polygon","coordinates":[[[14.486747,50.041236],[14.488672,50.039073],[14.486614,50.036886],[14.485996,50.03714],[14.485695,50.036832],[14.485376,50.036941],[14.484783,50.036353],[14.485186,50.03618],[14.485301,50.036299],[14.485351,50.03633],[14.486098,50.035997],[14.485839,50.035756],[14.484697,50.036227],[14.48381,50.03536],[14.483322,50.034936],[14.482425,50.034185],[14.482423,50.034194],[14.481913,50.03434],[14.481345,50.034562],[14.480893,50.034767],[14.480259,50.035165],[14.480033,50.035363],[14.479457,50.03602],[14.479399,50.036096],[14.479311,50.036243],[14.479138,50.036527],[14.479121,50.036607],[14.478978,50.037148],[14.478974,50.037429],[14.478984,50.037584],[14.47907,50.037973],[14.479179,50.038191],[14.479233,50.038269],[14.479389,50.038464],[14.479475,50.03859],[14.479661,50.038706],[14.480013,50.038909],[14.48054,50.039146],[14.480786,50.03925],[14.481194,50.039449],[14.481538,50.039688],[14.482043,50.040032],[14.482549,50.040367],[14.48283,50.040637],[14.482891,50.040751],[14.482891,50.040751],[14.483096,50.040777],[14.483371,50.040811],[14.483468,50.040823],[14.48399,50.040885],[14.484335,50.040924],[14.484678,50.040962],[14.485024,50.041001],[14.48536,50.041038],[14.485748,50.041086],[14.485983,50.041116],[14.486189,50.041142],[14.486427,50.041173],[14.486615,50.041197],[14.486671,50.041208],[14.486721,50.041224],[14.486747,50.041236]]]}}]}
