{"type":"FeatureCollection","features":[{"type":"Feature","properties":{"cislo":17001,"kod":27429,"mestskaCast":"praha-17"},"geometry":{"type":"Polygon","coordinates":[[[14.321725,50.073494],[14.321723,50.073458],[14.321719,50.073408],[14.321743,50.073138],[14.321843,50.072922],[14.32196,50.072627],[14.321969,50.072605],[14.322083,50.072381],[14.322201,50.072182],[14.32222,50.071703],[14.322537,50.071219],[14.322808,50.070965],[14.322868,50.070695],[14.322803,50.070484],[14.322675,50.070152],[14.32264,50.069929],[14.32261,50.069738],[14.322607,50.069722],[14.322577,50.069531],[14.322534,50.06925],[14.322523,50.068503],[14.322454,50.068504],[14.322444,50.068496],[14.322444,50.068496],[14.320167,50.068665],[14.319174,50.068494],[14.318852,50.06842],[14.318642,50.068347],[14.318503,50.068271],[14.318121,50.067819],[14.317578,50.067725],[14.317174,50.067698],[14.317103,50.067701],[14.317032,50.068357],[14.317147,50.068349],[14.317057,50.068895],[14.316695,50.070242],[14.316588,50.070541],[14.316577,50.070595],[14.316538,50.070646],[14.316457,50.070693],[14.316305,50.070743],[14.316155,50.070784],[14.316035,50.070818],[14.315842,50.070865],[14.31567,50.070876],[14.315586,50.070678],[14.315373,50.07016],[14.315287,50.069907],[14.315205,50.069501],[14.315182,50.06948],[14.315157,50.069269],[14.31513,50.069067],[14.315085,50.068882],[14.315229,50.068867],[14.31523,50.068668],[14.315209,50.068439],[14.315206,50.068321],[14.315247,50.068197],[14.314855,50.068053],[14.313978,50.068065],[14.313874,50.068092],[14.313827,50.068179],[14.313829,50.068951],[14.313436,50.069006],[14.313079,50.069092],[14.312953,50.06909],[14.312854,50.069027],[14.312837,50.068517],[14.312047,50.068519],[14.311778,50.068522],[14.310997,50.068416],[14.310442,50.068439],[14.309877,50.068443],[14.309932,50.070018],[14.309945,50.070609],[14.309961,50.070992],[14.309965,50.071038],[14.309929,50.071334],[14.309888,50.071784],[14.309882,50.072464],[14.310018,50.073076],[14.310188,50.073073],[14.310313,50.073084],[14.310581,50.073081],[14.310961,50.073088],[14.311494,50.073099],[14.312053,50.073122],[14.312646,50.073184],[14.313083,50.07325],[14.313315,50.073289],[14.31378,50.073358],[14.314217,50.073424],[14.314367,50.073447],[14.314565,50.07351],[14.314818,50.073578],[14.315392,50.073729],[14.315594,50.073775],[14.31574,50.073815],[14.315753,50.073689],[14.315781,50.073428],[14.315806,50.073249],[14.315809,50.073168],[14.315838,50.072907],[14.315848,50.072663],[14.315865,50.072519],[14.315886,50.072421],[14.31592,50.072197],[14.315935,50.072062],[14.315978,50.07193],[14.316052,50.071719],[14.316062,50.071674],[14.316108,50.071588],[14.316116,50.071552],[14.316167,50.071384],[14.316192,50.071332],[14.316202,50.071287],[14.316209,50.071252],[14.316215,50.071225],[14.316233,50.071208],[14.316248,50.071201],[14.31625,50.071192],[14.31628,50.071185],[14.31631,50.071179],[14.316377,50.071194],[14.316858,50.071319],[14.317507,50.071513],[14.317834,50.071633],[14.318006,50.071685],[14.3183,50.071756],[14.318459,50.071807],[14.318675,50.071917],[14.319396,50.072299],[14.320643,50.072992],[14.321101,50.073287],[14.321725,50.073494],[14.321725,50.073494]]]}},{"type":"Feature","properties":{"cislo":17002,"kod":27431,"mestskaCast":"praha-17"},"geometry":{"type":"Polygon","coordinates":[[[14.299517,50.076895],[14.300245,50.076848],[14.300569,50.076858],[14.302021,50.076936],[14.302969,50.077003],[14.304131,50.077085],[14.30417,50.077104],[14.304245,50.077142],[14.304281,50.077112],[14.304345,50.077087],[14.304917,50.077042],[14.305639,50.077001],[14.306473,50.076907],[14.308363,50.076634],[14.30991,50.076411],[14.310125,50.076375],[14.310124,50.076371],[14.31009,50.074571],[14.310109,50.073828],[14.310047,50.073205],[14.310018,50.073076],[14.309882,50.072464],[14.309326,50.07256],[14.309124,50.072578],[14.308927,50.072579],[14.308745,50.072571],[14.308494,50.072558],[14.308453,50.072945],[14.308085,50.072948],[14.307703,50.072887],[14.30708,50.072767],[14.306608,50.07267],[14.305945,50.072538],[14.305391,50.072425],[14.30494,50.07184],[14.304432,50.071513],[14.304352,50.071297],[14.304093,50.071256],[14.303622,50.070433],[14.303583,50.069894],[14.30358,50.069712],[14.303525,50.068927],[14.304307,50.068897],[14.304315,50.068661],[14.303847,50.068674],[14.303751,50.068792],[14.303088,50.06886],[14.298033,50.068952],[14.297872,50.06891],[14.298259,50.068491],[14.297418,50.06808],[14.29745,50.067801],[14.298656,50.066593],[14.298629,50.066264],[14.298616,50.066063],[14.298589,50.065534],[14.298569,50.065432],[14.298152,50.065531],[14.298034,50.065557],[14.297841,50.065603],[14.297513,50.065682],[14.297395,50.065708],[14.29699,50.065817],[14.295945,50.066087],[14.295767,50.066125],[14.295499,50.066192],[14.295424,50.066212],[14.295097,50.066292],[14.294947,50.066333],[14.294613,50.066439],[14.294306,50.066557],[14.294042,50.066669],[14.294026,50.066677],[14.29374,50.066824],[14.293709,50.066839],[14.293488,50.066946],[14.29325,50.06707],[14.293126,50.067123],[14.293039,50.067197],[14.292943,50.067252],[14.292822,50.06731],[14.292822,50.06731],[14.292726,50.067469],[14.292662,50.067568],[14.292609,50.067698],[14.292591,50.067742],[14.292468,50.068047],[14.292404,50.068205],[14.292113,50.069055],[14.292112,50.069058],[14.291772,50.070088],[14.291747,50.070166],[14.291838,50.070169],[14.29191,50.070171],[14.291692,50.070981],[14.29167,50.071062],[14.29167,50.071086],[14.29167,50.071093],[14.291653,50.071186],[14.291653,50.071186],[14.29165,50.071197],[14.291606,50.07133],[14.291606,50.07133],[14.291606,50.07133],[14.291607,50.071482],[14.291609,50.071984],[14.291607,50.072015],[14.291594,50.072263],[14.291552,50.07262],[14.291469,50.073406],[14.29146,50.073451],[14.291353,50.073986],[14.291344,50.074029],[14.29133,50.074099],[14.291314,50.074179],[14.291312,50.07419],[14.291306,50.074218],[14.291304,50.074294],[14.291297,50.074476],[14.291296,50.074515],[14.291296,50.074516],[14.291326,50.074763],[14.29134,50.074882],[14.291344,50.074915],[14.291346,50.074938],[14.29138,50.074998],[14.291381,50.075001],[14.291437,50.075103],[14.291458,50.075141],[14.291534,50.07523],[14.291764,50.075499],[14.29181,50.075579],[14.29186,50.075665],[14.291894,50.075723],[14.291933,50.075782],[14.291942,50.075795],[14.291968,50.075833],[14.291977,50.075847],[14.292004,50.075886],[14.29202,50.075903],[14.29209,50.075976],[14.292193,50.076081],[14.292196,50.076085],[14.292436,50.07634],[14.292454,50.076359],[14.292468,50.076372],[14.292484,50.076388],[14.292538,50.076441],[14.292695,50.076566],[14.292896,50.076725],[14.292959,50.076774],[14.293006,50.076811],[14.293026,50.076827],[14.293134,50.076912],[14.293216,50.076956],[14.293353,50.07703],[14.293387,50.077048],[14.293413,50.077066],[14.293448,50.077091],[14.293485,50.077117],[14.293516,50.077138],[14.293513,50.077151],[14.293504,50.077207],[14.293497,50.077244],[14.293496,50.077245],[14.293421,50.077315],[14.29334,50.077391],[14.29325,50.077474],[14.293207,50.077514],[14.293188,50.077549],[14.293291,50.077561],[14.293294,50.077562],[14.293547,50.077326],[14.293645,50.077235],[14.293677,50.077251],[14.293728,50.077276],[14.293774,50.077281],[14.293796,50.077284],[14.293816,50.077286],[14.293948,50.077301],[14.294294,50.077342],[14.294751,50.077402],[14.295136,50.077496],[14.295792,50.077314],[14.296225,50.077032],[14.296243,50.077023],[14.296266,50.077012],[14.296265,50.077001],[14.29626,50.076949],[14.29626,50.076949],[14.296453,50.076949],[14.296515,50.076949],[14.296517,50.076949],[14.296595,50.076949],[14.297663,50.076947],[14.298652,50.076945],[14.299517,50.076895]]]}},{"type":"Feature","properties":{"cislo":17003,"kod":27433,"mestskaCast":"praha-17"},"geometry":{"type":"Polygon","coordinates":[[[14.312047,50.068519],[14.312837,50.068517],[14.312854,50.069027],[14.312953,50.06909],[14.313079,50.069092],[14.313436,50.069006],[14.313829,50.068951],[14.313827,50.068179],[14.313874,50.068092],[14.313978,50.068065],[14.314855,50.068053],[14.315247,50.068197],[14.315206,50.068321],[14.315209,50.068439],[14.31523,50.068668],[14.315229,50.068867],[14.315085,50.068882],[14.31513,50.069067],[14.315157,50.069269],[14.315182,50.06948],[14.315205,50.069501],[14.315287,50.069907],[14.315373,50.07016],[14.315586,50.070678],[14.31567,50.070876],[14.315842,50.070865],[14.316035,50.070818],[14.316155,50.070784],[14.316305,50.070743],[14.316457,50.070693],[14.316538,50.070646],[14.316577,50.070595],[14.316588,50.070541],[14.316695,50.070242],[14.317057,50.068895],[14.317147,50.068349],[14.317032,50.068357],[14.317103,50.067701],[14.316825,50.067685],[14.316459,50.067679],[14.316125,50.067658],[14.315718,50.067649],[14.315524,50.067632],[14.315632,50.067396],[14.315698,50.067284],[14.315806,50.067176],[14.316219,50.066832],[14.316703,50.066548],[14.316694,50.066202],[14.316675,50.066028],[14.314946,50.066064],[14.314938,50.065973],[14.312672,50.066015],[14.312652,50.066176],[14.312597,50.066299],[14.312497,50.066435],[14.312352,50.066649],[14.312223,50.066855],[14.312198,50.066971],[14.312202,50.06708],[14.312197,50.067234],[14.312338,50.067564],[14.311702,50.067571],[14.311826,50.067909],[14.312047,50.068519]]]}},{"type":"Feature","properties":{"cislo":17004,"kod":27435,"mestskaCast":"praha-17"},"geometry":{"type":"Polygon","coordinates":[[[14.298629,50.066264],[14.299253,50.066247],[14.299351,50.06612],[14.299367,50.065912],[14.299384,50.065769],[14.299811,50.065752],[14.299845,50.065919],[14.300108,50.066532],[14.300519,50.066914],[14.300532,50.066915],[14.300656,50.066799],[14.300772,50.066719],[14.300936,50.066679],[14.301096,50.066657],[14.30127,50.066637],[14.301683,50.066619],[14.302578,50.066654],[14.303012,50.066666],[14.303392,50.066672],[14.303745,50.066668],[14.303968,50.066679],[14.304166,50.066678],[14.305227,50.066664],[14.305315,50.066845],[14.305434,50.066946],[14.305691,50.06706],[14.30736,50.067037],[14.307025,50.066698],[14.306135,50.065856],[14.305914,50.065637],[14.305693,50.06568],[14.305336,50.065703],[14.30484,50.065713],[14.303823,50.065722],[14.301338,50.065798],[14.300902,50.065796],[14.300583,50.065767],[14.30057,50.065766],[14.299224,50.065273],[14.298569,50.065432],[14.298589,50.065534],[14.298616,50.066063],[14.298629,50.066264]]]}},{"type":"Feature","properties":{"cislo":17005,"kod":27437,"mestskaCast":"praha-17"},"geometry":{"type":"Polygon","coordinates":[[[14.309718,50.064479],[14.310017,50.06447],[14.310595,50.064404],[14.310777,50.064411],[14.310922,50.064524],[14.311061,50.064727],[14.311222,50.064959],[14.311336,50.065151],[14.311408,50.065339],[14.311477,50.065672],[14.312623,50.065656],[14.312601,50.064974],[14.313123,50.064975],[14.313921,50.064674],[14.314034,50.064675],[14.314259,50.064677],[14.314427,50.064683],[14.314561,50.064713],[14.314589,50.064716],[14.314718,50.064773],[14.314743,50.064784],[14.314829,50.064846],[14.314948,50.064948],[14.315089,50.065078],[14.31521,50.065171],[14.315234,50.065191],[14.315414,50.065271],[14.315624,50.065344],[14.31565,50.065355],[14.316032,50.06548],[14.316372,50.065602],[14.316465,50.065628],[14.316677,50.065692],[14.316906,50.06574],[14.317128,50.06576],[14.31792,50.065813],[14.317961,50.065817],[14.318657,50.065797],[14.318686,50.064686],[14.318686,50.064686],[14.318522,50.064647],[14.31836,50.064606],[14.31831,50.064592],[14.31822,50.064565],[14.318205,50.064561],[14.318195,50.064558],[14.318082,50.064522],[14.318031,50.064506],[14.317706,50.064401],[14.317476,50.064313],[14.317393,50.064281],[14.317348,50.06426],[14.317322,50.064248],[14.317306,50.064241],[14.317101,50.064146],[14.316906,50.064046],[14.316879,50.064032],[14.316818,50.064001],[14.316746,50.063963],[14.316609,50.063893],[14.316533,50.063854],[14.316315,50.063743],[14.316263,50.063716],[14.316166,50.063667],[14.316094,50.06363],[14.316056,50.063612],[14.316018,50.063593],[14.315531,50.063348],[14.315196,50.063172],[14.315051,50.063123],[14.3149,50.063066],[14.314749,50.063008],[14.314436,50.062906],[14.314427,50.062903],[14.314354,50.06288],[14.314232,50.062841],[14.314124,50.062807],[14.313941,50.062762],[14.313861,50.062742],[14.313601,50.062679],[14.313551,50.062667],[14.313339,50.062617],[14.313078,50.062553],[14.312817,50.06249],[14.312555,50.062429],[14.312292,50.062367],[14.3121,50.062322],[14.312079,50.062317],[14.312029,50.062306],[14.311954,50.062289],[14.311766,50.062248],[14.311502,50.062189],[14.311262,50.062135],[14.311238,50.06213],[14.310947,50.062069],[14.310612,50.062],[14.310333,50.061941],[14.31029,50.061925],[14.310251,50.061916],[14.310139,50.061883],[14.310056,50.061858],[14.309979,50.061835],[14.309915,50.061816],[14.309913,50.061819],[14.309725,50.062165],[14.309682,50.062298],[14.30964,50.06243],[14.309625,50.062565],[14.30963,50.062801],[14.309718,50.064479]]]}},{"type":"Feature","properties":{"cislo":17006,"kod":27439,"mestskaCast":"praha-17"},"geometry":{"type":"Polygon","coordinates":[[[14.312623,50.065656],[14.312661,50.066005],[14.312672,50.066015],[14.314938,50.065973],[14.314946,50.066064],[14.316675,50.066028],[14.316694,50.066202],[14.317926,50.066113],[14.317953,50.066052],[14.31792,50.065813],[14.317128,50.06576],[14.316906,50.06574],[14.316677,50.065692],[14.316465,50.065628],[14.316372,50.065602],[14.316032,50.06548],[14.31565,50.065355],[14.315624,50.065344],[14.315414,50.065271],[14.315234,50.065191],[14.31521,50.065171],[14.315089,50.065078],[14.314948,50.064948],[14.314829,50.064846],[14.314743,50.064784],[14.314718,50.064773],[14.314589,50.064716],[14.314561,50.064713],[14.314427,50.064683],[14.314259,50.064677],[14.314034,50.064675],[14.313921,50.064674],[14.313123,50.064975],[14.312601,50.064974],[14.312623,50.065656]]]}},{"type":"Feature","properties":{"cislo":17007,"kod":27441,"mestskaCast":"praha-17"},"geometry":{"type":"Polygon","coordinates":[[[14.309877,50.068443],[14.310442,50.068439],[14.310997,50.068416],[14.311778,50.068522],[14.312047,50.068519],[14.311826,50.067909],[14.311702,50.067571],[14.312338,50.067564],[14.312197,50.067234],[14.312202,50.06708],[14.312198,50.066971],[14.312223,50.066855],[14.312352,50.066649],[14.312497,50.066435],[14.312597,50.066299],[14.312652,50.066176],[14.312672,50.066015],[14.312661,50.066005],[14.312623,50.065656],[14.311477,50.065672],[14.311408,50.065339],[14.311336,50.065151],[14.311222,50.064959],[14.311061,50.064727],[14.310922,50.064524],[14.310777,50.064411],[14.310595,50.064404],[14.310017,50.06447],[14.309718,50.064479],[14.309716,50.064488],[14.309725,50.06458],[14.309759,50.065336],[14.309842,50.067495],[14.309865,50.068042],[14.309877,50.068443]]]}},{"type":"Feature","properties":{"cislo":17008,"kod":27443,"mestskaCast":"praha-17"},"geometry":{"type":"Polygon","coordinates":[[[14.322444,50.068496],[14.322416,50.068473],[14.32252,50.0683],[14.322514,50.068118],[14.322588,50.067853],[14.322695,50.067349],[14.322753,50.067162],[14.322627,50.066811],[14.322557,50.066677],[14.322542,50.066647],[14.322486,50.066538],[14.322413,50.066473],[14.32211,50.066042],[14.32194,50.065851],[14.321848,50.065716],[14.321811,50.065661],[14.321757,50.065575],[14.321722,50.065507],[14.321764,50.065389],[14.321989,50.065275],[14.322014,50.065263],[14.322047,50.065246],[14.322197,50.065263],[14.322202,50.065263],[14.322218,50.065265],[14.322226,50.065239],[14.322239,50.065193],[14.322249,50.065155],[14.322253,50.065143],[14.322159,50.065132],[14.321862,50.0651],[14.321782,50.065091],[14.32162,50.06508],[14.321478,50.065066],[14.321458,50.065064],[14.320797,50.064992],[14.320323,50.064951],[14.320199,50.06494],[14.319965,50.064915],[14.319623,50.064879],[14.319634,50.064841],[14.319535,50.064829],[14.319321,50.064801],[14.319161,50.064778],[14.319125,50.064772],[14.319005,50.064753],[14.31887,50.064725],[14.318819,50.064714],[14.318799,50.06471],[14.318686,50.064686],[14.318657,50.065797],[14.317961,50.065817],[14.31792,50.065813],[14.317953,50.066052],[14.317926,50.066113],[14.316694,50.066202],[14.316703,50.066548],[14.316219,50.066832],[14.315806,50.067176],[14.315698,50.067284],[14.315632,50.067396],[14.315524,50.067632],[14.315718,50.067649],[14.316125,50.067658],[14.316459,50.067679],[14.316825,50.067685],[14.317103,50.067701],[14.317174,50.067698],[14.317578,50.067725],[14.318121,50.067819],[14.318503,50.068271],[14.318642,50.068347],[14.318852,50.06842],[14.319174,50.068494],[14.320167,50.068665],[14.322444,50.068496],[14.322444,50.068496]]]}},{"type":"Feature","properties":{"cislo":17009,"kod":27445,"mestskaCast":"praha-17"},"geometry":{"type":"Polygon","coordinates":[[[14.30358,50.069712],[14.304048,50.0697],[14.304417,50.069887],[14.304942,50.07007],[14.305124,50.070141],[14.305341,50.070179],[14.305626,50.070168],[14.305766,50.070171],[14.305742,50.069761],[14.306832,50.06974],[14.306888,50.070136],[14.307454,50.069996],[14.307712,50.06991],[14.307935,50.069857],[14.308217,50.069792],[14.30865,50.069749],[14.308682,50.070124],[14.308665,50.070268],[14.308587,50.070433],[14.308389,50.070697],[14.308451,50.071256],[14.309961,50.070992],[14.309945,50.070609],[14.309932,50.070018],[14.309877,50.068443],[14.309865,50.068042],[14.308573,50.068081],[14.30736,50.067037],[14.305691,50.06706],[14.305434,50.066946],[14.305315,50.066845],[14.305227,50.066664],[14.304166,50.066678],[14.304315,50.068661],[14.304307,50.068897],[14.303525,50.068927],[14.30358,50.069712]]]}},{"type":"Feature","properties":{"cislo":17010,"kod":27447,"mestskaCast":"praha-17"},"geometry":{"type":"Polygon","coordinates":[[[14.309865,50.068042],[14.309842,50.067495],[14.309759,50.065336],[14.309725,50.06458],[14.309716,50.064488],[14.308439,50.064528],[14.308075,50.064577],[14.307882,50.064624],[14.307744,50.064675],[14.307569,50.064768],[14.306927,50.065128],[14.306236,50.06552],[14.306082,50.065579],[14.305944,50.06563],[14.305914,50.065637],[14.306135,50.065856],[14.307025,50.066698],[14.30736,50.067037],[14.308573,50.068081],[14.309865,50.068042]]]}},{"type":"Feature","properties":{"cislo":17011,"kod":27449,"mestskaCast":"praha-17"},"geometry":{"type":"Polygon","coordinates":[[[14.304661,50.063609],[14.304739,50.065204],[14.305872,50.065179],[14.305914,50.065637],[14.305944,50.06563],[14.306082,50.065579],[14.306236,50.06552],[14.306927,50.065128],[14.307569,50.064768],[14.307744,50.064675],[14.307882,50.064624],[14.308075,50.064577],[14.308439,50.064528],[14.309716,50.064488],[14.309718,50.064479],[14.30963,50.062801],[14.309625,50.062565],[14.30964,50.06243],[14.309682,50.062298],[14.309725,50.062165],[14.309913,50.061819],[14.309915,50.061816],[14.3097,50.061752],[14.309315,50.061694],[14.309019,50.061649],[14.308977,50.061638],[14.30897,50.061636],[14.308961,50.061657],[14.308556,50.061575],[14.308352,50.061538],[14.307898,50.061456],[14.307773,50.061433],[14.307444,50.061375],[14.307306,50.06135],[14.307306,50.06135],[14.307197,50.061594],[14.306397,50.06184],[14.306218,50.062078],[14.306262,50.063117],[14.306021,50.063122],[14.304648,50.063145],[14.304661,50.063609]]]}},{"type":"Feature","properties":{"cislo":17012,"kod":27451,"mestskaCast":"praha-17"},"geometry":{"type":"Polygon","coordinates":[[[14.303149,50.063882],[14.303417,50.063815],[14.303514,50.06376],[14.303624,50.063707],[14.303683,50.06363],[14.304661,50.063609],[14.304648,50.063145],[14.306021,50.063122],[14.306262,50.063117],[14.306218,50.062078],[14.306397,50.06184],[14.307197,50.061594],[14.307306,50.06135],[14.307306,50.06135],[14.307001,50.061296],[14.306863,50.061271],[14.306625,50.061229],[14.305955,50.061112],[14.305532,50.061038],[14.304771,50.06091],[14.30444,50.060852],[14.304371,50.060871],[14.304187,50.060944],[14.304115,50.060973],[14.304114,50.060973],[14.303993,50.061037],[14.303048,50.061531],[14.302903,50.061919],[14.302864,50.062025],[14.302863,50.062026],[14.302837,50.062026],[14.302707,50.062023],[14.302697,50.062023],[14.302496,50.062019],[14.302468,50.062019],[14.302354,50.062021],[14.302132,50.062025],[14.302129,50.062025],[14.301216,50.0625],[14.30082,50.062706],[14.300926,50.062834],[14.300958,50.062892],[14.300959,50.062892],[14.300742,50.062879],[14.300444,50.06307],[14.300271,50.06317],[14.300271,50.06317],[14.300868,50.063605],[14.30162,50.063581],[14.301614,50.063417],[14.30266,50.063402],[14.302679,50.06384],[14.303149,50.063882]]]}},{"type":"Feature","properties":{"cislo":17013,"kod":27453,"mestskaCast":"praha-17"},"geometry":{"type":"Polygon","coordinates":[[[14.300271,50.06317],[14.300115,50.063259],[14.299322,50.063714],[14.299381,50.063779],[14.29931,50.063811],[14.299206,50.063853],[14.298999,50.063961],[14.298788,50.064102],[14.298411,50.064359],[14.298405,50.064409],[14.298403,50.064426],[14.298037,50.064628],[14.297851,50.064677],[14.29771,50.064715],[14.297678,50.064724],[14.297403,50.064852],[14.297339,50.064882],[14.2973,50.0649],[14.297222,50.064936],[14.297214,50.064975],[14.29714,50.065337],[14.297078,50.065318],[14.297021,50.065301],[14.296883,50.065261],[14.296834,50.065246],[14.29678,50.065271],[14.296721,50.065298],[14.296601,50.065261],[14.29659,50.065257],[14.296513,50.065233],[14.296441,50.065209],[14.2958,50.065553],[14.294956,50.065953],[14.294956,50.065953],[14.294738,50.065807],[14.294612,50.065872],[14.294546,50.065906],[14.294229,50.066066],[14.294031,50.066164],[14.293567,50.066392],[14.293161,50.066573],[14.293077,50.066617],[14.293031,50.066641],[14.293031,50.066641],[14.293013,50.066707],[14.292982,50.06682],[14.29297,50.066862],[14.292914,50.06707],[14.292845,50.067272],[14.292822,50.06731],[14.292822,50.06731],[14.292943,50.067252],[14.293039,50.067197],[14.293126,50.067123],[14.29325,50.06707],[14.293488,50.066946],[14.293709,50.066839],[14.29374,50.066824],[14.294026,50.066677],[14.294042,50.066669],[14.294306,50.066557],[14.294613,50.066439],[14.294947,50.066333],[14.295097,50.066292],[14.295424,50.066212],[14.295499,50.066192],[14.295767,50.066125],[14.295945,50.066087],[14.29699,50.065817],[14.297395,50.065708],[14.297513,50.065682],[14.297841,50.065603],[14.298034,50.065557],[14.298152,50.065531],[14.298569,50.065432],[14.299224,50.065273],[14.30057,50.065766],[14.300779,50.065449],[14.301067,50.065357],[14.301363,50.065292],[14.301543,50.065245],[14.302036,50.065244],[14.302006,50.064669],[14.302218,50.064534],[14.302532,50.064516],[14.303169,50.064247],[14.303163,50.063883],[14.303149,50.063882],[14.302679,50.06384],[14.30266,50.063402],[14.301614,50.063417],[14.30162,50.063581],[14.300868,50.063605],[14.300271,50.06317],[14.300271,50.06317]]]}},{"type":"Feature","properties":{"cislo":17014,"kod":27455,"mestskaCast":"praha-17"},"geometry":{"type":"Polygon","coordinates":[[[14.300532,50.066915],[14.300519,50.066914],[14.300108,50.066532],[14.299845,50.065919],[14.299811,50.065752],[14.299384,50.065769],[14.299367,50.065912],[14.299351,50.06612],[14.299253,50.066247],[14.298629,50.066264],[14.298656,50.066593],[14.29745,50.067801],[14.297418,50.06808],[14.298259,50.068491],[14.298356,50.068372],[14.298593,50.068121],[14.298784,50.067893],[14.298911,50.06776],[14.298913,50.067751],[14.299137,50.067825],[14.299204,50.06784],[14.29939,50.067893],[14.299457,50.067908],[14.299578,50.067937],[14.299663,50.067936],[14.299764,50.067927],[14.299977,50.067919],[14.300066,50.067899],[14.300139,50.067888],[14.300275,50.067845],[14.300304,50.067839],[14.30046,50.067771],[14.300537,50.067742],[14.300513,50.067395],[14.300475,50.067183],[14.300496,50.067021],[14.300532,50.066915]]]}},{"type":"Feature","properties":{"cislo":17015,"kod":27457,"mestskaCast":"praha-17"},"geometry":{"type":"Polygon","coordinates":[[[14.309882,50.072464],[14.309888,50.071784],[14.309929,50.071334],[14.309965,50.071038],[14.309961,50.070992],[14.308451,50.071256],[14.308389,50.070697],[14.308587,50.070433],[14.308665,50.070268],[14.308682,50.070124],[14.30865,50.069749],[14.308217,50.069792],[14.307935,50.069857],[14.307712,50.06991],[14.307454,50.069996],[14.306888,50.070136],[14.306832,50.06974],[14.305742,50.069761],[14.305766,50.070171],[14.305626,50.070168],[14.305341,50.070179],[14.305124,50.070141],[14.304942,50.07007],[14.304417,50.069887],[14.304048,50.0697],[14.30358,50.069712],[14.303583,50.069894],[14.303622,50.070433],[14.304093,50.071256],[14.304352,50.071297],[14.304432,50.071513],[14.30494,50.07184],[14.305391,50.072425],[14.305945,50.072538],[14.306608,50.07267],[14.30708,50.072767],[14.307703,50.072887],[14.308085,50.072948],[14.308453,50.072945],[14.308494,50.072558],[14.308745,50.072571],[14.308927,50.072579],[14.309124,50.072578],[14.309326,50.07256],[14.309882,50.072464]]]}},{"type":"Feature","properties":{"cislo":17016,"kod":27459,"mestskaCast":"praha-17"},"geometry":{"type":"Polygon","coordinates":[[[14.298259,50.068491],[14.297872,50.06891],[14.298033,50.068952],[14.303088,50.06886],[14.303751,50.068792],[14.303847,50.068674],[14.304315,50.068661],[14.304166,50.066678],[14.303968,50.066679],[14.303745,50.066668],[14.303392,50.066672],[14.303012,50.066666],[14.302578,50.066654],[14.301683,50.066619],[14.30127,50.066637],[14.301096,50.066657],[14.300936,50.066679],[14.300772,50.066719],[14.300656,50.066799],[14.300532,50.066915],[14.300496,50.067021],[14.300475,50.067183],[14.300513,50.067395],[14.300537,50.067742],[14.30046,50.067771],[14.300304,50.067839],[14.300275,50.067845],[14.300139,50.067888],[14.300066,50.067899],[14.299977,50.067919],[14.299764,50.067927],[14.299663,50.067936],[14.299578,50.067937],[14.299457,50.067908],[14.29939,50.067893],[14.299204,50.06784],[14.299137,50.067825],[14.298913,50.067751],[14.298911,50.06776],[14.298784,50.067893],[14.298593,50.068121],[14.298356,50.068372],[14.298259,50.068491]]]}},{"type":"Feature","properties":{"cislo":17017,"kod":27461,"mestskaCast":"praha-17"},"geometry":{"type":"Polygon","coordinates":[[[14.305914,50.065637],[14.305872,50.065179],[14.304739,50.065204],[14.304661,50.063609],[14.303683,50.06363],[14.303624,50.063707],[14.303514,50.06376],[14.303417,50.063815],[14.303149,50.063882],[14.303163,50.063883],[14.303169,50.064247],[14.302532,50.064516],[14.302218,50.064534],[14.302006,50.064669],[14.302036,50.065244],[14.301543,50.065245],[14.301363,50.065292],[14.301067,50.065357],[14.300779,50.065449],[14.30057,50.065766],[14.300583,50.065767],[14.300902,50.065796],[14.301338,50.065798],[14.303823,50.065722],[14.30484,50.065713],[14.305336,50.065703],[14.305693,50.06568],[14.305914,50.065637]]]}},{"type":"Feature","properties":{"cislo":17018,"kod":27463,"mestskaCast":"praha-17"},"geometry":{"type":"Polygon","coordinates":[[[14.310018,50.073076],[14.310047,50.073205],[14.310109,50.073828],[14.31009,50.074571],[14.310124,50.076371],[14.310125,50.076375],[14.312335,50.07601],[14.31381,50.075766],[14.313832,50.075831],[14.314288,50.075841],[14.314383,50.075843],[14.314387,50.075843],[14.314607,50.075848],[14.314871,50.075854],[14.314895,50.075985],[14.3149,50.07601],[14.316091,50.075967],[14.317726,50.075897],[14.317726,50.075897],[14.318078,50.075918],[14.318116,50.075979],[14.318287,50.075931],[14.318481,50.075875],[14.318481,50.075875],[14.318499,50.075902],[14.318529,50.075945],[14.318583,50.076023],[14.31866,50.076031],[14.318836,50.076047],[14.319072,50.075993],[14.319126,50.07598],[14.319165,50.075971],[14.319309,50.075938],[14.319485,50.075898],[14.319546,50.075884],[14.319743,50.075838],[14.319782,50.075829],[14.320026,50.075773],[14.320029,50.075772],[14.320002,50.076065],[14.31999,50.076199],[14.31999,50.076199],[14.320255,50.076198],[14.320306,50.0762],[14.320337,50.076201],[14.320431,50.076205],[14.320434,50.076205],[14.320888,50.076222],[14.321307,50.07624],[14.321356,50.076242],[14.321471,50.076247],[14.321681,50.076238],[14.321683,50.076261],[14.321686,50.076263],[14.321687,50.076264],[14.321705,50.076263],[14.321734,50.076261],[14.321734,50.076269],[14.321741,50.076271],[14.321741,50.076273],[14.321738,50.076275],[14.321742,50.076276],[14.321743,50.076282],[14.32174,50.076285],[14.321744,50.076286],[14.321745,50.076292],[14.321741,50.076295],[14.321743,50.076296],[14.321745,50.076297],[14.321747,50.076296],[14.32175,50.076296],[14.321754,50.076295],[14.321757,50.076295],[14.32176,50.076296],[14.321763,50.076296],[14.321766,50.076297],[14.321768,50.076299],[14.32177,50.076297],[14.321773,50.076296],[14.321776,50.076295],[14.321779,50.076294],[14.321782,50.076294],[14.321785,50.076294],[14.321788,50.076294],[14.32179,50.076295],[14.321792,50.076294],[14.321793,50.076293],[14.32179,50.076291],[14.32179,50.076284],[14.321792,50.076282],[14.321792,50.076282],[14.321792,50.076282],[14.321789,50.07628],[14.321789,50.076274],[14.321791,50.076273],[14.321792,50.076272],[14.321791,50.076272],[14.321789,50.07627],[14.321788,50.076268],[14.321791,50.076267],[14.321794,50.076266],[14.321794,50.076266],[14.321791,50.076232],[14.321802,50.076232],[14.322417,50.076207],[14.322442,50.076206],[14.322988,50.076182],[14.323676,50.076153],[14.323698,50.076152],[14.323699,50.076152],[14.323708,50.076152],[14.323841,50.076146],[14.323884,50.076144],[14.32424,50.076185],[14.324592,50.076226],[14.324764,50.076246],[14.32479,50.076249],[14.325149,50.076233],[14.325703,50.076208],[14.325705,50.076208],[14.325694,50.076144],[14.32569,50.076121],[14.325666,50.075972],[14.325609,50.075809],[14.325584,50.075644],[14.325576,50.075548],[14.325574,50.075529],[14.325561,50.075435],[14.325561,50.075433],[14.325558,50.075422],[14.325532,50.075313],[14.32552,50.075263],[14.325505,50.075172],[14.325497,50.075106],[14.325496,50.075097],[14.325493,50.075032],[14.325489,50.074941],[14.325485,50.074859],[14.325507,50.074839],[14.325548,50.074803],[14.325462,50.074794],[14.32543,50.074785],[14.325411,50.074775],[14.325399,50.074761],[14.325396,50.07475],[14.325393,50.074741],[14.325393,50.074737],[14.32539,50.07447],[14.325489,50.074215],[14.325493,50.074205],[14.325558,50.074038],[14.325248,50.073932],[14.324915,50.073878],[14.324872,50.073741],[14.324589,50.07349],[14.323308,50.073195],[14.323107,50.073284],[14.322702,50.073237],[14.322456,50.07311],[14.322337,50.073102],[14.322204,50.073188],[14.32207,50.073373],[14.321725,50.073495],[14.321725,50.073494],[14.321725,50.073494],[14.321101,50.073287],[14.320643,50.072992],[14.319396,50.072299],[14.318675,50.071917],[14.318459,50.071807],[14.3183,50.071756],[14.318006,50.071685],[14.317834,50.071633],[14.317507,50.071513],[14.316858,50.071319],[14.316377,50.071194],[14.31631,50.071179],[14.31628,50.071185],[14.31625,50.071192],[14.316248,50.071201],[14.316233,50.071208],[14.316215,50.071225],[14.316209,50.071252],[14.316202,50.071287],[14.316192,50.071332],[14.316167,50.071384],[14.316116,50.071552],[14.316108,50.071588],[14.316062,50.071674],[14.316052,50.071719],[14.315978,50.07193],[14.315935,50.072062],[14.31592,50.072197],[14.315886,50.072421],[14.315865,50.072519],[14.315848,50.072663],[14.315838,50.072907],[14.315809,50.073168],[14.315806,50.073249],[14.315781,50.073428],[14.315753,50.073689],[14.31574,50.073815],[14.315594,50.073775],[14.315392,50.073729],[14.314818,50.073578],[14.314565,50.07351],[14.314367,50.073447],[14.314217,50.073424],[14.31378,50.073358],[14.313315,50.073289],[14.313083,50.07325],[14.312646,50.073184],[14.312053,50.073122],[14.311494,50.073099],[14.310961,50.073088],[14.310581,50.073081],[14.310313,50.073084],[14.310188,50.073073],[14.310018,50.073076]]]}}]}
