{"type":"FeatureCollection","features":[{"type":"Feature","properties":{"cislo":15001,"kod":28001,"mestskaCast":"praha-15"},"geometry":{"type":"Polygon","coordinates":[[[14.560365,50.049136],[14.560819,50.048387],[14.561462,50.048543],[14.561938,50.047758],[14.561336,50.047606],[14.560585,50.047422],[14.560791,50.04705],[14.56101,50.046679],[14.560698,50.046552],[14.559594,50.046111],[14.55886,50.045847],[14.558579,50.045777],[14.558506,50.045789],[14.558431,50.04581],[14.55838,50.045851],[14.558208,50.045999],[14.558014,50.045918],[14.557529,50.045676],[14.557443,50.045751],[14.557355,50.045834],[14.557291,50.045873],[14.557098,50.045983],[14.557018,50.046031],[14.556922,50.046086],[14.556745,50.046189],[14.556602,50.046267],[14.556567,50.0463],[14.556347,50.046471],[14.556173,50.046629],[14.556029,50.046779],[14.556013,50.046787],[14.556201,50.046831],[14.556443,50.046888],[14.556536,50.046914],[14.556658,50.046934],[14.556821,50.046966],[14.557021,50.04702],[14.557233,50.047084],[14.556681,50.047961],[14.556539,50.048167],[14.55662,50.048183],[14.557048,50.048293],[14.557583,50.04843],[14.558197,50.048593],[14.558557,50.048688],[14.558945,50.048785],[14.559199,50.048853],[14.559532,50.048946],[14.559813,50.049015],[14.559987,50.049058],[14.560082,50.049075],[14.560365,50.049136]]]}},{"type":"Feature","properties":{"cislo":15002,"kod":28003,"mestskaCast":"praha-15"},"geometry":{"type":"Polygon","coordinates":[[[14.565491,50.042797],[14.56536,50.040744],[14.564071,50.040777],[14.56215,50.040799],[14.562147,50.042686],[14.561366,50.042582],[14.561057,50.04251],[14.559511,50.042356],[14.55947,50.042353],[14.559426,50.042494],[14.559385,50.04269],[14.561086,50.042839],[14.561371,50.043027],[14.563482,50.043574],[14.563779,50.0439],[14.564577,50.042654],[14.565223,50.042801],[14.565491,50.042797]]]}},{"type":"Feature","properties":{"cislo":15003,"kod":28005,"mestskaCast":"praha-15"},"geometry":{"type":"Polygon","coordinates":[[[14.559385,50.04269],[14.559426,50.042494],[14.55947,50.042353],[14.559511,50.042356],[14.561057,50.04251],[14.561366,50.042582],[14.562147,50.042686],[14.56215,50.040799],[14.564071,50.040777],[14.564096,50.03979],[14.564089,50.039689],[14.564756,50.03953],[14.564795,50.039479],[14.564794,50.039352],[14.564796,50.039343],[14.564949,50.039284],[14.564773,50.038515],[14.564748,50.038431],[14.564177,50.038336],[14.563921,50.038277],[14.563575,50.038184],[14.563571,50.038183],[14.563438,50.038361],[14.562772,50.038773],[14.562718,50.038806],[14.56184,50.039348],[14.561782,50.039384],[14.561432,50.0396],[14.561208,50.039775],[14.561075,50.039879],[14.560942,50.039908],[14.560872,50.039924],[14.56078,50.039944],[14.560644,50.039974],[14.560601,50.039983],[14.559288,50.040119],[14.559171,50.040132],[14.558642,50.040186],[14.558549,50.040196],[14.558283,50.040224],[14.5579,50.040208],[14.557782,50.040203],[14.557782,50.040203],[14.557779,50.040417],[14.557781,50.040472],[14.557796,50.040537],[14.557829,50.040712],[14.557857,50.040914],[14.558071,50.040969],[14.558727,50.040999],[14.559317,50.041005],[14.559173,50.041156],[14.558938,50.041399],[14.558866,50.041474],[14.558813,50.041524],[14.558798,50.041532],[14.558715,50.041588],[14.558621,50.041634],[14.558492,50.041714],[14.558458,50.041738],[14.558344,50.04181],[14.558331,50.041808],[14.558103,50.041952],[14.558086,50.041968],[14.55797,50.042049],[14.557905,50.042089],[14.557821,50.042154],[14.557739,50.04221],[14.557705,50.042235],[14.557658,50.042258],[14.557597,50.04228],[14.557669,50.04254],[14.559385,50.04269]]]}},{"type":"Feature","properties":{"cislo":15004,"kod":28007,"mestskaCast":"praha-15"},"geometry":{"type":"Polygon","coordinates":[[[14.568504,50.046297],[14.568501,50.046299],[14.568024,50.046022],[14.567685,50.045892],[14.56741,50.045796],[14.567117,50.045716],[14.567135,50.045627],[14.567137,50.045618],[14.567152,50.045546],[14.56717,50.045394],[14.567166,50.045348],[14.567172,50.045321],[14.567178,50.045222],[14.567179,50.045086],[14.567172,50.045049],[14.567161,50.044903],[14.567145,50.044711],[14.567147,50.044702],[14.566991,50.044707],[14.566949,50.044703],[14.566612,50.044701],[14.566458,50.044696],[14.56628,50.044672],[14.566104,50.044638],[14.56605,50.044624],[14.565943,50.044597],[14.565759,50.044535],[14.565642,50.044489],[14.565563,50.044464],[14.565434,50.044407],[14.565645,50.044208],[14.565738,50.044098],[14.565818,50.043987],[14.56587,50.043874],[14.565908,50.043759],[14.565947,50.043644],[14.566001,50.043522],[14.566011,50.043405],[14.566029,50.043252],[14.566009,50.043078],[14.56601,50.042942],[14.565998,50.042796],[14.565491,50.042797],[14.565223,50.042801],[14.564577,50.042654],[14.563779,50.0439],[14.563482,50.043574],[14.561371,50.043027],[14.561086,50.042839],[14.559385,50.04269],[14.557669,50.04254],[14.557248,50.042803],[14.557335,50.042992],[14.557446,50.043265],[14.557511,50.043424],[14.557541,50.043482],[14.557528,50.043544],[14.557505,50.043587],[14.557561,50.043656],[14.557605,50.043714],[14.557635,50.043771],[14.55775,50.043963],[14.557798,50.044067],[14.557818,50.044105],[14.557879,50.044219],[14.557917,50.044304],[14.557944,50.044379],[14.557991,50.044555],[14.558002,50.044638],[14.558007,50.044747],[14.558001,50.044774],[14.55798,50.044944],[14.557974,50.044971],[14.557965,50.045016],[14.557918,50.045102],[14.557893,50.045155],[14.557818,50.045311],[14.557752,50.045424],[14.557695,50.045491],[14.557693,50.0455],[14.557529,50.045676],[14.558014,50.045918],[14.558208,50.045999],[14.55838,50.045851],[14.558431,50.04581],[14.558506,50.045789],[14.558579,50.045777],[14.55886,50.045847],[14.559594,50.046111],[14.560698,50.046552],[14.56101,50.046679],[14.560791,50.04705],[14.560585,50.047422],[14.561336,50.047606],[14.561938,50.047758],[14.561462,50.048543],[14.560819,50.048387],[14.560365,50.049136],[14.560608,50.049185],[14.560856,50.049215],[14.561077,50.049235],[14.561314,50.049246],[14.560844,50.050476],[14.560837,50.050474],[14.560836,50.050474],[14.56055,50.051024],[14.560526,50.051068],[14.56071,50.051286],[14.56072,50.051289],[14.561042,50.051363],[14.561216,50.051404],[14.561849,50.051552],[14.562266,50.051656],[14.562294,50.051658],[14.562297,50.051658],[14.562903,50.051691],[14.562855,50.051881],[14.563201,50.0519],[14.56341,50.051539],[14.563564,50.051044],[14.563633,50.050822],[14.563899,50.050865],[14.56449,50.050961],[14.565027,50.051093],[14.56567,50.05125],[14.565811,50.051284],[14.566689,50.051499],[14.566735,50.05151],[14.566858,50.051447],[14.567025,50.051207],[14.567106,50.051091],[14.567124,50.051064],[14.567155,50.05102],[14.567192,50.050966],[14.567371,50.050762],[14.567537,50.050573],[14.567561,50.050546],[14.567566,50.05054],[14.567575,50.050533],[14.567772,50.050375],[14.568072,50.050136],[14.568274,50.049951],[14.5687,50.04956],[14.568834,50.049435],[14.568924,50.049353],[14.569119,50.049172],[14.569183,50.049113],[14.569268,50.049035],[14.569412,50.048901],[14.569941,50.048412],[14.569954,50.0484],[14.570016,50.048343],[14.570036,50.048325],[14.570048,50.048313],[14.570151,50.048218],[14.570176,50.048195],[14.570194,50.048179],[14.570351,50.048034],[14.570499,50.047896],[14.570548,50.047852],[14.570611,50.047793],[14.570977,50.047455],[14.570821,50.047326],[14.570774,50.047288],[14.570743,50.047262],[14.570737,50.047259],[14.570339,50.047038],[14.570213,50.046993],[14.570176,50.04698],[14.569714,50.046814],[14.569556,50.046746],[14.56936,50.046662],[14.569068,50.046538],[14.569026,50.04652],[14.568842,50.046441],[14.568551,50.046317],[14.568537,50.046312],[14.568504,50.046297]]]}},{"type":"Feature","properties":{"cislo":15005,"kod":28009,"mestskaCast":"praha-15"},"geometry":{"type":"Polygon","coordinates":[[[14.564071,50.040777],[14.56536,50.040744],[14.566876,50.040704],[14.566904,50.04097],[14.567118,50.040961],[14.56723,50.040962],[14.567244,50.040963],[14.567287,50.040958],[14.567597,50.040958],[14.567994,50.040947],[14.568334,50.04094],[14.568361,50.040943],[14.568432,50.04094],[14.568673,50.040934],[14.568983,50.040934],[14.569366,50.040922],[14.569931,50.040917],[14.570059,50.04091],[14.570158,50.040909],[14.57027,50.04091],[14.570277,50.040947],[14.570295,50.041057],[14.570302,50.041094],[14.570298,50.041112],[14.570424,50.04105],[14.570632,50.040996],[14.570974,50.04098],[14.571448,50.041004],[14.571461,50.041005],[14.571456,50.041004],[14.571391,50.040922],[14.571398,50.040763],[14.571385,50.040687],[14.571362,50.040644],[14.571327,50.04062],[14.571279,50.040606],[14.570953,50.040568],[14.57068,50.040507],[14.570278,50.040383],[14.570189,50.040346],[14.570165,50.040337],[14.570077,50.040301],[14.569889,50.04021],[14.569612,50.040048],[14.569495,50.039956],[14.569235,50.039681],[14.569138,50.039578],[14.569106,50.039545],[14.569019,50.03943],[14.569208,50.038385],[14.569208,50.038303],[14.569192,50.038175],[14.569167,50.038077],[14.568834,50.038202],[14.568383,50.038365],[14.56816,50.038438],[14.567345,50.038704],[14.567263,50.038617],[14.566999,50.038548],[14.566997,50.03854],[14.567035,50.038534],[14.567024,50.038503],[14.566987,50.038509],[14.566936,50.038346],[14.56689,50.038198],[14.566809,50.037824],[14.566748,50.037473],[14.566801,50.03716],[14.566874,50.036986],[14.566761,50.036976],[14.566454,50.036949],[14.566365,50.036938],[14.566304,50.036933],[14.566242,50.036932],[14.566187,50.036934],[14.566134,50.036942],[14.566084,50.036955],[14.566037,50.036972],[14.565994,50.036995],[14.565843,50.037098],[14.565694,50.037195],[14.565681,50.037204],[14.565632,50.037238],[14.565534,50.037307],[14.565382,50.037397],[14.565341,50.037405],[14.565239,50.03743],[14.56437,50.037633],[14.563899,50.037743],[14.56389,50.037755],[14.563778,50.037905],[14.563571,50.038183],[14.563575,50.038184],[14.563921,50.038277],[14.564177,50.038336],[14.564748,50.038431],[14.564773,50.038515],[14.564949,50.039284],[14.564796,50.039343],[14.564794,50.039352],[14.564795,50.039479],[14.564756,50.03953],[14.564089,50.039689],[14.564096,50.03979],[14.564071,50.040777]]]}},{"type":"Feature","properties":{"cislo":15006,"kod":28011,"mestskaCast":"praha-15"},"geometry":{"type":"Polygon","coordinates":[[[14.547227,50.044149],[14.54931,50.044694],[14.549484,50.044673],[14.550213,50.044891],[14.550974,50.044758],[14.552297,50.04403],[14.55276,50.043771],[14.553457,50.043741],[14.557505,50.043587],[14.557493,50.043577],[14.557469,50.043557],[14.557433,50.043527],[14.557349,50.043456],[14.557252,50.043384],[14.557151,50.043329],[14.557025,50.043255],[14.556934,50.04322],[14.556843,50.043185],[14.556736,50.043157],[14.556617,50.04312],[14.556481,50.043098],[14.55636,50.04307],[14.556235,50.043059],[14.55614,50.043042],[14.556099,50.043038],[14.55599,50.043019],[14.555729,50.042987],[14.555442,50.042944],[14.555334,50.042926],[14.555086,50.042895],[14.554689,50.042842],[14.554388,50.042798],[14.554157,50.042759],[14.553896,50.042727],[14.553677,50.042699],[14.553417,50.042658],[14.553214,50.042622],[14.553134,50.042597],[14.552933,50.042552],[14.552669,50.042466],[14.552542,50.0424],[14.552413,50.042344],[14.552242,50.04222],[14.552228,50.042218],[14.55212,50.042127],[14.552108,50.042117],[14.552005,50.042008],[14.551951,50.041931],[14.55184,50.041722],[14.551807,50.04161],[14.551802,50.041564],[14.551783,50.041454],[14.551783,50.04139],[14.551776,50.04129],[14.551804,50.041156],[14.551833,50.041086],[14.551844,50.041032],[14.551891,50.040946],[14.551914,50.040902],[14.550971,50.040766],[14.551082,50.04044],[14.550494,50.040352],[14.550145,50.040339],[14.550112,50.040228],[14.54974,50.040122],[14.549529,50.040186],[14.54926,50.04146],[14.548915,50.041493],[14.548659,50.041507],[14.548734,50.041885],[14.548235,50.042314],[14.548027,50.042296],[14.547995,50.042383],[14.547964,50.042526],[14.547911,50.042712],[14.547856,50.042907],[14.547833,50.043014],[14.547811,50.04312],[14.547791,50.043146],[14.547674,50.043435],[14.547658,50.043443],[14.547563,50.043625],[14.54746,50.043779],[14.547435,50.043832],[14.54733,50.043995],[14.547266,50.044098],[14.547227,50.044149]]]}},{"type":"Feature","properties":{"cislo":15007,"kod":28013,"mestskaCast":"praha-15"},"geometry":{"type":"Polygon","coordinates":[[[14.557505,50.043587],[14.557528,50.043544],[14.557541,50.043482],[14.557511,50.043424],[14.557446,50.043265],[14.557335,50.042992],[14.557248,50.042803],[14.557669,50.04254],[14.557597,50.04228],[14.557658,50.042258],[14.557705,50.042235],[14.557739,50.04221],[14.557821,50.042154],[14.557905,50.042089],[14.55797,50.042049],[14.558086,50.041968],[14.558103,50.041952],[14.558331,50.041808],[14.558344,50.04181],[14.558458,50.041738],[14.558492,50.041714],[14.558621,50.041634],[14.558715,50.041588],[14.558798,50.041532],[14.558813,50.041524],[14.558866,50.041474],[14.558938,50.041399],[14.559173,50.041156],[14.559317,50.041005],[14.558727,50.040999],[14.558071,50.040969],[14.557857,50.040914],[14.557829,50.040712],[14.553369,50.040685],[14.55347,50.041075],[14.553235,50.041118],[14.552965,50.041194],[14.552306,50.041381],[14.552675,50.041704],[14.552795,50.041869],[14.554369,50.042088],[14.556299,50.042357],[14.556099,50.043038],[14.55614,50.043042],[14.556235,50.043059],[14.55636,50.04307],[14.556481,50.043098],[14.556617,50.04312],[14.556736,50.043157],[14.556843,50.043185],[14.556934,50.04322],[14.557025,50.043255],[14.557151,50.043329],[14.557252,50.043384],[14.557349,50.043456],[14.557433,50.043527],[14.557469,50.043557],[14.557493,50.043577],[14.557505,50.043587]]]}},{"type":"Feature","properties":{"cislo":15008,"kod":28015,"mestskaCast":"praha-15"},"geometry":{"type":"Polygon","coordinates":[[[14.557829,50.040712],[14.557796,50.040537],[14.557781,50.040472],[14.557779,50.040417],[14.557782,50.040203],[14.557782,50.040203],[14.557337,50.040184],[14.557279,50.040181],[14.557152,50.040176],[14.556235,50.040138],[14.554993,50.040085],[14.554994,50.040072],[14.554999,50.040026],[14.555001,50.039997],[14.555021,50.039858],[14.555037,50.039693],[14.555054,50.039522],[14.555061,50.039448],[14.555062,50.039439],[14.555005,50.039431],[14.554957,50.039461],[14.55473,50.039431],[14.554783,50.039273],[14.554837,50.03928],[14.554863,50.039207],[14.553697,50.039061],[14.553314,50.039013],[14.552831,50.039027],[14.552717,50.039031],[14.552709,50.03903],[14.552444,50.038998],[14.552187,50.038855],[14.552141,50.038834],[14.551669,50.038614],[14.551035,50.038316],[14.550779,50.038132],[14.550779,50.038135],[14.550192,50.03871],[14.549998,50.039029],[14.549529,50.040186],[14.54974,50.040122],[14.550112,50.040228],[14.550145,50.040339],[14.550494,50.040352],[14.551082,50.04044],[14.550971,50.040766],[14.551914,50.040902],[14.551891,50.040946],[14.551844,50.041032],[14.551833,50.041086],[14.551804,50.041156],[14.551776,50.04129],[14.551783,50.04139],[14.551783,50.041454],[14.551802,50.041564],[14.551807,50.04161],[14.55184,50.041722],[14.551951,50.041931],[14.552005,50.042008],[14.552108,50.042117],[14.55212,50.042127],[14.552228,50.042218],[14.552242,50.04222],[14.552413,50.042344],[14.552542,50.0424],[14.552669,50.042466],[14.552933,50.042552],[14.553134,50.042597],[14.553214,50.042622],[14.553417,50.042658],[14.553677,50.042699],[14.553896,50.042727],[14.554157,50.042759],[14.554388,50.042798],[14.554689,50.042842],[14.555086,50.042895],[14.555334,50.042926],[14.555442,50.042944],[14.555729,50.042987],[14.55599,50.043019],[14.556099,50.043038],[14.556299,50.042357],[14.554369,50.042088],[14.552795,50.041869],[14.552675,50.041704],[14.552306,50.041381],[14.552965,50.041194],[14.553235,50.041118],[14.55347,50.041075],[14.553369,50.040685],[14.557829,50.040712]]]}},{"type":"Feature","properties":{"cislo":15009,"kod":28017,"mestskaCast":"praha-15"},"geometry":{"type":"Polygon","coordinates":[[[14.522884,50.073696],[14.522993,50.073724],[14.523576,50.073845],[14.523721,50.073874],[14.523794,50.073908],[14.524019,50.07401],[14.524034,50.074017],[14.52422,50.074059],[14.52445,50.074109],[14.525337,50.074275],[14.526057,50.074398],[14.526186,50.074436],[14.526191,50.074437],[14.526317,50.074481],[14.527018,50.074649],[14.527344,50.074728],[14.527541,50.074772],[14.527836,50.074829],[14.52817,50.07488],[14.528288,50.07467],[14.52832,50.074621],[14.528327,50.074609],[14.528358,50.074561],[14.528371,50.074541],[14.528378,50.074529],[14.528466,50.074419],[14.528491,50.074388],[14.528533,50.074343],[14.528603,50.074269],[14.528653,50.074223],[14.528672,50.074206],[14.528747,50.074137],[14.528944,50.073983],[14.52914,50.073805],[14.529224,50.073744],[14.529528,50.073536],[14.529643,50.073446],[14.52966,50.073433],[14.529761,50.073354],[14.529809,50.073316],[14.529856,50.07328],[14.529864,50.073273],[14.52993,50.073221],[14.530097,50.073089],[14.530137,50.073057],[14.530143,50.073053],[14.530172,50.07303],[14.530223,50.072989],[14.530227,50.072986],[14.530237,50.072978],[14.530382,50.072862],[14.530386,50.072858],[14.530398,50.072849],[14.530455,50.072804],[14.530503,50.072765],[14.530519,50.072752],[14.530809,50.072557],[14.531021,50.072436],[14.531245,50.07229],[14.531321,50.07224],[14.531339,50.07223],[14.531729,50.072003],[14.531814,50.071943],[14.532241,50.071642],[14.532489,50.071479],[14.53255,50.071439],[14.532605,50.071403],[14.532649,50.071374],[14.532815,50.071264],[14.532916,50.071194],[14.532991,50.071141],[14.532992,50.071141],[14.533088,50.071074],[14.533202,50.070994],[14.53321,50.070988],[14.533218,50.070981],[14.533239,50.070961],[14.53327,50.070933],[14.533422,50.070794],[14.533493,50.070727],[14.533603,50.07063],[14.533711,50.070532],[14.533777,50.070471],[14.534064,50.070169],[14.534089,50.070142],[14.534093,50.070138],[14.534213,50.070011],[14.534284,50.069924],[14.534326,50.069872],[14.534355,50.069838],[14.534473,50.069693],[14.534489,50.069674],[14.5345,50.069661],[14.534501,50.069659],[14.534535,50.069589],[14.534544,50.069569],[14.53457,50.069541],[14.5347,50.069405],[14.534762,50.069317],[14.534824,50.069218],[14.534893,50.069148],[14.535023,50.069019],[14.535148,50.068894],[14.535185,50.068857],[14.535191,50.068852],[14.5352,50.068846],[14.535203,50.068843],[14.53531,50.068757],[14.535377,50.068704],[14.535408,50.068679],[14.535443,50.068645],[14.535555,50.068535],[14.535571,50.068522],[14.5356,50.0685],[14.535657,50.068456],[14.535657,50.068456],[14.53572,50.068407],[14.535723,50.068405],[14.535886,50.068305],[14.53594,50.068271],[14.536097,50.068185],[14.536255,50.0681],[14.536307,50.068072],[14.536424,50.068008],[14.536589,50.067939],[14.53659,50.067938],[14.536616,50.067927],[14.536729,50.06788],[14.536731,50.067879],[14.536806,50.067847],[14.536822,50.067841],[14.536889,50.067813],[14.536899,50.067808],[14.537006,50.067764],[14.537188,50.067678],[14.537247,50.06764],[14.537283,50.067596],[14.537302,50.067538],[14.537306,50.067439],[14.537291,50.067331],[14.537348,50.067235],[14.537374,50.067196],[14.537445,50.067085],[14.537552,50.066914],[14.537644,50.066921],[14.537644,50.066921],[14.537687,50.066924],[14.537724,50.066927],[14.537732,50.066927],[14.537732,50.066927],[14.537759,50.066929],[14.537815,50.06693],[14.537885,50.066934],[14.538059,50.066941],[14.538175,50.066555],[14.538055,50.066521],[14.537861,50.066487],[14.537804,50.066477],[14.537787,50.066475],[14.53771,50.066463],[14.537706,50.066463],[14.53768,50.066459],[14.537658,50.066456],[14.537617,50.06645],[14.537506,50.066435],[14.537125,50.066383],[14.536717,50.066336],[14.536748,50.06618],[14.536778,50.066073],[14.536827,50.065903],[14.536864,50.065753],[14.536892,50.065627],[14.536944,50.065363],[14.537005,50.065106],[14.53702,50.065021],[14.537027,50.064982],[14.537041,50.064913],[14.53705,50.064871],[14.537056,50.064843],[14.537066,50.064799],[14.537103,50.064634],[14.537401,50.06469],[14.53753,50.064714],[14.537598,50.064728],[14.53761,50.06473],[14.537611,50.06473],[14.537726,50.064754],[14.537738,50.064756],[14.53774,50.064756],[14.53793,50.064794],[14.538022,50.064812],[14.538059,50.064819],[14.53812,50.064828],[14.538266,50.064849],[14.538322,50.064858],[14.538693,50.064909],[14.53876,50.064923],[14.538849,50.064943],[14.538902,50.064954],[14.539398,50.065045],[14.539507,50.065063],[14.539897,50.065128],[14.539923,50.065029],[14.539974,50.064895],[14.540025,50.064733],[14.540043,50.064641],[14.54006,50.064513],[14.540061,50.064477],[14.540061,50.064475],[14.540063,50.064403],[14.540064,50.064383],[14.540066,50.064294],[14.540063,50.064045],[14.540049,50.063657],[14.540061,50.063654],[14.540108,50.063634],[14.540155,50.063614],[14.540202,50.063594],[14.540246,50.063573],[14.540289,50.06355],[14.540332,50.063527],[14.540376,50.063504],[14.540419,50.063481],[14.540463,50.063457],[14.540503,50.063433],[14.54053,50.063418],[14.540545,50.06341],[14.540564,50.063397],[14.540583,50.063386],[14.540624,50.063362],[14.540663,50.063336],[14.540687,50.063319],[14.540701,50.06331],[14.540739,50.063283],[14.540776,50.063259],[14.540814,50.06323],[14.540851,50.063204],[14.540888,50.063176],[14.540923,50.063149],[14.540958,50.063121],[14.540992,50.063093],[14.541013,50.063075],[14.541017,50.063072],[14.541027,50.063064],[14.541036,50.063056],[14.541059,50.063036],[14.541091,50.063006],[14.541122,50.062976],[14.541152,50.062946],[14.541181,50.062916],[14.541211,50.062885],[14.541239,50.062855],[14.541268,50.062823],[14.541295,50.062791],[14.541322,50.06276],[14.541362,50.062708],[14.541373,50.062695],[14.541397,50.062662],[14.54142,50.06263],[14.541441,50.062598],[14.541452,50.062581],[14.541462,50.062564],[14.541479,50.06253],[14.540924,50.062528],[14.54093,50.062454],[14.540932,50.062414],[14.540965,50.061947],[14.541327,50.061869],[14.541333,50.061832],[14.541369,50.061629],[14.541376,50.061584],[14.541421,50.061446],[14.541433,50.061409],[14.541452,50.061355],[14.541516,50.061173],[14.541636,50.060943],[14.541769,50.06065],[14.541857,50.060457],[14.542019,50.060101],[14.542049,50.060042],[14.542085,50.059975],[14.542085,50.059974],[14.542157,50.059836],[14.542246,50.059644],[14.542257,50.059622],[14.542306,50.059517],[14.54232,50.059486],[14.542389,50.05931],[14.542395,50.059287],[14.542415,50.059212],[14.542435,50.059138],[14.54245,50.059082],[14.542462,50.059039],[14.542571,50.059034],[14.542846,50.059021],[14.543132,50.059032],[14.543457,50.059044],[14.543486,50.059045],[14.543578,50.059051],[14.544222,50.059094],[14.544378,50.059104],[14.544501,50.059112],[14.544526,50.059114],[14.544547,50.059115],[14.544689,50.059124],[14.54491,50.059139],[14.544927,50.05914],[14.545331,50.059178],[14.5454,50.059027],[14.54548,50.05885],[14.545482,50.058847],[14.545495,50.058817],[14.545514,50.058775],[14.545521,50.058762],[14.54555,50.058706],[14.545571,50.058666],[14.54564,50.058532],[14.545962,50.057968],[14.546042,50.057867],[14.546331,50.057634],[14.546734,50.057767],[14.546924,50.057823],[14.547056,50.057862],[14.547122,50.057882],[14.547373,50.057956],[14.547438,50.057975],[14.547512,50.057855],[14.547642,50.057641],[14.547753,50.057479],[14.547861,50.057322],[14.547965,50.057157],[14.547982,50.05713],[14.548031,50.057051],[14.548096,50.056946],[14.548148,50.056864],[14.548418,50.056916],[14.548661,50.056955],[14.549161,50.057035],[14.54918,50.056986],[14.549196,50.056947],[14.549453,50.057],[14.549512,50.057012],[14.549563,50.057022],[14.549621,50.057034],[14.549802,50.057071],[14.550456,50.057233],[14.550507,50.057133],[14.550511,50.057125],[14.550676,50.056804],[14.550385,50.056752],[14.549868,50.056668],[14.549857,50.056666],[14.549761,50.05665],[14.549757,50.05665],[14.549404,50.056592],[14.549413,50.056579],[14.549475,50.056486],[14.549478,50.05648],[14.549483,50.056473],[14.549484,50.056472],[14.549726,50.056109],[14.54974,50.056077],[14.549802,50.055927],[14.549627,50.055885],[14.549164,50.055774],[14.548952,50.056066],[14.54865,50.056435],[14.548395,50.056363],[14.54818,50.056294],[14.548144,50.056283],[14.547922,50.056195],[14.547842,50.056164],[14.547826,50.056157],[14.5478,50.056147],[14.547753,50.056129],[14.547731,50.05612],[14.547717,50.056114],[14.547667,50.056095],[14.547509,50.056201],[14.547451,50.05624],[14.547286,50.056375],[14.547124,50.056508],[14.5471,50.056527],[14.546928,50.056497],[14.546861,50.056494],[14.546875,50.056472],[14.546877,50.056469],[14.547319,50.055771],[14.547361,50.055705],[14.547525,50.055446],[14.547479,50.05541],[14.54734,50.055299],[14.547329,50.055291],[14.547276,50.055248],[14.547204,50.055204],[14.547164,50.055181],[14.547072,50.055141],[14.546968,50.055099],[14.546933,50.055085],[14.546629,50.054991],[14.546552,50.054974],[14.546476,50.054957],[14.546341,50.054953],[14.54591,50.054943],[14.546152,50.054568],[14.546184,50.05451],[14.546199,50.054483],[14.546201,50.05448],[14.546215,50.054455],[14.546232,50.054425],[14.546246,50.054401],[14.546117,50.054376],[14.545933,50.054342],[14.545866,50.054329],[14.545866,50.054329],[14.545752,50.054346],[14.545576,50.054376],[14.545416,50.054398],[14.545284,50.054423],[14.545125,50.054445],[14.544921,50.054473],[14.544807,50.054481],[14.544734,50.054493],[14.544633,50.054502],[14.544519,50.05451],[14.544403,50.054527],[14.544272,50.054543],[14.544245,50.054541],[14.544144,50.05455],[14.544014,50.054566],[14.543957,50.05457],[14.543684,50.054592],[14.542905,50.054614],[14.542235,50.054646],[14.541469,50.05467],[14.540944,50.054688],[14.540518,50.054705],[14.540389,50.054712],[14.539738,50.054727],[14.538713,50.054773],[14.538159,50.054797],[14.537945,50.054806],[14.537918,50.054804],[14.537765,50.05479],[14.537467,50.054737],[14.537209,50.054687],[14.536909,50.054643],[14.536642,50.054637],[14.536628,50.054636],[14.536415,50.054645],[14.536401,50.054644],[14.536387,50.054443],[14.536348,50.054231],[14.536281,50.05408],[14.536242,50.053994],[14.53608,50.053762],[14.535876,50.053527],[14.53557,50.053309],[14.535361,50.053164],[14.535093,50.053032],[14.53491,50.052961],[14.534421,50.05281],[14.534164,50.05276],[14.533768,50.052698],[14.533727,50.052694],[14.533462,50.05268],[14.533065,50.052691],[14.532939,50.052689],[14.532654,50.0527],[14.531912,50.053479],[14.531971,50.053666],[14.53233,50.053634],[14.532372,50.053837],[14.532401,50.05383],[14.532432,50.053951],[14.532618,50.05394],[14.532661,50.05447],[14.532215,50.054513],[14.532032,50.054578],[14.531629,50.054616],[14.530996,50.054678],[14.53107,50.054993],[14.531006,50.055033],[14.530939,50.055081],[14.530898,50.055141],[14.53074,50.055291],[14.530343,50.055301],[14.530058,50.055313],[14.529802,50.055327],[14.529561,50.055333],[14.529289,50.055354],[14.529044,50.055378],[14.528843,50.055397],[14.528537,50.055443],[14.528304,50.055477],[14.52807,50.05552],[14.527849,50.055564],[14.527642,50.055609],[14.527451,50.055647],[14.527213,50.055708],[14.527004,50.055762],[14.526764,50.055832],[14.526508,50.055909],[14.526267,50.055979],[14.526057,50.056042],[14.525887,50.056109],[14.52572,50.056167],[14.525582,50.056218],[14.525398,50.056293],[14.525244,50.056352],[14.525043,50.056434],[14.524872,50.05651],[14.524637,50.056625],[14.524509,50.056696],[14.524369,50.056756],[14.524242,50.056826],[14.524145,50.056881],[14.524018,50.056952],[14.523892,50.057014],[14.523747,50.057101],[14.523615,50.057189],[14.523484,50.057277],[14.523339,50.057364],[14.523172,50.057486],[14.52304,50.057574],[14.522889,50.057688],[14.522703,50.057835],[14.522531,50.057983],[14.522376,50.058115],[14.522255,50.058222],[14.522059,50.058414],[14.521869,50.058578],[14.521795,50.058663],[14.521656,50.058787],[14.521535,50.058894],[14.521392,50.059036],[14.521234,50.059185],[14.521095,50.059309],[14.520971,50.059425],[14.520834,50.05954],[14.520697,50.059655],[14.520591,50.059755],[14.520476,50.059835],[14.520372,50.059926],[14.520241,50.060014],[14.520127,50.060086],[14.51998,50.060182],[14.519846,50.060279],[14.519687,50.060365],[14.519544,50.060443],[14.5194,50.060521],[14.519273,50.060592],[14.519162,50.060646],[14.519037,50.060707],[14.518927,50.060761],[14.518803,50.060814],[14.518695,50.060859],[14.518586,50.060904],[14.518494,50.060941],[14.518403,50.060969],[14.518311,50.061007],[14.518205,50.061043],[14.518142,50.061073],[14.518051,50.061102],[14.51796,50.06113],[14.517884,50.06116],[14.517793,50.061188],[14.517732,50.06121],[14.517657,50.061231],[14.517612,50.061245],[14.51761,50.061245],[14.51762,50.061261],[14.517716,50.061414],[14.517708,50.061547],[14.517689,50.061732],[14.51764,50.061906],[14.517599,50.061976],[14.517922,50.062313],[14.518164,50.062618],[14.518361,50.062965],[14.51843,50.063349],[14.518453,50.063631],[14.518547,50.063651],[14.518637,50.063731],[14.518722,50.063808],[14.518524,50.064165],[14.518519,50.064174],[14.518384,50.064481],[14.518378,50.064494],[14.518327,50.064523],[14.518325,50.064525],[14.518319,50.064528],[14.518317,50.06453],[14.518372,50.064534],[14.518412,50.064537],[14.518426,50.064538],[14.518443,50.06454],[14.51847,50.064542],[14.518767,50.064566],[14.518876,50.064574],[14.519077,50.06459],[14.519078,50.064604],[14.519091,50.064742],[14.519091,50.06487],[14.51907,50.064991],[14.519046,50.065092],[14.519042,50.065108],[14.519012,50.065227],[14.51893,50.065481],[14.518838,50.065692],[14.518776,50.065852],[14.51877,50.065868],[14.518747,50.065928],[14.518746,50.065931],[14.51873,50.065996],[14.518688,50.066157],[14.518696,50.066158],[14.518943,50.066183],[14.518986,50.066186],[14.519068,50.066196],[14.51917,50.066207],[14.519174,50.066208],[14.519301,50.066221],[14.519608,50.066262],[14.519606,50.066526],[14.519606,50.06653],[14.519606,50.066532],[14.519606,50.066573],[14.519604,50.066603],[14.519592,50.066766],[14.51959,50.066784],[14.519586,50.066834],[14.519583,50.066878],[14.51958,50.066921],[14.51958,50.066926],[14.519616,50.066926],[14.519823,50.066928],[14.519832,50.066928],[14.51984,50.066928],[14.519936,50.066928],[14.519939,50.066928],[14.519961,50.066928],[14.520007,50.066928],[14.520062,50.066927],[14.520277,50.066922],[14.520436,50.066917],[14.520481,50.066915],[14.520667,50.066909],[14.520699,50.066909],[14.520856,50.066907],[14.520881,50.066982],[14.520881,50.066986],[14.520884,50.067003],[14.520884,50.067006],[14.520894,50.067062],[14.520892,50.067064],[14.520901,50.067107],[14.520921,50.067175],[14.520939,50.067226],[14.520946,50.067244],[14.520948,50.067248],[14.520955,50.067272],[14.520961,50.06729],[14.52097,50.067312],[14.520985,50.067374],[14.520986,50.067386],[14.520987,50.067386],[14.520997,50.067386],[14.521043,50.067385],[14.521055,50.067384],[14.521175,50.067382],[14.521199,50.067381],[14.521285,50.067356],[14.52129,50.067355],[14.52132,50.067347],[14.521501,50.067295],[14.521577,50.067278],[14.521591,50.067275],[14.52161,50.067271],[14.521614,50.06727],[14.521766,50.067237],[14.521989,50.067182],[14.522035,50.067171],[14.522215,50.067127],[14.522405,50.067079],[14.522564,50.067051],[14.522787,50.067012],[14.522798,50.06701],[14.523093,50.066957],[14.523178,50.066988],[14.523245,50.067012],[14.523238,50.067067],[14.523213,50.067271],[14.523167,50.067489],[14.523168,50.067513],[14.523172,50.067602],[14.523173,50.06762],[14.523175,50.067684],[14.523205,50.067795],[14.52321,50.067803],[14.523247,50.067929],[14.523274,50.068031],[14.523282,50.06805],[14.523296,50.0681],[14.523297,50.068102],[14.523306,50.068122],[14.523382,50.068291],[14.523417,50.068328],[14.523513,50.068582],[14.523517,50.068594],[14.523514,50.068622],[14.523499,50.068786],[14.523482,50.06896],[14.523466,50.069123],[14.523458,50.069213],[14.523465,50.0693],[14.523466,50.069306],[14.523467,50.069325],[14.523467,50.069325],[14.523472,50.069388],[14.523489,50.069592],[14.523498,50.069693],[14.523508,50.069819],[14.523509,50.069939],[14.523502,50.070167],[14.523393,50.07119],[14.523389,50.071225],[14.523382,50.071273],[14.523334,50.071615],[14.523256,50.071981],[14.523253,50.071994],[14.523184,50.07232],[14.523167,50.072386],[14.523112,50.072598],[14.523097,50.072806],[14.523094,50.072887],[14.523094,50.072889],[14.523094,50.072906],[14.523092,50.072975],[14.52309,50.073027],[14.523044,50.07327],[14.523038,50.073293],[14.523001,50.073424],[14.522977,50.073479],[14.522975,50.073483],[14.52297,50.073495],[14.522967,50.073502],[14.522951,50.073538],[14.522914,50.073624],[14.522883,50.073696],[14.522884,50.073696]]]}},{"type":"Feature","properties":{"cislo":15010,"kod":28019,"mestskaCast":"praha-15"},"geometry":{"type":"Polygon","coordinates":[[[14.546035,50.053671],[14.546035,50.053671],[14.546081,50.053586],[14.546351,50.053174],[14.546398,50.053087],[14.546186,50.053023],[14.54578,50.052879],[14.545556,50.052805],[14.545557,50.052796],[14.545681,50.052679],[14.545911,50.052455],[14.54542,50.052312],[14.544848,50.052153],[14.544313,50.052015],[14.54384,50.051919],[14.543515,50.051855],[14.543027,50.051767],[14.542702,50.051702],[14.540982,50.051453],[14.541033,50.051329],[14.541085,50.051152],[14.54093,50.051084],[14.540548,50.051023],[14.5404,50.050992],[14.540331,50.050986],[14.540303,50.050984],[14.540224,50.050959],[14.54021,50.050957],[14.540168,50.050954],[14.540156,50.050944],[14.540089,50.050929],[14.539968,50.0509],[14.539887,50.050884],[14.539794,50.050857],[14.539792,50.050866],[14.539632,50.050825],[14.539618,50.050824],[14.539358,50.050719],[14.539346,50.050709],[14.539215,50.050662],[14.539204,50.050651],[14.539087,50.050605],[14.538834,50.050601],[14.538614,50.050373],[14.538492,50.050417],[14.538305,50.0505],[14.538166,50.050561],[14.538038,50.050631],[14.537867,50.050707],[14.538134,50.050912],[14.538248,50.05104],[14.538566,50.051067],[14.538688,50.051359],[14.539277,50.051239],[14.539577,50.051219],[14.540325,50.051348],[14.540747,50.051485],[14.541889,50.052084],[14.541909,50.052522],[14.542052,50.05258],[14.542242,50.052614],[14.542136,50.052714],[14.541922,50.052795],[14.541637,50.052806],[14.541658,50.053307],[14.541982,50.053308],[14.542207,50.05331],[14.542464,50.053296],[14.542648,50.053294],[14.54282,50.053345],[14.542984,50.053369],[14.543297,50.053423],[14.543691,50.053494],[14.544304,50.053593],[14.545051,50.053704],[14.545064,50.053677],[14.545077,50.053649],[14.545142,50.053509],[14.545945,50.053655],[14.545973,50.05366],[14.546035,50.053671]]]}},{"type":"Feature","properties":{"cislo":15011,"kod":28021,"mestskaCast":"praha-15"},"geometry":{"type":"Polygon","coordinates":[[[14.548848,50.054162],[14.548857,50.05372],[14.5489,50.053587],[14.548979,50.053213],[14.549039,50.052928],[14.549048,50.052883],[14.549056,50.052848],[14.549059,50.05283],[14.549118,50.052617],[14.549233,50.052074],[14.549278,50.05186],[14.549318,50.051673],[14.549444,50.051139],[14.549589,50.050989],[14.549782,50.050806],[14.549841,50.05053],[14.549867,50.050405],[14.5499,50.050317],[14.549896,50.0496],[14.5499,50.049247],[14.549904,50.048893],[14.549916,50.048568],[14.549912,50.048522],[14.549896,50.048529],[14.54915,50.048392],[14.548933,50.048354],[14.548796,50.048333],[14.548634,50.048301],[14.548608,50.04829],[14.548095,50.049651],[14.547521,50.049637],[14.547445,50.049794],[14.547304,50.050063],[14.547085,50.050498],[14.546761,50.050433],[14.546462,50.050379],[14.546127,50.050296],[14.546301,50.049939],[14.546336,50.049842],[14.545487,50.049659],[14.545332,50.04999],[14.545116,50.05008],[14.544914,50.050035],[14.544643,50.049984],[14.544467,50.049951],[14.544222,50.049911],[14.543842,50.049842],[14.543691,50.049819],[14.543595,50.050011],[14.543591,50.050028],[14.543389,50.050383],[14.543255,50.050616],[14.543091,50.050928],[14.542948,50.051206],[14.542907,50.051266],[14.542885,50.0513],[14.542702,50.051702],[14.543027,50.051767],[14.543515,50.051855],[14.54384,50.051919],[14.544313,50.052015],[14.544848,50.052153],[14.54542,50.052312],[14.545911,50.052455],[14.545681,50.052679],[14.545557,50.052796],[14.545556,50.052805],[14.54578,50.052879],[14.546186,50.053023],[14.546398,50.053087],[14.546351,50.053174],[14.546081,50.053586],[14.546035,50.053671],[14.546035,50.053671],[14.546062,50.053676],[14.546074,50.053678],[14.546076,50.053679],[14.546121,50.053687],[14.546226,50.053706],[14.546454,50.053764],[14.546745,50.053838],[14.546901,50.053882],[14.547263,50.053986],[14.547327,50.054015],[14.547547,50.054116],[14.547634,50.054156],[14.548092,50.054382],[14.548351,50.054492],[14.548491,50.05451],[14.548846,50.054161],[14.548848,50.054162]]]}},{"type":"Feature","properties":{"cislo":15012,"kod":28023,"mestskaCast":"praha-15"},"geometry":{"type":"Polygon","coordinates":[[[14.542702,50.051702],[14.542885,50.0513],[14.542907,50.051266],[14.542948,50.051206],[14.543091,50.050928],[14.543255,50.050616],[14.543389,50.050383],[14.543591,50.050028],[14.543595,50.050011],[14.543691,50.049819],[14.543717,50.049767],[14.54374,50.049724],[14.543747,50.049688],[14.543747,50.049625],[14.543744,50.04957],[14.543723,50.049468],[14.543597,50.049466],[14.543484,50.049466],[14.543413,50.049468],[14.543287,50.049466],[14.543034,50.049462],[14.542864,50.049466],[14.542807,50.04947],[14.542637,50.049473],[14.542525,50.049472],[14.542369,50.049477],[14.542159,50.049467],[14.541881,50.049516],[14.541836,50.04953],[14.541951,50.049721],[14.541873,50.049824],[14.541297,50.049946],[14.541051,50.049978],[14.540401,50.050185],[14.540206,50.05024],[14.539869,50.050301],[14.539498,50.050323],[14.538834,50.050601],[14.539087,50.050605],[14.539204,50.050651],[14.539215,50.050662],[14.539346,50.050709],[14.539358,50.050719],[14.539618,50.050824],[14.539632,50.050825],[14.539792,50.050866],[14.539794,50.050857],[14.539887,50.050884],[14.539968,50.0509],[14.540089,50.050929],[14.540156,50.050944],[14.540168,50.050954],[14.54021,50.050957],[14.540224,50.050959],[14.540303,50.050984],[14.540331,50.050986],[14.5404,50.050992],[14.540548,50.051023],[14.54093,50.051084],[14.541085,50.051152],[14.541033,50.051329],[14.540982,50.051453],[14.542702,50.051702]]]}},{"type":"Feature","properties":{"cislo":15013,"kod":28025,"mestskaCast":"praha-15"},"geometry":{"type":"Polygon","coordinates":[[[14.543691,50.049819],[14.543842,50.049842],[14.544222,50.049911],[14.544467,50.049951],[14.544643,50.049984],[14.544914,50.050035],[14.545116,50.05008],[14.545332,50.04999],[14.545487,50.049659],[14.546336,50.049842],[14.546301,50.049939],[14.546127,50.050296],[14.546462,50.050379],[14.546761,50.050433],[14.547085,50.050498],[14.547304,50.050063],[14.547445,50.049794],[14.547521,50.049637],[14.546832,50.049495],[14.545757,50.048848],[14.54533,50.048801],[14.544326,50.048214],[14.543587,50.048513],[14.543481,50.048549],[14.54282,50.048808],[14.542531,50.04891],[14.541906,50.049064],[14.542159,50.049467],[14.542369,50.049477],[14.542525,50.049472],[14.542637,50.049473],[14.542807,50.04947],[14.542864,50.049466],[14.543034,50.049462],[14.543287,50.049466],[14.543413,50.049468],[14.543484,50.049466],[14.543597,50.049466],[14.543723,50.049468],[14.543744,50.04957],[14.543747,50.049625],[14.543747,50.049688],[14.54374,50.049724],[14.543717,50.049767],[14.543691,50.049819]]]}},{"type":"Feature","properties":{"cislo":15014,"kod":28027,"mestskaCast":"praha-15"},"geometry":{"type":"Polygon","coordinates":[[[14.547521,50.049637],[14.548095,50.049651],[14.548608,50.04829],[14.548594,50.048289],[14.548527,50.048274],[14.547759,50.048107],[14.547745,50.048105],[14.547652,50.048079],[14.54712,50.047996],[14.546726,50.047925],[14.545528,50.04773],[14.545349,50.047642],[14.545056,50.047362],[14.545036,50.047387],[14.545021,50.047395],[14.544835,50.047606],[14.544376,50.047647],[14.543238,50.048165],[14.543258,50.048266],[14.543481,50.048549],[14.543587,50.048513],[14.544326,50.048214],[14.54533,50.048801],[14.545757,50.048848],[14.546832,50.049495],[14.547521,50.049637]]]}},{"type":"Feature","properties":{"cislo":15015,"kod":28029,"mestskaCast":"praha-15"},"geometry":{"type":"Polygon","coordinates":[[[14.532654,50.0527],[14.532939,50.052689],[14.533065,50.052691],[14.533462,50.05268],[14.533727,50.052694],[14.533768,50.052698],[14.534164,50.05276],[14.534421,50.05281],[14.53491,50.052961],[14.535093,50.053032],[14.535361,50.053164],[14.53557,50.053309],[14.535876,50.053527],[14.53608,50.053762],[14.536242,50.053994],[14.536281,50.05408],[14.536348,50.054231],[14.536387,50.054443],[14.536401,50.054644],[14.536415,50.054645],[14.536628,50.054636],[14.536642,50.054637],[14.536909,50.054643],[14.537209,50.054687],[14.537467,50.054737],[14.537765,50.05479],[14.537918,50.054804],[14.537945,50.054806],[14.538159,50.054797],[14.538713,50.054773],[14.539738,50.054727],[14.540389,50.054712],[14.540518,50.054705],[14.540944,50.054688],[14.541469,50.05467],[14.542235,50.054646],[14.542905,50.054614],[14.543684,50.054592],[14.543957,50.05457],[14.544014,50.054566],[14.544144,50.05455],[14.544245,50.054541],[14.544272,50.054543],[14.544403,50.054527],[14.544519,50.05451],[14.544633,50.054502],[14.544734,50.054493],[14.544807,50.054481],[14.544921,50.054473],[14.545125,50.054445],[14.545284,50.054423],[14.545416,50.054398],[14.545576,50.054376],[14.545752,50.054346],[14.545866,50.054329],[14.545866,50.054329],[14.54576,50.05431],[14.545602,50.05428],[14.545586,50.054277],[14.544892,50.054147],[14.544861,50.054136],[14.544868,50.054118],[14.544915,50.053996],[14.544925,50.053972],[14.544942,50.053935],[14.545031,50.053747],[14.545032,50.053745],[14.545051,50.053704],[14.544304,50.053593],[14.543691,50.053494],[14.543297,50.053423],[14.542984,50.053369],[14.54282,50.053345],[14.542648,50.053294],[14.542464,50.053296],[14.542207,50.05331],[14.541982,50.053308],[14.541658,50.053307],[14.541637,50.052806],[14.541922,50.052795],[14.542136,50.052714],[14.542242,50.052614],[14.542052,50.05258],[14.541909,50.052522],[14.541889,50.052084],[14.540747,50.051485],[14.540325,50.051348],[14.539577,50.051219],[14.539277,50.051239],[14.538688,50.051359],[14.538566,50.051067],[14.538248,50.05104],[14.538134,50.050912],[14.537867,50.050707],[14.538038,50.050631],[14.538166,50.050561],[14.538305,50.0505],[14.538492,50.050417],[14.538614,50.050373],[14.538834,50.050601],[14.539498,50.050323],[14.539869,50.050301],[14.540206,50.05024],[14.540401,50.050185],[14.541051,50.049978],[14.541297,50.049946],[14.541873,50.049824],[14.541951,50.049721],[14.541836,50.04953],[14.541881,50.049516],[14.542159,50.049467],[14.541906,50.049064],[14.542531,50.04891],[14.54282,50.048808],[14.543481,50.048549],[14.543258,50.048266],[14.543238,50.048165],[14.544376,50.047647],[14.544835,50.047606],[14.545021,50.047395],[14.545036,50.047387],[14.545056,50.047362],[14.545244,50.047206],[14.545496,50.04701],[14.545582,50.046936],[14.545598,50.046928],[14.545719,50.046821],[14.545843,50.046705],[14.545931,50.046622],[14.546125,50.046367],[14.546249,50.046114],[14.546368,50.045816],[14.546392,50.045773],[14.546462,50.045507],[14.546579,50.045154],[14.546642,50.044987],[14.546628,50.044986],[14.546725,50.044858],[14.546878,50.044672],[14.546879,50.044663],[14.547227,50.044149],[14.547266,50.044098],[14.54733,50.043995],[14.547435,50.043832],[14.54746,50.043779],[14.547563,50.043625],[14.547658,50.043443],[14.547674,50.043435],[14.547791,50.043146],[14.547811,50.04312],[14.547833,50.043014],[14.547856,50.042907],[14.547911,50.042712],[14.547964,50.042526],[14.547995,50.042383],[14.548027,50.042296],[14.548235,50.042314],[14.548734,50.041885],[14.548659,50.041507],[14.548915,50.041493],[14.54926,50.04146],[14.549529,50.040186],[14.549998,50.039029],[14.550192,50.03871],[14.550779,50.038135],[14.550779,50.038132],[14.550777,50.03813],[14.550813,50.038092],[14.550788,50.037983],[14.550837,50.037916],[14.550767,50.037835],[14.550557,50.037709],[14.550333,50.037514],[14.550272,50.03741],[14.550179,50.037356],[14.550139,50.037289],[14.550129,50.037273],[14.550095,50.037266],[14.549737,50.03719],[14.549686,50.036979],[14.549363,50.036787],[14.548983,50.036619],[14.548957,50.036581],[14.548846,50.036423],[14.548655,50.036296],[14.548602,50.036286],[14.548428,50.036255],[14.548026,50.036318],[14.547793,50.036332],[14.547546,50.036054],[14.547536,50.035921],[14.547396,50.035827],[14.547179,50.035787],[14.54698,50.035834],[14.546613,50.035955],[14.546552,50.035893],[14.546187,50.035979],[14.545887,50.036127],[14.545847,50.036147],[14.545787,50.036175],[14.545689,50.036218],[14.545546,50.036267],[14.54535,50.036316],[14.545045,50.036388],[14.545014,50.036396],[14.544955,50.036409],[14.544552,50.036488],[14.544027,50.036374],[14.543676,50.036236],[14.543553,50.036188],[14.543495,50.036384],[14.543449,50.036538],[14.543406,50.036688],[14.543422,50.03677],[14.543432,50.036819],[14.543443,50.036877],[14.543481,50.037073],[14.543484,50.03711],[14.543488,50.037155],[14.543496,50.037248],[14.543581,50.037523],[14.543621,50.037696],[14.543654,50.037842],[14.543603,50.037965],[14.543572,50.038037],[14.5434,50.038067],[14.543274,50.038078],[14.54326,50.03808],[14.543252,50.03808],[14.54283,50.038117],[14.542282,50.038164],[14.54202,50.038174],[14.541922,50.038169],[14.54192,50.038169],[14.541571,50.038154],[14.541364,50.038176],[14.540933,50.038265],[14.540559,50.038318],[14.540419,50.038316],[14.540277,50.038292],[14.54014,50.038257],[14.540061,50.038181],[14.539877,50.038132],[14.539595,50.038202],[14.539461,50.038295],[14.539422,50.038366],[14.539443,50.03859],[14.5391,50.038791],[14.538956,50.038898],[14.538876,50.038971],[14.538821,50.039042],[14.538792,50.039096],[14.538786,50.039156],[14.538815,50.039279],[14.538868,50.039659],[14.538861,50.039818],[14.538841,50.039914],[14.538765,50.040013],[14.538483,50.040009],[14.538119,50.040061],[14.538065,50.040069],[14.538058,50.04007],[14.537848,50.0401],[14.537833,50.0401],[14.537751,50.040104],[14.537697,50.040106],[14.537375,50.040092],[14.537263,50.040088],[14.537047,50.040072],[14.536761,50.040052],[14.536641,50.040032],[14.536623,50.039947],[14.536571,50.039936],[14.535688,50.039754],[14.535604,50.039746],[14.535299,50.039834],[14.535108,50.039785],[14.535207,50.039617],[14.534671,50.03955],[14.534749,50.039738],[14.534432,50.039727],[14.534236,50.039732],[14.534073,50.039722],[14.534045,50.039716],[14.533868,50.039677],[14.533588,50.039613],[14.533514,50.039596],[14.533249,50.039504],[14.533123,50.03946],[14.532989,50.039414],[14.532959,50.039403],[14.532827,50.039357],[14.532853,50.039278],[14.532863,50.039247],[14.532883,50.039173],[14.532851,50.039057],[14.532828,50.039024],[14.532809,50.038996],[14.532642,50.038754],[14.532193,50.038537],[14.531809,50.038389],[14.531498,50.038375],[14.531295,50.038365],[14.530851,50.038231],[14.530672,50.038177],[14.530464,50.038157],[14.530464,50.038157],[14.530113,50.038123],[14.530026,50.038115],[14.529983,50.038111],[14.529966,50.038109],[14.529943,50.038107],[14.52986,50.0381],[14.529823,50.038161],[14.529817,50.03817],[14.529787,50.038219],[14.529493,50.038144],[14.529152,50.038008],[14.528974,50.037937],[14.528915,50.037936],[14.528437,50.037926],[14.527614,50.037823],[14.527059,50.037727],[14.52692,50.037671],[14.526548,50.037535],[14.526045,50.037394],[14.525991,50.037379],[14.525844,50.037338],[14.525775,50.037318],[14.525611,50.037272],[14.525545,50.037414],[14.525544,50.037416],[14.525532,50.037443],[14.525517,50.037475],[14.525434,50.037464],[14.525434,50.037464],[14.5254,50.037459],[14.525362,50.037453],[14.525303,50.037445],[14.524369,50.037332],[14.523823,50.03732],[14.523611,50.037326],[14.5236,50.037327],[14.523538,50.037349],[14.523393,50.037409],[14.523132,50.037516],[14.522988,50.037573],[14.522867,50.037621],[14.522797,50.037649],[14.522202,50.03788],[14.521671,50.038075],[14.521643,50.038085],[14.521364,50.038204],[14.521165,50.038282],[14.521163,50.038283],[14.520952,50.038366],[14.520845,50.038404],[14.52053,50.038513],[14.520087,50.038653],[14.520033,50.03867],[14.519721,50.038768],[14.519592,50.038801],[14.519447,50.038838],[14.519274,50.038882],[14.519104,50.038925],[14.518802,50.039001],[14.518752,50.039018],[14.518696,50.039038],[14.518683,50.039042],[14.518654,50.039052],[14.518645,50.039055],[14.518643,50.039056],[14.518644,50.039058],[14.518438,50.039366],[14.518315,50.039483],[14.518071,50.03977],[14.517825,50.040066],[14.517851,50.040141],[14.518107,50.040263],[14.517738,50.040612],[14.517928,50.04071],[14.518149,50.040866],[14.518248,50.040929],[14.518578,50.041103],[14.518651,50.041155],[14.518751,50.041281],[14.518765,50.041283],[14.518973,50.0415],[14.518997,50.041521],[14.519068,50.041581],[14.519251,50.041715],[14.519289,50.041737],[14.519615,50.041929],[14.519817,50.042037],[14.51997,50.042114],[14.520022,50.042137],[14.520152,50.042185],[14.520204,50.042207],[14.520372,50.042277],[14.520672,50.042394],[14.520896,50.042468],[14.520921,50.042479],[14.521145,50.042553],[14.521306,50.042594],[14.521345,50.042607],[14.521507,50.042639],[14.521682,50.042682],[14.521804,50.042702],[14.521885,50.042718],[14.521925,50.042731],[14.521978,50.042744],[14.522018,50.042757],[14.52206,50.04276],[14.522139,50.042786],[14.522178,50.042798],[14.522283,50.042835],[14.52239,50.042862],[14.522402,50.042872],[14.522442,50.042885],[14.522612,50.042945],[14.522652,50.042958],[14.52282,50.043027],[14.522874,50.043041],[14.522995,50.043133],[14.523129,50.043235],[14.523141,50.043246],[14.523298,50.043368],[14.523433,50.043462],[14.523614,50.043605],[14.523725,50.043678],[14.523876,50.043764],[14.524015,50.043839],[14.524027,50.04385],[14.524168,50.043916],[14.524268,50.04398],[14.524331,50.044012],[14.524432,50.044067],[14.524506,50.044118],[14.524571,50.044142],[14.524621,50.044174],[14.524843,50.044257],[14.524972,50.044314],[14.525025,50.044327],[14.52517,50.044376],[14.525154,50.044384],[14.525094,50.044469],[14.525037,50.044537],[14.525035,50.044546],[14.52502,50.044554],[14.525223,50.04459],[14.525403,50.044605],[14.525581,50.04463],[14.525716,50.04466],[14.525852,50.044681],[14.52607,50.044718],[14.526236,50.044733],[14.526398,50.044765],[14.526525,50.044767],[14.526684,50.044745],[14.526899,50.044728],[14.527071,50.044715],[14.527276,50.044679],[14.527479,50.044651],[14.527678,50.044642],[14.52785,50.044629],[14.527992,50.044624],[14.528184,50.04465],[14.528507,50.044723],[14.528655,50.044755],[14.528772,50.044801],[14.528792,50.044839],[14.528808,50.044895],[14.528803,50.044985],[14.528784,50.04521],[14.528769,50.045282],[14.528686,50.045474],[14.528636,50.045642],[14.52863,50.045805],[14.528625,50.045832],[14.528593,50.046047],[14.528582,50.0461],[14.528676,50.04619],[14.52896,50.046378],[14.528982,50.046407],[14.529122,50.046547],[14.529303,50.046554],[14.529557,50.046422],[14.529875,50.04625],[14.529969,50.046204],[14.530085,50.046187],[14.530306,50.046342],[14.530366,50.046393],[14.530469,50.046438],[14.53076,50.046527],[14.531035,50.04656],[14.53132,50.046612],[14.531595,50.046709],[14.531607,50.046719],[14.53185,50.04684],[14.531913,50.046873],[14.531928,50.047001],[14.531996,50.047016],[14.532049,50.04703],[14.532103,50.047108],[14.532378,50.047141],[14.532533,50.047073],[14.53259,50.047069],[14.532814,50.047079],[14.532855,50.047083],[14.532992,50.047167],[14.533106,50.047232],[14.533131,50.047243],[14.533262,50.047291],[14.533292,50.047348],[14.533287,50.047375],[14.533352,50.047535],[14.5334,50.047639],[14.533362,50.047753],[14.533028,50.047797],[14.532928,50.047806],[14.532831,50.047797],[14.532588,50.047812],[14.532554,50.047909],[14.532559,50.048019],[14.532545,50.048217],[14.532649,50.048326],[14.532862,50.048317],[14.532974,50.048255],[14.533118,50.04824],[14.533142,50.04826],[14.533097,50.048338],[14.533022,50.048495],[14.532898,50.048747],[14.532857,50.048807],[14.532669,50.048963],[14.532318,50.049023],[14.53203,50.049188],[14.531736,50.049244],[14.531459,50.049419],[14.531339,50.049654],[14.531225,50.049862],[14.531113,50.050061],[14.531066,50.050147],[14.531015,50.050188],[14.530928,50.050199],[14.530899,50.050205],[14.530897,50.050214],[14.530901,50.05026],[14.530652,50.050438],[14.530621,50.050453],[14.530523,50.050517],[14.530476,50.05054],[14.530456,50.050566],[14.530399,50.05057],[14.530385,50.050568],[14.53023,50.050637],[14.530781,50.05103],[14.531155,50.051126],[14.531262,50.051153],[14.531492,50.051201],[14.531417,50.051421],[14.531424,50.051522],[14.531411,50.051647],[14.531465,50.051861],[14.531499,50.0521],[14.531228,50.052112],[14.530999,50.052129],[14.530725,50.052159],[14.530625,50.052168],[14.53066,50.052335],[14.530692,50.052383],[14.530714,50.052412],[14.530825,50.052485],[14.530887,50.052527],[14.530974,50.05258],[14.53106,50.052642],[14.531147,50.052695],[14.531213,50.052719],[14.531264,50.052742],[14.531318,50.052755],[14.531387,50.052761],[14.531502,50.052753],[14.531673,50.052741],[14.531829,50.052737],[14.531958,50.05273],[14.532285,50.052713],[14.532654,50.0527]]]}},{"type":"Feature","properties":{"cislo":15016,"kod":28031,"mestskaCast":"praha-15"},"geometry":{"type":"Polygon","coordinates":[[[14.530625,50.052168],[14.530725,50.052159],[14.530999,50.052129],[14.531228,50.052112],[14.531499,50.0521],[14.531465,50.051861],[14.531411,50.051647],[14.531424,50.051522],[14.531417,50.051421],[14.531492,50.051201],[14.531262,50.051153],[14.531155,50.051126],[14.530781,50.05103],[14.53023,50.050637],[14.530385,50.050568],[14.530399,50.05057],[14.530456,50.050566],[14.530476,50.05054],[14.530523,50.050517],[14.530621,50.050453],[14.530652,50.050438],[14.530901,50.05026],[14.530897,50.050214],[14.530899,50.050205],[14.530928,50.050199],[14.531015,50.050188],[14.531066,50.050147],[14.531113,50.050061],[14.531225,50.049862],[14.531339,50.049654],[14.531459,50.049419],[14.531736,50.049244],[14.53203,50.049188],[14.532318,50.049023],[14.532669,50.048963],[14.532857,50.048807],[14.532898,50.048747],[14.533022,50.048495],[14.533097,50.048338],[14.533142,50.04826],[14.533118,50.04824],[14.532974,50.048255],[14.532862,50.048317],[14.532649,50.048326],[14.532545,50.048217],[14.532559,50.048019],[14.532554,50.047909],[14.532588,50.047812],[14.532831,50.047797],[14.532928,50.047806],[14.533028,50.047797],[14.533362,50.047753],[14.5334,50.047639],[14.533352,50.047535],[14.533287,50.047375],[14.533292,50.047348],[14.533262,50.047291],[14.533131,50.047243],[14.533106,50.047232],[14.532992,50.047167],[14.532855,50.047083],[14.532814,50.047079],[14.53259,50.047069],[14.532533,50.047073],[14.532378,50.047141],[14.532103,50.047108],[14.532049,50.04703],[14.531996,50.047016],[14.531928,50.047001],[14.531913,50.046873],[14.53185,50.04684],[14.531607,50.046719],[14.531595,50.046709],[14.53132,50.046612],[14.531035,50.04656],[14.53076,50.046527],[14.530469,50.046438],[14.530366,50.046393],[14.530306,50.046342],[14.530085,50.046187],[14.529969,50.046204],[14.529875,50.04625],[14.529557,50.046422],[14.529303,50.046554],[14.529122,50.046547],[14.528982,50.046407],[14.52896,50.046378],[14.528676,50.04619],[14.528582,50.0461],[14.528593,50.046047],[14.528625,50.045832],[14.52863,50.045805],[14.528636,50.045642],[14.528686,50.045474],[14.528769,50.045282],[14.528784,50.04521],[14.528803,50.044985],[14.528808,50.044895],[14.528792,50.044839],[14.528772,50.044801],[14.528655,50.044755],[14.528507,50.044723],[14.528184,50.04465],[14.527992,50.044624],[14.52785,50.044629],[14.527678,50.044642],[14.527479,50.044651],[14.527276,50.044679],[14.527071,50.044715],[14.526899,50.044728],[14.526684,50.044745],[14.526525,50.044767],[14.526398,50.044765],[14.526236,50.044733],[14.52607,50.044718],[14.525852,50.044681],[14.525716,50.04466],[14.525581,50.04463],[14.525403,50.044605],[14.525223,50.04459],[14.52502,50.044554],[14.525018,50.044563],[14.524957,50.044648],[14.524917,50.044708],[14.524912,50.044798],[14.524954,50.044866],[14.524968,50.044867],[14.525117,50.044961],[14.525129,50.044972],[14.525246,50.045018],[14.525342,50.045027],[14.525579,50.045038],[14.525692,50.045039],[14.52572,50.045042],[14.525925,50.045069],[14.526005,50.045094],[14.526054,50.045125],[14.52615,50.045206],[14.526162,50.045216],[14.526178,50.045272],[14.526173,50.045299],[14.526171,50.045372],[14.526178,50.045472],[14.526197,50.045583],[14.526251,50.04566],[14.526249,50.045669],[14.526307,50.045728],[14.526341,50.045768],[14.526381,50.04578],[14.526498,50.045827],[14.526524,50.045838],[14.526664,50.045905],[14.526792,50.04597],[14.526956,50.046057],[14.527069,50.046122],[14.527119,50.046153],[14.527244,50.046228],[14.527306,50.04627],[14.527037,50.046609],[14.526812,50.047007],[14.52669,50.04725],[14.525126,50.047049],[14.524489,50.04693],[14.524068,50.046857],[14.524041,50.046918],[14.523985,50.047249],[14.523968,50.047529],[14.52396,50.047564],[14.523923,50.047606],[14.52388,50.047612],[14.523741,50.047599],[14.523204,50.047543],[14.523276,50.047268],[14.522114,50.047166],[14.522104,50.047211],[14.521522,50.047232],[14.521192,50.047194],[14.520488,50.047123],[14.520468,50.047285],[14.519612,50.047201],[14.519533,50.047176],[14.519351,50.047105],[14.518593,50.047021],[14.518566,50.047018],[14.518469,50.04701],[14.518454,50.047081],[14.51834,50.047552],[14.51752,50.048433],[14.516212,50.050151],[14.516156,50.050282],[14.516171,50.050275],[14.516173,50.050266],[14.516469,50.050264],[14.516876,50.050273],[14.516904,50.050275],[14.517224,50.050294],[14.517422,50.050357],[14.517598,50.050391],[14.517788,50.050426],[14.518142,50.05042],[14.518464,50.050494],[14.51853,50.050518],[14.51865,50.050483],[14.518862,50.050411],[14.518957,50.050428],[14.519039,50.050508],[14.519038,50.050581],[14.519034,50.050598],[14.518838,50.050726],[14.518805,50.05095],[14.518824,50.050925],[14.51902,50.050996],[14.51909,50.051002],[14.51941,50.051022],[14.519661,50.051034],[14.519704,50.051029],[14.520124,50.050975],[14.520213,50.050956],[14.520426,50.050947],[14.520539,50.050948],[14.520582,50.050943],[14.520635,50.050957],[14.520663,50.050959],[14.520677,50.05096],[14.520675,50.050969],[14.520657,50.050986],[14.52065,50.051021],[14.520678,50.051087],[14.520677,50.05116],[14.520632,50.051238],[14.520628,50.051255],[14.520629,50.051319],[14.520628,50.051392],[14.520625,50.051473],[14.520612,50.051535],[14.52061,50.051608],[14.520627,50.051664],[14.520663,50.051758],[14.520737,50.051809],[14.520774,50.051831],[14.520773,50.051903],[14.520758,50.051975],[14.520768,50.051994],[14.520791,50.052086],[14.520825,50.052189],[14.520828,50.052244],[14.520838,50.052263],[14.520844,50.0523],[14.520967,50.05232],[14.520995,50.052322],[14.521093,50.052322],[14.521218,50.052333],[14.521317,50.052332],[14.521356,50.052345],[14.52152,50.052368],[14.521643,50.052388],[14.52178,50.052409],[14.521959,50.052425],[14.522167,50.052443],[14.522319,50.052456],[14.522539,50.052485],[14.522573,50.052388],[14.522604,50.052309],[14.522666,50.052215],[14.52273,50.052111],[14.522798,50.05199],[14.522882,50.051862],[14.522956,50.051777],[14.523009,50.051727],[14.522994,50.051599],[14.522767,50.05147],[14.523208,50.051255],[14.523867,50.051004],[14.52442,50.050853],[14.524816,50.050779],[14.525051,50.050736],[14.525244,50.050689],[14.525404,50.050667],[14.525524,50.050632],[14.52566,50.05059],[14.525768,50.050545],[14.525848,50.050497],[14.525944,50.050442],[14.526238,50.050586],[14.526517,50.050801],[14.526352,50.050914],[14.525997,50.051191],[14.526113,50.051246],[14.526325,50.051374],[14.526579,50.051505],[14.526832,50.051645],[14.527022,50.051744],[14.52725,50.051863],[14.527503,50.052004],[14.527744,50.052061],[14.527772,50.052063],[14.528235,50.05214],[14.528723,50.052229],[14.529145,50.052302],[14.52924,50.052319],[14.529475,50.05234],[14.529765,50.052302],[14.530157,50.052245],[14.530494,50.052184],[14.530625,50.052168]]]}},{"type":"Feature","properties":{"cislo":15017,"kod":28033,"mestskaCast":"praha-15"},"geometry":{"type":"Polygon","coordinates":[[[14.518593,50.047021],[14.519351,50.047105],[14.519533,50.047176],[14.519612,50.047201],[14.520468,50.047285],[14.520488,50.047123],[14.521192,50.047194],[14.521522,50.047232],[14.522104,50.047211],[14.522114,50.047166],[14.523276,50.047268],[14.523204,50.047543],[14.523741,50.047599],[14.52388,50.047612],[14.523923,50.047606],[14.52396,50.047564],[14.523968,50.047529],[14.523985,50.047249],[14.524041,50.046918],[14.524068,50.046857],[14.524489,50.04693],[14.525126,50.047049],[14.52669,50.04725],[14.526812,50.047007],[14.527037,50.046609],[14.527306,50.04627],[14.527244,50.046228],[14.527119,50.046153],[14.527069,50.046122],[14.526956,50.046057],[14.526792,50.04597],[14.526664,50.045905],[14.526524,50.045838],[14.526498,50.045827],[14.526381,50.04578],[14.526341,50.045768],[14.526307,50.045728],[14.526249,50.045669],[14.526251,50.04566],[14.526197,50.045583],[14.526178,50.045472],[14.526171,50.045372],[14.526173,50.045299],[14.526178,50.045272],[14.526162,50.045216],[14.52615,50.045206],[14.526054,50.045125],[14.526005,50.045094],[14.525925,50.045069],[14.52572,50.045042],[14.525692,50.045039],[14.525579,50.045038],[14.525342,50.045027],[14.525246,50.045018],[14.525129,50.044972],[14.525117,50.044961],[14.524968,50.044867],[14.524954,50.044866],[14.524912,50.044798],[14.524917,50.044708],[14.524957,50.044648],[14.525018,50.044563],[14.52502,50.044554],[14.525035,50.044546],[14.525037,50.044537],[14.525094,50.044469],[14.525154,50.044384],[14.52517,50.044376],[14.525025,50.044327],[14.524972,50.044314],[14.524843,50.044257],[14.524621,50.044174],[14.524571,50.044142],[14.524506,50.044118],[14.524432,50.044067],[14.524331,50.044012],[14.524268,50.04398],[14.524168,50.043916],[14.524027,50.04385],[14.524015,50.043839],[14.523876,50.043764],[14.523725,50.043678],[14.523614,50.043605],[14.523433,50.043462],[14.523298,50.043368],[14.523141,50.043246],[14.523129,50.043235],[14.522995,50.043133],[14.522874,50.043041],[14.52282,50.043027],[14.522652,50.042958],[14.522612,50.042945],[14.522442,50.042885],[14.522402,50.042872],[14.52239,50.042862],[14.522283,50.042835],[14.522178,50.042798],[14.522139,50.042786],[14.52206,50.04276],[14.522018,50.042757],[14.521978,50.042744],[14.521925,50.042731],[14.521885,50.042718],[14.521728,50.042931],[14.521225,50.043576],[14.521145,50.043687],[14.521137,50.043723],[14.521103,50.04382],[14.521089,50.043882],[14.52107,50.043908],[14.520973,50.043899],[14.520827,50.043859],[14.520734,50.043833],[14.520621,50.044032],[14.520585,50.044201],[14.520232,50.044805],[14.519774,50.045573],[14.519628,50.04546],[14.519557,50.045399],[14.519497,50.045349],[14.519437,50.045298],[14.519313,50.045151],[14.519187,50.045013],[14.519142,50.044964],[14.519077,50.044867],[14.518473,50.044996],[14.5177,50.045118],[14.517305,50.04512],[14.516823,50.045132],[14.516709,50.045603],[14.517247,50.045659],[14.517824,50.045864],[14.517822,50.045873],[14.517905,50.045944],[14.517975,50.046014],[14.518063,50.04613],[14.518127,50.046227],[14.518195,50.046305],[14.518207,50.046315],[14.518297,50.046359],[14.518405,50.046378],[14.518528,50.046398],[14.518694,50.046412],[14.518749,50.046417],[14.518687,50.046711],[14.518593,50.047021]]]}},{"type":"Feature","properties":{"cislo":15018,"kod":28035,"mestskaCast":"praha-15"},"geometry":{"type":"Polygon","coordinates":[[[14.502272,50.045106],[14.502453,50.045177],[14.502495,50.045193],[14.502613,50.045233],[14.502885,50.04532],[14.503326,50.045449],[14.504034,50.045638],[14.50419,50.045677],[14.504304,50.045706],[14.504542,50.045769],[14.504821,50.045844],[14.505008,50.045894],[14.505249,50.045956],[14.50541,50.045992],[14.505584,50.046031],[14.505692,50.046054],[14.506063,50.04613],[14.506193,50.046158],[14.506121,50.046347],[14.506096,50.046444],[14.506039,50.046691],[14.505972,50.047027],[14.505916,50.047296],[14.505857,50.047542],[14.50582,50.047688],[14.505769,50.047806],[14.505709,50.047976],[14.505641,50.048132],[14.505946,50.048231],[14.506282,50.048331],[14.506536,50.048398],[14.506863,50.048461],[14.507055,50.048489],[14.507276,50.048516],[14.507536,50.048548],[14.507525,50.048741],[14.507508,50.048857],[14.507498,50.048894],[14.507467,50.048998],[14.507439,50.049107],[14.507417,50.04925],[14.507389,50.049602],[14.507368,50.049738],[14.507363,50.049765],[14.507394,50.049808],[14.50742,50.049846],[14.507377,50.050093],[14.507319,50.050345],[14.507266,50.050507],[14.507336,50.050555],[14.507397,50.050541],[14.507455,50.050519],[14.507538,50.050519],[14.507739,50.050569],[14.508079,50.05056],[14.508165,50.050571],[14.508328,50.050607],[14.508357,50.050635],[14.508424,50.050637],[14.508871,50.050536],[14.508938,50.050543],[14.50942,50.050546],[14.509469,50.050599],[14.509408,50.050863],[14.509437,50.050965],[14.509466,50.050986],[14.50968,50.051029],[14.509802,50.050995],[14.509811,50.05098],[14.509897,50.050828],[14.509903,50.050767],[14.509948,50.050708],[14.510036,50.050603],[14.510196,50.050512],[14.510607,50.050444],[14.510718,50.050423],[14.510784,50.050365],[14.510942,50.050339],[14.511029,50.050348],[14.511302,50.050397],[14.511328,50.050313],[14.51145,50.050271],[14.51171,50.050263],[14.512023,50.050323],[14.512156,50.050347],[14.512238,50.050342],[14.512379,50.050208],[14.512496,50.050092],[14.512634,50.049987],[14.512648,50.049982],[14.512831,50.049809],[14.512971,50.049749],[14.513268,50.049611],[14.513621,50.049406],[14.513757,50.049364],[14.513836,50.049325],[14.51396,50.049273],[14.514097,50.049221],[14.514253,50.049153],[14.514408,50.049085],[14.514549,50.049016],[14.514689,50.048956],[14.514768,50.048917],[14.514848,50.04887],[14.514992,50.048792],[14.515062,50.048725],[14.515115,50.048675],[14.515185,50.048609],[14.515187,50.0486],[14.515279,50.048499],[14.515296,50.048483],[14.515382,50.048345],[14.515442,50.04826],[14.515452,50.048215],[14.51551,50.048075],[14.515552,50.047942],[14.515592,50.047819],[14.515636,50.047678],[14.515674,50.047563],[14.515736,50.047405],[14.515772,50.047299],[14.515801,50.047229],[14.515801,50.047166],[14.515833,50.047078],[14.515883,50.04691],[14.515916,50.046822],[14.51592,50.046804],[14.515917,50.046749],[14.51591,50.046649],[14.515912,50.04664],[14.515967,50.046581],[14.516077,50.046528],[14.516185,50.046483],[14.516213,50.046485],[14.51646,50.046516],[14.516667,50.046534],[14.517025,50.046575],[14.517798,50.046651],[14.51784,50.046519],[14.517866,50.046394],[14.517905,50.04628],[14.517932,50.046219],[14.517784,50.046051],[14.517236,50.045776],[14.515997,50.04564],[14.516104,50.045133],[14.514381,50.045154],[14.512521,50.044954],[14.512531,50.044837],[14.512685,50.043979],[14.512734,50.043811],[14.512945,50.043548],[14.513466,50.043485],[14.513985,50.043431],[14.514109,50.043242],[14.51419,50.043195],[14.514261,50.043192],[14.514395,50.043158],[14.514625,50.043133],[14.515277,50.042918],[14.515449,50.04297],[14.515661,50.043034],[14.515819,50.043084],[14.516205,50.04319],[14.516431,50.043256],[14.51671,50.043335],[14.517081,50.043449],[14.517108,50.043451],[14.51741,50.043559],[14.517489,50.043584],[14.517786,50.04371],[14.517812,50.043722],[14.518003,50.04382],[14.518126,50.043903],[14.518335,50.044049],[14.518478,50.04417],[14.518606,50.044299],[14.51871,50.044408],[14.51881,50.044535],[14.518854,50.044593],[14.518955,50.044711],[14.518977,50.04474],[14.519077,50.044867],[14.519142,50.044964],[14.519187,50.045013],[14.519313,50.045151],[14.519437,50.045298],[14.519497,50.045349],[14.519557,50.045399],[14.519628,50.04546],[14.519774,50.045573],[14.520232,50.044805],[14.520585,50.044201],[14.520621,50.044032],[14.520734,50.043833],[14.520827,50.043859],[14.520973,50.043899],[14.52107,50.043908],[14.521089,50.043882],[14.521103,50.04382],[14.521137,50.043723],[14.521145,50.043687],[14.521225,50.043576],[14.521728,50.042931],[14.521885,50.042718],[14.521804,50.042702],[14.521682,50.042682],[14.521507,50.042639],[14.521345,50.042607],[14.521306,50.042594],[14.521145,50.042553],[14.520921,50.042479],[14.520896,50.042468],[14.520672,50.042394],[14.520372,50.042277],[14.520204,50.042207],[14.520152,50.042185],[14.520022,50.042137],[14.51997,50.042114],[14.519817,50.042037],[14.519615,50.041929],[14.519289,50.041737],[14.519251,50.041715],[14.519068,50.041581],[14.518997,50.041521],[14.518973,50.0415],[14.518765,50.041283],[14.518751,50.041281],[14.518651,50.041155],[14.518578,50.041103],[14.518248,50.040929],[14.518149,50.040866],[14.517928,50.04071],[14.517738,50.040612],[14.518107,50.040263],[14.517851,50.040141],[14.517825,50.040066],[14.518071,50.03977],[14.518315,50.039483],[14.518438,50.039366],[14.518644,50.039058],[14.518643,50.039056],[14.518026,50.039166],[14.517617,50.039241],[14.517072,50.039339],[14.51704,50.039322],[14.51661,50.039404],[14.516525,50.039421],[14.5165,50.039425],[14.516396,50.039434],[14.515997,50.039467],[14.515984,50.039461],[14.515975,50.039457],[14.515919,50.039433],[14.515587,50.039458],[14.515304,50.039479],[14.514917,50.039506],[14.514605,50.039525],[14.514467,50.039533],[14.51446,50.039534],[14.514377,50.039559],[14.513923,50.039791],[14.513349,50.040069],[14.513189,50.04014],[14.512918,50.040262],[14.512735,50.040365],[14.512508,50.040486],[14.512218,50.040609],[14.512161,50.040634],[14.512051,50.040648],[14.511916,50.040642],[14.511732,50.040604],[14.511679,50.040591],[14.51146,50.040539],[14.511374,50.040529],[14.511359,50.040531],[14.511354,50.040532],[14.511315,50.040538],[14.511254,50.04057],[14.5112,50.040599],[14.511283,50.040689],[14.511612,50.041039],[14.51186,50.041309],[14.512047,50.041497],[14.512259,50.041684],[14.512485,50.041849],[14.512731,50.042018],[14.512944,50.04213],[14.513265,50.042279],[14.513417,50.042347],[14.513455,50.042364],[14.513508,50.042387],[14.513515,50.042429],[14.513518,50.042448],[14.513515,50.042454],[14.5135,50.042495],[14.513497,50.042503],[14.513183,50.042862],[14.512978,50.043096],[14.512803,50.043337],[14.512636,50.043582],[14.512513,50.043842],[14.512411,50.044105],[14.512388,50.044201],[14.51232,50.044509],[14.512274,50.044648],[14.512259,50.04486],[14.512275,50.0451],[14.512292,50.04525],[14.512307,50.045355],[14.512363,50.045571],[14.512251,50.045558],[14.510711,50.045376],[14.507953,50.045061],[14.505209,50.044745],[14.502644,50.044455],[14.502491,50.044736],[14.502268,50.045105],[14.502272,50.045106]]]}},{"type":"Feature","properties":{"cislo":15019,"kod":28037,"mestskaCast":"praha-15"},"geometry":{"type":"Polygon","coordinates":[[[14.514304,50.050269],[14.514448,50.050402],[14.514607,50.050555],[14.514717,50.050812],[14.514878,50.050953],[14.514955,50.050995],[14.515132,50.051032],[14.515284,50.051049],[14.515543,50.051001],[14.51557,50.051054],[14.51557,50.051056],[14.515628,50.051044],[14.515819,50.051006],[14.515983,50.050966],[14.516099,50.050949],[14.516185,50.050875],[14.516256,50.050808],[14.516351,50.05069],[14.516365,50.050691],[14.51632,50.050505],[14.516322,50.050496],[14.516224,50.050424],[14.516188,50.050394],[14.51615,50.050309],[14.516156,50.050282],[14.516212,50.050151],[14.51752,50.048433],[14.51834,50.047552],[14.518454,50.047081],[14.518469,50.04701],[14.518566,50.047018],[14.518593,50.047021],[14.518687,50.046711],[14.518749,50.046417],[14.518694,50.046412],[14.518528,50.046398],[14.518405,50.046378],[14.518297,50.046359],[14.518207,50.046315],[14.518195,50.046305],[14.518127,50.046227],[14.518063,50.04613],[14.517975,50.046014],[14.517905,50.045944],[14.517822,50.045873],[14.517824,50.045864],[14.517247,50.045659],[14.516709,50.045603],[14.516823,50.045132],[14.517305,50.04512],[14.5177,50.045118],[14.518473,50.044996],[14.519077,50.044867],[14.518977,50.04474],[14.518955,50.044711],[14.518854,50.044593],[14.51881,50.044535],[14.51871,50.044408],[14.518606,50.044299],[14.518478,50.04417],[14.518335,50.044049],[14.518126,50.043903],[14.518003,50.04382],[14.517812,50.043722],[14.517786,50.04371],[14.517489,50.043584],[14.51741,50.043559],[14.517108,50.043451],[14.517081,50.043449],[14.51671,50.043335],[14.516431,50.043256],[14.516205,50.04319],[14.515819,50.043084],[14.515661,50.043034],[14.515449,50.04297],[14.515277,50.042918],[14.514625,50.043133],[14.514395,50.043158],[14.514261,50.043192],[14.51419,50.043195],[14.514109,50.043242],[14.513985,50.043431],[14.513466,50.043485],[14.512945,50.043548],[14.512734,50.043811],[14.512685,50.043979],[14.512531,50.044837],[14.512521,50.044954],[14.514381,50.045154],[14.516104,50.045133],[14.515997,50.04564],[14.517236,50.045776],[14.517784,50.046051],[14.517932,50.046219],[14.517905,50.04628],[14.517866,50.046394],[14.51784,50.046519],[14.517798,50.046651],[14.517025,50.046575],[14.516667,50.046534],[14.51646,50.046516],[14.516213,50.046485],[14.516185,50.046483],[14.516077,50.046528],[14.515967,50.046581],[14.515912,50.04664],[14.51591,50.046649],[14.515917,50.046749],[14.51592,50.046804],[14.515916,50.046822],[14.515883,50.04691],[14.515833,50.047078],[14.515801,50.047166],[14.515801,50.047229],[14.515772,50.047299],[14.515736,50.047405],[14.515674,50.047563],[14.515636,50.047678],[14.515592,50.047819],[14.515552,50.047942],[14.51551,50.048075],[14.515452,50.048215],[14.515442,50.04826],[14.515382,50.048345],[14.515296,50.048483],[14.515279,50.048499],[14.515187,50.0486],[14.515185,50.048609],[14.515115,50.048675],[14.515062,50.048725],[14.514992,50.048792],[14.514848,50.04887],[14.514768,50.048917],[14.514689,50.048956],[14.514549,50.049016],[14.514408,50.049085],[14.514253,50.049153],[14.514097,50.049221],[14.51396,50.049273],[14.513836,50.049325],[14.513757,50.049364],[14.513621,50.049406],[14.513268,50.049611],[14.512971,50.049749],[14.512831,50.049809],[14.512648,50.049982],[14.512939,50.049863],[14.513101,50.049846],[14.513641,50.049909],[14.513899,50.049928],[14.514082,50.050042],[14.514304,50.050269]]]}},{"type":"Feature","properties":{"cislo":15020,"kod":28039,"mestskaCast":"praha-15"},"geometry":{"type":"Polygon","coordinates":[[[14.524637,50.056625],[14.524872,50.05651],[14.525043,50.056434],[14.525244,50.056352],[14.525398,50.056293],[14.525582,50.056218],[14.52572,50.056167],[14.525887,50.056109],[14.526057,50.056042],[14.526267,50.055979],[14.526508,50.055909],[14.526764,50.055832],[14.527004,50.055762],[14.527213,50.055708],[14.527451,50.055647],[14.527642,50.055609],[14.527849,50.055564],[14.52807,50.05552],[14.528304,50.055477],[14.528537,50.055443],[14.528843,50.055397],[14.529044,50.055378],[14.529289,50.055354],[14.529561,50.055333],[14.529802,50.055327],[14.530058,50.055313],[14.530343,50.055301],[14.53074,50.055291],[14.530898,50.055141],[14.530939,50.055081],[14.531006,50.055033],[14.53107,50.054993],[14.530996,50.054678],[14.531629,50.054616],[14.532032,50.054578],[14.532215,50.054513],[14.532661,50.05447],[14.532618,50.05394],[14.532432,50.053951],[14.532401,50.05383],[14.532372,50.053837],[14.53233,50.053634],[14.531971,50.053666],[14.531912,50.053479],[14.532654,50.0527],[14.532285,50.052713],[14.531958,50.05273],[14.531829,50.052737],[14.531673,50.052741],[14.531502,50.052753],[14.531387,50.052761],[14.531318,50.052755],[14.531264,50.052742],[14.531213,50.052719],[14.531147,50.052695],[14.53106,50.052642],[14.530974,50.05258],[14.530887,50.052527],[14.530825,50.052485],[14.530714,50.052412],[14.530692,50.052383],[14.53066,50.052335],[14.530625,50.052168],[14.530494,50.052184],[14.530157,50.052245],[14.529765,50.052302],[14.529475,50.05234],[14.52924,50.052319],[14.529145,50.052302],[14.528723,50.052229],[14.528235,50.05214],[14.527772,50.052063],[14.527744,50.052061],[14.527503,50.052004],[14.52725,50.051863],[14.527022,50.051744],[14.526832,50.051645],[14.526579,50.051505],[14.526325,50.051374],[14.526113,50.051246],[14.525997,50.051191],[14.526352,50.050914],[14.526517,50.050801],[14.526238,50.050586],[14.525944,50.050442],[14.525848,50.050497],[14.525768,50.050545],[14.52566,50.05059],[14.525524,50.050632],[14.525404,50.050667],[14.525244,50.050689],[14.525051,50.050736],[14.524816,50.050779],[14.52442,50.050853],[14.523867,50.051004],[14.523208,50.051255],[14.522767,50.05147],[14.522994,50.051599],[14.523009,50.051727],[14.522956,50.051777],[14.522882,50.051862],[14.522798,50.05199],[14.52273,50.052111],[14.522666,50.052215],[14.522604,50.052309],[14.522573,50.052388],[14.522539,50.052485],[14.522319,50.052456],[14.522167,50.052443],[14.521959,50.052425],[14.52178,50.052409],[14.521643,50.052388],[14.52152,50.052368],[14.521356,50.052345],[14.521317,50.052332],[14.521218,50.052333],[14.521093,50.052322],[14.520995,50.052322],[14.520967,50.05232],[14.520844,50.0523],[14.520838,50.052263],[14.520828,50.052244],[14.520825,50.052189],[14.520791,50.052086],[14.520768,50.051994],[14.520758,50.051975],[14.520773,50.051903],[14.520774,50.051831],[14.520737,50.051809],[14.520663,50.051758],[14.520627,50.051664],[14.52061,50.051608],[14.520612,50.051535],[14.520625,50.051473],[14.520628,50.051392],[14.520629,50.051319],[14.520628,50.051255],[14.520632,50.051238],[14.520677,50.05116],[14.520678,50.051087],[14.52065,50.051021],[14.520657,50.050986],[14.520675,50.050969],[14.520677,50.05096],[14.520663,50.050959],[14.520635,50.050957],[14.520582,50.050943],[14.520539,50.050948],[14.520426,50.050947],[14.520213,50.050956],[14.520124,50.050975],[14.519704,50.051029],[14.519661,50.051034],[14.51941,50.051022],[14.51909,50.051002],[14.51902,50.050996],[14.518824,50.050925],[14.518805,50.05095],[14.518838,50.050726],[14.519034,50.050598],[14.519038,50.050581],[14.519039,50.050508],[14.518957,50.050428],[14.518862,50.050411],[14.51865,50.050483],[14.51853,50.050518],[14.518464,50.050494],[14.518142,50.05042],[14.517788,50.050426],[14.517598,50.050391],[14.517422,50.050357],[14.517224,50.050294],[14.516904,50.050275],[14.516876,50.050273],[14.516469,50.050264],[14.516173,50.050266],[14.516171,50.050275],[14.516156,50.050282],[14.51615,50.050309],[14.516188,50.050394],[14.516224,50.050424],[14.516322,50.050496],[14.51632,50.050505],[14.516365,50.050691],[14.516351,50.05069],[14.516256,50.050808],[14.516185,50.050875],[14.516099,50.050949],[14.515983,50.050966],[14.515819,50.051006],[14.515628,50.051044],[14.51557,50.051056],[14.515541,50.051337],[14.515498,50.051643],[14.515481,50.051888],[14.51548,50.051901],[14.51545,50.052354],[14.515448,50.052381],[14.515447,50.052413],[14.515443,50.052429],[14.515412,50.053156],[14.515391,50.053866],[14.515383,50.054113],[14.515382,50.054137],[14.515382,50.054139],[14.515379,50.05415],[14.515365,50.054203],[14.515364,50.054205],[14.515354,50.054242],[14.515354,50.054255],[14.515352,50.054315],[14.515356,50.054398],[14.51536,50.054482],[14.515361,50.054492],[14.515364,50.054569],[14.515368,50.05457],[14.515367,50.05458],[14.515428,50.054585],[14.51543,50.054574],[14.515536,50.054581],[14.515522,50.054658],[14.515539,50.054659],[14.515532,50.054699],[14.515528,50.054727],[14.515511,50.054725],[14.515504,50.054765],[14.515521,50.054766],[14.515509,50.054834],[14.515378,50.054825],[14.515379,50.054819],[14.515355,50.054818],[14.515337,50.054974],[14.515334,50.055001],[14.515332,50.055086],[14.51533,50.055156],[14.515469,50.055166],[14.515446,50.055305],[14.515327,50.055296],[14.515324,50.055425],[14.515324,50.055426],[14.515323,50.055448],[14.515323,50.05545],[14.515319,50.055628],[14.515319,50.05563],[14.515319,50.055649],[14.517168,50.054754],[14.517946,50.055539],[14.518786,50.055232],[14.519271,50.055138],[14.521176,50.054861],[14.521267,50.054433],[14.522132,50.054073],[14.52215,50.053857],[14.52246,50.053857],[14.522905,50.053751],[14.523189,50.05374],[14.52376,50.054107],[14.523894,50.054473],[14.524165,50.054724],[14.524349,50.054785],[14.524445,50.055265],[14.524532,50.056053],[14.524616,50.056523],[14.524637,50.056625]]]}},{"type":"Feature","properties":{"cislo":15021,"kod":28041,"mestskaCast":"praha-15"},"geometry":{"type":"Polygon","coordinates":[[[14.514773,50.060941],[14.514773,50.060943],[14.515424,50.061035],[14.515606,50.061068],[14.515973,50.06116],[14.516854,50.061288],[14.516834,50.061257],[14.517091,50.061202],[14.517528,50.061114],[14.517597,50.061225],[14.51761,50.061245],[14.517612,50.061245],[14.517657,50.061231],[14.517732,50.06121],[14.517793,50.061188],[14.517884,50.06116],[14.51796,50.06113],[14.518051,50.061102],[14.518142,50.061073],[14.518205,50.061043],[14.518311,50.061007],[14.518403,50.060969],[14.518494,50.060941],[14.518586,50.060904],[14.518695,50.060859],[14.518803,50.060814],[14.518927,50.060761],[14.519037,50.060707],[14.519162,50.060646],[14.519273,50.060592],[14.5194,50.060521],[14.519544,50.060443],[14.519687,50.060365],[14.519846,50.060279],[14.51998,50.060182],[14.520127,50.060086],[14.520241,50.060014],[14.520372,50.059926],[14.520476,50.059835],[14.520591,50.059755],[14.520697,50.059655],[14.520834,50.05954],[14.520971,50.059425],[14.521095,50.059309],[14.521234,50.059185],[14.521392,50.059036],[14.521535,50.058894],[14.521656,50.058787],[14.521795,50.058663],[14.521869,50.058578],[14.522059,50.058414],[14.522255,50.058222],[14.522376,50.058115],[14.522531,50.057983],[14.522703,50.057835],[14.522889,50.057688],[14.52304,50.057574],[14.523172,50.057486],[14.523339,50.057364],[14.523484,50.057277],[14.523615,50.057189],[14.523747,50.057101],[14.523892,50.057014],[14.524018,50.056952],[14.524145,50.056881],[14.524242,50.056826],[14.524369,50.056756],[14.524509,50.056696],[14.524637,50.056625],[14.524616,50.056523],[14.524532,50.056053],[14.524445,50.055265],[14.524349,50.054785],[14.524165,50.054724],[14.523894,50.054473],[14.52376,50.054107],[14.523189,50.05374],[14.522905,50.053751],[14.52246,50.053857],[14.52215,50.053857],[14.522132,50.054073],[14.521267,50.054433],[14.521176,50.054861],[14.519271,50.055138],[14.518786,50.055232],[14.517946,50.055539],[14.517168,50.054754],[14.515319,50.055649],[14.515319,50.055666],[14.515317,50.055775],[14.515317,50.055778],[14.515316,50.055808],[14.515316,50.055808],[14.515316,50.055836],[14.515316,50.055844],[14.515332,50.056026],[14.515324,50.05616],[14.515324,50.056164],[14.515306,50.05626],[14.51527,50.056338],[14.515231,50.056382],[14.515145,50.056458],[14.515016,50.056562],[14.514555,50.056796],[14.514585,50.056824],[14.514588,50.056828],[14.514659,50.056893],[14.514663,50.0569],[14.514701,50.056978],[14.514708,50.056992],[14.514737,50.057051],[14.514814,50.057204],[14.514846,50.057269],[14.514851,50.057362],[14.51486,50.057576],[14.514862,50.057617],[14.514866,50.057705],[14.514867,50.05773],[14.514868,50.057763],[14.51487,50.057795],[14.514869,50.0578],[14.514865,50.057851],[14.514865,50.057851],[14.514859,50.057927],[14.514844,50.058112],[14.51485,50.058193],[14.514848,50.058366],[14.514843,50.058641],[14.514842,50.058751],[14.514841,50.058809],[14.51484,50.05884],[14.51484,50.058848],[14.51484,50.058853],[14.514839,50.058923],[14.514838,50.058966],[14.514838,50.058969],[14.514838,50.058982],[14.514838,50.058985],[14.514838,50.058991],[14.514836,50.059151],[14.514834,50.059259],[14.514833,50.05935],[14.514832,50.059364],[14.514832,50.059386],[14.51483,50.05952],[14.514828,50.05956],[14.514818,50.059758],[14.514816,50.0598],[14.514632,50.059795],[14.514629,50.059853],[14.514677,50.059854],[14.514674,50.059908],[14.514645,50.060342],[14.514597,50.060341],[14.514593,50.060399],[14.514791,50.060404],[14.514784,50.06059],[14.514782,50.060658],[14.514781,50.060696],[14.514778,50.060775],[14.514775,50.060879],[14.514773,50.060941]]]}},{"type":"Feature","properties":{"cislo":15022,"kod":28043,"mestskaCast":"praha-15"},"geometry":{"type":"Polygon","coordinates":[[[14.565491,50.042797],[14.565998,50.042796],[14.56601,50.042942],[14.566009,50.043078],[14.566029,50.043252],[14.566011,50.043405],[14.566001,50.043522],[14.565947,50.043644],[14.565908,50.043759],[14.56587,50.043874],[14.565818,50.043987],[14.565738,50.044098],[14.565645,50.044208],[14.565434,50.044407],[14.565563,50.044464],[14.565642,50.044489],[14.565759,50.044535],[14.565943,50.044597],[14.56605,50.044624],[14.566104,50.044638],[14.56628,50.044672],[14.566458,50.044696],[14.566612,50.044701],[14.566949,50.044703],[14.566991,50.044707],[14.567147,50.044702],[14.567145,50.044711],[14.567161,50.044903],[14.567172,50.045049],[14.567179,50.045086],[14.567178,50.045222],[14.567172,50.045321],[14.567166,50.045348],[14.56717,50.045394],[14.567152,50.045546],[14.567137,50.045618],[14.567135,50.045627],[14.567117,50.045716],[14.56741,50.045796],[14.567685,50.045892],[14.568024,50.046022],[14.568501,50.046299],[14.568504,50.046297],[14.568791,50.045795],[14.568854,50.045743],[14.56892,50.045703],[14.569303,50.045474],[14.569667,50.045267],[14.570038,50.04504],[14.570598,50.044698],[14.570645,50.044705],[14.571547,50.044137],[14.571931,50.043911],[14.57246,50.043618],[14.572941,50.043365],[14.573897,50.042843],[14.5755,50.041972],[14.575542,50.041946],[14.575565,50.041934],[14.574726,50.04164],[14.574518,50.041549],[14.574172,50.041444],[14.574126,50.041503],[14.573962,50.041464],[14.573893,50.041447],[14.573727,50.041408],[14.573717,50.041405],[14.573665,50.041393],[14.573489,50.041351],[14.572813,50.041269],[14.572519,50.041186],[14.572247,50.041128],[14.572109,50.041099],[14.571461,50.041005],[14.571448,50.041004],[14.570974,50.04098],[14.570632,50.040996],[14.570424,50.04105],[14.570298,50.041112],[14.570302,50.041094],[14.570295,50.041057],[14.570277,50.040947],[14.57027,50.04091],[14.570158,50.040909],[14.570059,50.04091],[14.569931,50.040917],[14.569366,50.040922],[14.568983,50.040934],[14.568673,50.040934],[14.568432,50.04094],[14.568361,50.040943],[14.568334,50.04094],[14.567994,50.040947],[14.567597,50.040958],[14.567287,50.040958],[14.567244,50.040963],[14.56723,50.040962],[14.567118,50.040961],[14.566904,50.04097],[14.566876,50.040704],[14.56536,50.040744],[14.565491,50.042797]]]}},{"type":"Feature","properties":{"cislo":15023,"kod":28045,"mestskaCast":"praha-15"},"geometry":{"type":"Polygon","coordinates":[[[14.556569,50.050835],[14.556948,50.050152],[14.557118,50.049846],[14.558469,50.050073],[14.560193,50.050363],[14.560788,50.050463],[14.560838,50.050471],[14.560836,50.050474],[14.560837,50.050474],[14.560844,50.050476],[14.561314,50.049246],[14.561077,50.049235],[14.560856,50.049215],[14.560608,50.049185],[14.560365,50.049136],[14.560082,50.049075],[14.559987,50.049058],[14.559813,50.049015],[14.559532,50.048946],[14.559199,50.048853],[14.558945,50.048785],[14.558557,50.048688],[14.558197,50.048593],[14.557583,50.04843],[14.557048,50.048293],[14.55662,50.048183],[14.556539,50.048167],[14.556681,50.047961],[14.557233,50.047084],[14.557021,50.04702],[14.556821,50.046966],[14.556658,50.046934],[14.556536,50.046914],[14.556443,50.046888],[14.556201,50.046831],[14.556013,50.046787],[14.556029,50.046779],[14.556173,50.046629],[14.556347,50.046471],[14.556567,50.0463],[14.556602,50.046267],[14.556745,50.046189],[14.556922,50.046086],[14.557018,50.046031],[14.557098,50.045983],[14.557291,50.045873],[14.557355,50.045834],[14.557443,50.045751],[14.557529,50.045676],[14.557693,50.0455],[14.557695,50.045491],[14.557752,50.045424],[14.557818,50.045311],[14.557893,50.045155],[14.557918,50.045102],[14.557965,50.045016],[14.557974,50.044971],[14.55798,50.044944],[14.558001,50.044774],[14.558007,50.044747],[14.558002,50.044638],[14.557991,50.044555],[14.557944,50.044379],[14.557917,50.044304],[14.557879,50.044219],[14.557818,50.044105],[14.557798,50.044067],[14.55775,50.043963],[14.557635,50.043771],[14.557605,50.043714],[14.557561,50.043656],[14.557505,50.043587],[14.553457,50.043741],[14.55276,50.043771],[14.552297,50.04403],[14.550974,50.044758],[14.550213,50.044891],[14.549484,50.044673],[14.54931,50.044694],[14.547227,50.044149],[14.546879,50.044663],[14.546878,50.044672],[14.546725,50.044858],[14.546628,50.044986],[14.546642,50.044987],[14.546579,50.045154],[14.546462,50.045507],[14.546392,50.045773],[14.546368,50.045816],[14.546249,50.046114],[14.546125,50.046367],[14.545931,50.046622],[14.545843,50.046705],[14.545719,50.046821],[14.545598,50.046928],[14.545582,50.046936],[14.545496,50.04701],[14.545244,50.047206],[14.545056,50.047362],[14.545349,50.047642],[14.545528,50.04773],[14.546726,50.047925],[14.54712,50.047996],[14.547652,50.048079],[14.547745,50.048105],[14.547759,50.048107],[14.548527,50.048274],[14.548594,50.048289],[14.548608,50.04829],[14.548634,50.048301],[14.548796,50.048333],[14.548933,50.048354],[14.54915,50.048392],[14.549896,50.048529],[14.549912,50.048522],[14.549916,50.048568],[14.549904,50.048893],[14.5499,50.049247],[14.549896,50.0496],[14.5499,50.050317],[14.549867,50.050405],[14.549841,50.05053],[14.549782,50.050806],[14.549589,50.050989],[14.549444,50.051139],[14.549318,50.051673],[14.549278,50.05186],[14.549233,50.052074],[14.549118,50.052617],[14.549059,50.05283],[14.549056,50.052848],[14.549048,50.052883],[14.549039,50.052928],[14.548979,50.053213],[14.5489,50.053587],[14.548857,50.05372],[14.548848,50.054162],[14.549736,50.054468],[14.549798,50.05449],[14.550873,50.054468],[14.550966,50.054383],[14.551027,50.054327],[14.551568,50.053808],[14.551575,50.053802],[14.551714,50.053642],[14.551821,50.053519],[14.552013,50.053268],[14.552018,50.05326],[14.552034,50.053234],[14.552141,50.053059],[14.552338,50.052742],[14.552449,50.052562],[14.552536,50.052393],[14.552542,50.052382],[14.552591,50.052289],[14.552686,50.052103],[14.552697,50.052081],[14.552727,50.052024],[14.552733,50.052012],[14.552753,50.051973],[14.552833,50.051819],[14.553123,50.051853],[14.553213,50.051863],[14.553221,50.051864],[14.553486,50.051895],[14.554077,50.051964],[14.554187,50.051977],[14.554348,50.051996],[14.554431,50.052006],[14.554513,50.052015],[14.554596,50.052025],[14.554678,50.052035],[14.554761,50.052044],[14.554801,50.052049],[14.554844,50.052052],[14.554927,50.052058],[14.55501,50.052063],[14.555094,50.052069],[14.555235,50.052079],[14.555567,50.052102],[14.555655,50.052102],[14.55582,50.052103],[14.556327,50.052107],[14.556202,50.051785],[14.556171,50.051597],[14.556189,50.051459],[14.55624,50.051339],[14.556255,50.051315],[14.556374,50.051135],[14.556559,50.050851],[14.556569,50.050835]]]}}]}
