{"type":"FeatureCollection","features":[{"type":"Feature","properties":{"cislo":48001,"kod":27059,"mestskaCast":"praha-slivenec"},"geometry":{"type":"Polygon","coordinates":[[[14.325269,50.009088],[14.325858,50.009826],[14.326072,50.010094],[14.326201,50.010257],[14.32643,50.010545],[14.326463,50.010601],[14.326493,50.010653],[14.326553,50.01076],[14.326598,50.01084],[14.326714,50.011047],[14.326894,50.011279],[14.327287,50.011785],[14.327973,50.012668],[14.328325,50.013083],[14.328543,50.013341],[14.328798,50.013578],[14.328825,50.013594],[14.329047,50.013727],[14.329088,50.013752],[14.329524,50.013936],[14.32958,50.013963],[14.329104,50.013965],[14.329066,50.013965],[14.328094,50.013969],[14.328094,50.013974],[14.328094,50.013977],[14.328094,50.014007],[14.328094,50.014043],[14.328094,50.014124],[14.328094,50.014372],[14.328094,50.01468],[14.328094,50.014847],[14.328094,50.014862],[14.328094,50.015184],[14.328096,50.015437],[14.328095,50.015437],[14.328095,50.015534],[14.328096,50.015534],[14.328096,50.015817],[14.328096,50.015822],[14.328096,50.015856],[14.328096,50.01589],[14.328096,50.016322],[14.327163,50.016324],[14.327161,50.016324],[14.327159,50.016324],[14.32716,50.016339],[14.327161,50.016393],[14.327161,50.016637],[14.327166,50.017392],[14.327709,50.017391],[14.327747,50.017391],[14.327749,50.017391],[14.327835,50.017391],[14.328037,50.01739],[14.327992,50.017462],[14.327987,50.017465],[14.327901,50.017534],[14.327781,50.017629],[14.327748,50.017655],[14.327665,50.017723],[14.327605,50.017764],[14.327265,50.017993],[14.327152,50.018096],[14.32688,50.018431],[14.326612,50.018744],[14.326451,50.018944],[14.326221,50.019186],[14.325761,50.019605],[14.325509,50.019878],[14.325355,50.020067],[14.325056,50.020435],[14.324762,50.020798],[14.324753,50.020809],[14.324446,50.021121],[14.324177,50.021375],[14.323946,50.021564],[14.323944,50.021566],[14.32398,50.02156],[14.323987,50.02158],[14.32399,50.021589],[14.323995,50.021603],[14.324247,50.021583],[14.325765,50.021556],[14.326038,50.021533],[14.326346,50.021501],[14.32635,50.021518],[14.326351,50.021521],[14.326359,50.021549],[14.328445,50.021318],[14.328286,50.021087],[14.328547,50.021013],[14.328998,50.020917],[14.329479,50.02084],[14.329766,50.020806],[14.329952,50.020801],[14.33018,50.020805],[14.330665,50.020865],[14.331228,50.020915],[14.331694,50.02099],[14.332227,50.021026],[14.332714,50.021037],[14.333301,50.021057],[14.33377,50.021034],[14.334385,50.021002],[14.334848,50.020972],[14.33526,50.020982],[14.335657,50.021017],[14.336091,50.021083],[14.336551,50.021141],[14.337061,50.021165],[14.337548,50.021181],[14.338088,50.02118],[14.33891,50.021129],[14.339853,50.021104],[14.34039,50.02112],[14.340984,50.021145],[14.34152,50.021166],[14.341726,50.021152],[14.342102,50.021093],[14.343058,50.020928],[14.343814,50.020789],[14.345114,50.020557],[14.346785,50.020287],[14.347269,50.020238],[14.347798,50.020214],[14.347918,50.020203],[14.348635,50.020169],[14.349614,50.020132],[14.349664,50.020023],[14.350233,50.019971],[14.350954,50.01992],[14.350941,50.019821],[14.351569,50.019769],[14.352085,50.019728],[14.352287,50.018907],[14.352468,50.018929],[14.353119,50.018616],[14.353178,50.018535],[14.353252,50.017945],[14.353566,50.01792],[14.353818,50.017927],[14.354312,50.017938],[14.354416,50.017938],[14.354692,50.017918],[14.354954,50.01786],[14.3552,50.017779],[14.355504,50.017702],[14.355616,50.017456],[14.3558,50.017032],[14.355889,50.016735],[14.356163,50.016759],[14.356276,50.016312],[14.356625,50.016376],[14.356551,50.016211],[14.356527,50.015931],[14.356173,50.015927],[14.356198,50.015652],[14.355961,50.015652],[14.355982,50.015446],[14.35601,50.015318],[14.356217,50.015324],[14.356275,50.015012],[14.356543,50.015029],[14.356559,50.014961],[14.356498,50.014956],[14.356322,50.014938],[14.356353,50.014767],[14.356386,50.014589],[14.355937,50.014531],[14.355916,50.014525],[14.355979,50.014389],[14.356027,50.014191],[14.356057,50.014054],[14.356049,50.013854],[14.356101,50.013858],[14.355876,50.013586],[14.356147,50.013466],[14.356202,50.013441],[14.356137,50.013327],[14.356146,50.013257],[14.356199,50.013128],[14.356276,50.013031],[14.356332,50.012967],[14.356385,50.012901],[14.356506,50.012755],[14.356565,50.012678],[14.356613,50.01256],[14.356659,50.012437],[14.356708,50.0123],[14.356743,50.012153],[14.356775,50.012],[14.356745,50.011999],[14.356761,50.011622],[14.355656,50.011583],[14.355609,50.011252],[14.35565,50.010901],[14.355655,50.010683],[14.356748,50.010719],[14.356789,50.010712],[14.356785,50.010567],[14.35683,50.01057],[14.356824,50.010191],[14.356825,50.009954],[14.356826,50.009738],[14.356816,50.009482],[14.356816,50.009356],[14.356809,50.009189],[14.35681,50.009093],[14.356804,50.009029],[14.35676,50.009036],[14.356741,50.00904],[14.356285,50.009017],[14.354829,50.008772],[14.353981,50.008629],[14.353813,50.008601],[14.353215,50.0085],[14.352917,50.00845],[14.351928,50.008309],[14.351799,50.008291],[14.351261,50.008231],[14.35119,50.008223],[14.350856,50.008186],[14.350553,50.008135],[14.350171,50.008071],[14.349627,50.007979],[14.348136,50.007728],[14.347909,50.007689],[14.34619,50.0074],[14.343998,50.00703],[14.343943,50.007021],[14.343926,50.007018],[14.343918,50.007016],[14.343856,50.007006],[14.34337,50.007375],[14.343135,50.007553],[14.34307,50.007603],[14.342757,50.007778],[14.342733,50.007769],[14.342717,50.007762],[14.342717,50.007762],[14.342406,50.007624],[14.342046,50.007413],[14.342003,50.007393],[14.341653,50.007228],[14.341616,50.007206],[14.341519,50.007148],[14.341458,50.007112],[14.341078,50.006888],[14.341059,50.006876],[14.341039,50.006864],[14.341021,50.006854],[14.340952,50.006813],[14.340855,50.006756],[14.340779,50.006711],[14.340765,50.006701],[14.340239,50.006306],[14.340227,50.006299],[14.339959,50.006116],[14.33995,50.00611],[14.339353,50.005704],[14.339279,50.005654],[14.339139,50.005556],[14.339072,50.005499],[14.33902,50.005455],[14.338956,50.005462],[14.338953,50.005462],[14.338892,50.005468],[14.338889,50.005469],[14.338854,50.005472],[14.33885,50.005473],[14.338793,50.005479],[14.338691,50.005488],[14.338667,50.005492],[14.3386,50.005506],[14.338523,50.005523],[14.338514,50.005525],[14.338341,50.005562],[14.338312,50.005568],[14.338292,50.005573],[14.338188,50.005601],[14.338182,50.005603],[14.338056,50.00564],[14.337828,50.005707],[14.337721,50.005753],[14.337299,50.005928],[14.337283,50.005934],[14.337094,50.006071],[14.336989,50.006092],[14.336617,50.006165],[14.336094,50.00624],[14.335302,50.006411],[14.335254,50.006421],[14.335211,50.006431],[14.335082,50.006389],[14.333657,50.005919],[14.333278,50.005778],[14.332314,50.005462],[14.331657,50.005237],[14.330098,50.004703],[14.330023,50.004677],[14.329768,50.004573],[14.329718,50.004608],[14.328187,50.005682],[14.328023,50.005797],[14.327922,50.005868],[14.327366,50.006258],[14.32701,50.006507],[14.32694,50.006557],[14.325392,50.007642],[14.324928,50.007968],[14.324898,50.007989],[14.324888,50.007996],[14.324863,50.008014],[14.324847,50.008026],[14.325259,50.008569],[14.32544,50.008807],[14.325708,50.009159],[14.325269,50.009088]]]}},{"type":"Feature","properties":{"cislo":48002,"kod":27061,"mestskaCast":"praha-slivenec"},"geometry":{"type":"Polygon","coordinates":[[[14.376305,50.023725],[14.376303,50.023723],[14.375963,50.023323],[14.375402,50.022716],[14.37485,50.022299],[14.374481,50.022105],[14.373761,50.021827],[14.373066,50.021609],[14.372084,50.021404],[14.371559,50.021366],[14.371574,50.021343],[14.371545,50.021329],[14.371927,50.021015],[14.372101,50.020889],[14.372831,50.020361],[14.373426,50.019994],[14.373406,50.019984],[14.373167,50.019907],[14.372853,50.019739],[14.372389,50.019643],[14.371914,50.019539],[14.371518,50.019334],[14.371024,50.01909],[14.370497,50.01873],[14.370025,50.018414],[14.369812,50.018226],[14.369398,50.018094],[14.368848,50.017702],[14.368819,50.01767],[14.368762,50.017607],[14.368755,50.017599],[14.368621,50.017385],[14.368326,50.016736],[14.368228,50.016202],[14.36803,50.015581],[14.368003,50.015495],[14.367997,50.015475],[14.36786,50.015035],[14.367855,50.014994],[14.368218,50.014363],[14.368256,50.014085],[14.368317,50.013776],[14.368461,50.013561],[14.368352,50.013541],[14.368229,50.013274],[14.36821,50.013091],[14.368196,50.012893],[14.367872,50.012279],[14.368157,50.011874],[14.367965,50.011638],[14.367675,50.011458],[14.367455,50.011208],[14.367306,50.011007],[14.36713,50.010797],[14.366841,50.010481],[14.366842,50.010269],[14.366863,50.010205],[14.366933,50.009988],[14.366966,50.009719],[14.366964,50.009431],[14.366962,50.0091],[14.36698,50.008845],[14.367013,50.00837],[14.367015,50.007868],[14.366884,50.007175],[14.366744,50.007155],[14.364812,50.006881],[14.364271,50.006804],[14.363985,50.006763],[14.362765,50.00659],[14.360122,50.006215],[14.360108,50.006213],[14.360073,50.006214],[14.360051,50.006215],[14.360044,50.006215],[14.359924,50.006219],[14.359919,50.006219],[14.359909,50.00622],[14.359832,50.006222],[14.358205,50.006275],[14.356577,50.006328],[14.356549,50.006329],[14.356535,50.006329],[14.356546,50.006363],[14.356646,50.006664],[14.356777,50.00724],[14.35678,50.007253],[14.356781,50.007254],[14.356802,50.007349],[14.356804,50.007357],[14.356824,50.007442],[14.356868,50.007679],[14.356908,50.008533],[14.356915,50.009013],[14.356887,50.009017],[14.356804,50.009029],[14.35681,50.009093],[14.356809,50.009189],[14.356816,50.009356],[14.356816,50.009482],[14.356826,50.009738],[14.356825,50.009954],[14.356824,50.010191],[14.35683,50.01057],[14.356785,50.010567],[14.356789,50.010712],[14.356748,50.010719],[14.355655,50.010683],[14.35565,50.010901],[14.355609,50.011252],[14.355656,50.011583],[14.356761,50.011622],[14.356745,50.011999],[14.356775,50.012],[14.356743,50.012153],[14.356708,50.0123],[14.356659,50.012437],[14.356613,50.01256],[14.356565,50.012678],[14.356506,50.012755],[14.356385,50.012901],[14.356332,50.012967],[14.356276,50.013031],[14.356199,50.013128],[14.356146,50.013257],[14.356137,50.013327],[14.356202,50.013441],[14.356147,50.013466],[14.355876,50.013586],[14.356101,50.013858],[14.356049,50.013854],[14.356057,50.014054],[14.356027,50.014191],[14.355979,50.014389],[14.355916,50.014525],[14.355937,50.014531],[14.356386,50.014589],[14.356353,50.014767],[14.356322,50.014938],[14.356498,50.014956],[14.356559,50.014961],[14.356543,50.015029],[14.356275,50.015012],[14.356217,50.015324],[14.35601,50.015318],[14.355982,50.015446],[14.355961,50.015652],[14.356198,50.015652],[14.356173,50.015927],[14.356527,50.015931],[14.356551,50.016211],[14.356625,50.016376],[14.356276,50.016312],[14.356163,50.016759],[14.355889,50.016735],[14.3558,50.017032],[14.355616,50.017456],[14.355504,50.017702],[14.3552,50.017779],[14.354954,50.01786],[14.354692,50.017918],[14.354416,50.017938],[14.354312,50.017938],[14.353818,50.017927],[14.353566,50.01792],[14.353252,50.017945],[14.353178,50.018535],[14.353119,50.018616],[14.352468,50.018929],[14.352287,50.018907],[14.352085,50.019728],[14.351569,50.019769],[14.350941,50.019821],[14.350954,50.01992],[14.350233,50.019971],[14.349664,50.020023],[14.349614,50.020132],[14.349511,50.020296],[14.349813,50.020517],[14.350155,50.020741],[14.350436,50.020987],[14.351623,50.021828],[14.35206,50.021797],[14.352508,50.021754],[14.353984,50.021713],[14.354114,50.021709],[14.354758,50.021688],[14.35542,50.0217],[14.356064,50.02169],[14.356121,50.021697],[14.356208,50.021135],[14.356303,50.020569],[14.356792,50.020498],[14.357613,50.020377],[14.35796,50.020469],[14.357988,50.02035],[14.35822,50.020373],[14.358181,50.020289],[14.358302,50.020146],[14.358438,50.020198],[14.35837,50.020292],[14.358382,50.020351],[14.358429,50.020344],[14.35846,50.020383],[14.358482,50.020385],[14.358599,50.020548],[14.358664,50.020616],[14.358682,50.020585],[14.359072,50.020668],[14.359169,50.020483],[14.35918,50.020402],[14.359366,50.020459],[14.359309,50.020512],[14.359248,50.020641],[14.359729,50.02076],[14.359622,50.020917],[14.36008,50.021045],[14.360285,50.020717],[14.360418,50.020758],[14.360196,50.021083],[14.360062,50.021352],[14.360583,50.021468],[14.361126,50.021605],[14.361051,50.021706],[14.361491,50.021825],[14.361944,50.021186],[14.362058,50.02122],[14.361868,50.021486],[14.362072,50.021535],[14.362037,50.02159],[14.3621,50.021611],[14.362092,50.021648],[14.362494,50.021758],[14.362777,50.021833],[14.362809,50.021779],[14.363108,50.021866],[14.363164,50.021791],[14.363379,50.021852],[14.363403,50.021834],[14.363544,50.021874],[14.363611,50.021916],[14.363748,50.022014],[14.363924,50.022113],[14.364078,50.022156],[14.364334,50.022237],[14.364572,50.022334],[14.364698,50.022403],[14.364985,50.022485],[14.365232,50.022127],[14.365564,50.022299],[14.365694,50.022349],[14.365709,50.022326],[14.36571,50.022325],[14.365745,50.022274],[14.365758,50.022254],[14.367605,50.02326],[14.368069,50.023524],[14.368951,50.024145],[14.370325,50.025114],[14.370872,50.025539],[14.371041,50.02567],[14.37114,50.025747],[14.371353,50.025904],[14.371492,50.026007],[14.371623,50.02609],[14.37187,50.026188],[14.372722,50.026446],[14.372744,50.026453],[14.37306,50.026561],[14.373218,50.026611],[14.374012,50.02686],[14.374389,50.026986],[14.374427,50.026999],[14.374463,50.026944],[14.374509,50.026873],[14.374531,50.026839],[14.374535,50.026834],[14.374596,50.02674],[14.374654,50.026653],[14.375096,50.026052],[14.375721,50.025158],[14.375896,50.024936],[14.376461,50.02419],[14.376479,50.024164],[14.376283,50.023733],[14.376305,50.023725]]]}},{"type":"Feature","properties":{"cislo":48003,"kod":169184,"mestskaCast":"praha-slivenec"},"geometry":{"type":"Polygon","coordinates":[[[14.348266,50.034129],[14.348738,50.034292],[14.3494,50.034339],[14.34951,50.03434],[14.349775,50.034343],[14.350145,50.034447],[14.350429,50.034697],[14.350476,50.034741],[14.350513,50.034775],[14.350571,50.034829],[14.351556,50.035301],[14.351887,50.035325],[14.352064,50.035412],[14.352082,50.035421],[14.352127,50.035427],[14.352597,50.035488],[14.352597,50.035488],[14.352942,50.035517],[14.353519,50.035539],[14.353636,50.035551],[14.354084,50.035613],[14.354326,50.03554],[14.354321,50.035534],[14.354146,50.035347],[14.35401,50.035242],[14.35399,50.034926],[14.35407,50.034793],[14.354581,50.033933],[14.354789,50.033723],[14.355042,50.033343],[14.355067,50.033304],[14.355113,50.033235],[14.355125,50.033073],[14.355104,50.03284],[14.355046,50.032549],[14.355012,50.032113],[14.354991,50.03178],[14.354988,50.031728],[14.354987,50.031697],[14.355005,50.031582],[14.355055,50.031508],[14.355147,50.031445],[14.355207,50.031421],[14.355222,50.031414],[14.355305,50.031381],[14.355555,50.031304],[14.355987,50.031179],[14.356159,50.031081],[14.356245,50.031032],[14.356417,50.030967],[14.35684,50.030882],[14.357046,50.030822],[14.357146,50.030786],[14.357163,50.03078],[14.357164,50.03076],[14.357164,50.030744],[14.357273,50.030214],[14.357314,50.030009],[14.357387,50.030003],[14.357284,50.029955],[14.357099,50.029871],[14.357156,50.029805],[14.357183,50.029773],[14.357205,50.029744],[14.357265,50.029406],[14.357273,50.029362],[14.357285,50.02929],[14.357238,50.029283],[14.357028,50.029249],[14.356914,50.029232],[14.356913,50.029231],[14.356408,50.029152],[14.35628,50.029116],[14.356142,50.029076],[14.356049,50.028957],[14.356064,50.028857],[14.356146,50.028323],[14.355813,50.028325],[14.355394,50.028325],[14.355392,50.02828],[14.355389,50.02821],[14.355384,50.028119],[14.355382,50.028074],[14.355379,50.028003],[14.355375,50.027912],[14.355372,50.027867],[14.355369,50.027796],[14.355365,50.027725],[14.355365,50.027706],[14.355362,50.027661],[14.355359,50.02759],[14.355355,50.027499],[14.355352,50.027454],[14.355349,50.027384],[14.355345,50.027261],[14.355901,50.027259],[14.356021,50.027259],[14.356036,50.027133],[14.355901,50.027125],[14.355609,50.02711],[14.355329,50.027097],[14.355338,50.027016],[14.355369,50.026901],[14.355427,50.02669],[14.355428,50.026685],[14.35547,50.026534],[14.3555,50.026425],[14.35551,50.026385],[14.355549,50.026243],[14.355673,50.025788],[14.355784,50.025383],[14.355813,50.025204],[14.35586,50.025067],[14.355867,50.025058],[14.355922,50.025003],[14.356007,50.024917],[14.356014,50.02491],[14.356157,50.024826],[14.356205,50.024799],[14.356579,50.024646],[14.356956,50.024691],[14.357467,50.024745],[14.357848,50.024777],[14.357951,50.024773],[14.358236,50.024792],[14.359356,50.024809],[14.359375,50.024809],[14.359438,50.02481],[14.359467,50.024846],[14.359511,50.0249],[14.359531,50.024925],[14.359641,50.025081],[14.359786,50.025096],[14.35969,50.025222],[14.359709,50.025227],[14.3602,50.025364],[14.360212,50.025368],[14.360249,50.025378],[14.360296,50.025391],[14.360307,50.025394],[14.360652,50.025491],[14.36101,50.025589],[14.361067,50.025605],[14.36109,50.025611],[14.361112,50.025617],[14.361471,50.025721],[14.361752,50.025803],[14.36183,50.025825],[14.36192,50.025847],[14.361937,50.025851],[14.362293,50.025951],[14.362962,50.026147],[14.363101,50.026185],[14.36333,50.025846],[14.363359,50.025803],[14.364133,50.024658],[14.364613,50.023948],[14.364914,50.023503],[14.365689,50.022356],[14.365694,50.022349],[14.365564,50.022299],[14.365232,50.022127],[14.364985,50.022485],[14.364698,50.022403],[14.364572,50.022334],[14.364334,50.022237],[14.364078,50.022156],[14.363924,50.022113],[14.363748,50.022014],[14.363611,50.021916],[14.363544,50.021874],[14.363403,50.021834],[14.363379,50.021852],[14.363164,50.021791],[14.363108,50.021866],[14.362809,50.021779],[14.362777,50.021833],[14.362494,50.021758],[14.362092,50.021648],[14.3621,50.021611],[14.362037,50.02159],[14.362072,50.021535],[14.361868,50.021486],[14.362058,50.02122],[14.361944,50.021186],[14.361491,50.021825],[14.361051,50.021706],[14.361126,50.021605],[14.360583,50.021468],[14.360062,50.021352],[14.360196,50.021083],[14.360418,50.020758],[14.360285,50.020717],[14.36008,50.021045],[14.359622,50.020917],[14.359729,50.02076],[14.359248,50.020641],[14.359309,50.020512],[14.359366,50.020459],[14.35918,50.020402],[14.359169,50.020483],[14.359072,50.020668],[14.358682,50.020585],[14.358664,50.020616],[14.358599,50.020548],[14.358482,50.020385],[14.35846,50.020383],[14.358429,50.020344],[14.358382,50.020351],[14.35837,50.020292],[14.358438,50.020198],[14.358302,50.020146],[14.358181,50.020289],[14.35822,50.020373],[14.357988,50.02035],[14.35796,50.020469],[14.357613,50.020377],[14.356792,50.020498],[14.356303,50.020569],[14.356208,50.021135],[14.356121,50.021697],[14.356064,50.02169],[14.35542,50.0217],[14.354758,50.021688],[14.354114,50.021709],[14.353984,50.021713],[14.352508,50.021754],[14.35206,50.021797],[14.351623,50.021828],[14.350436,50.020987],[14.350155,50.020741],[14.349813,50.020517],[14.349511,50.020296],[14.349614,50.020132],[14.348635,50.020169],[14.347918,50.020203],[14.347798,50.020214],[14.347269,50.020238],[14.346785,50.020287],[14.345114,50.020557],[14.343814,50.020789],[14.343058,50.020928],[14.342102,50.021093],[14.341726,50.021152],[14.34152,50.021166],[14.340984,50.021145],[14.34039,50.02112],[14.339853,50.021104],[14.33891,50.021129],[14.338088,50.02118],[14.337548,50.021181],[14.337061,50.021165],[14.336551,50.021141],[14.336091,50.021083],[14.335657,50.021017],[14.33526,50.020982],[14.334848,50.020972],[14.334385,50.021002],[14.33377,50.021034],[14.333301,50.021057],[14.332714,50.021037],[14.332227,50.021026],[14.331694,50.02099],[14.331228,50.020915],[14.330665,50.020865],[14.33018,50.020805],[14.329952,50.020801],[14.329766,50.020806],[14.329479,50.02084],[14.328998,50.020917],[14.328547,50.021013],[14.328286,50.021087],[14.328445,50.021318],[14.328447,50.021322],[14.328795,50.02208],[14.329314,50.022093],[14.329373,50.022094],[14.329634,50.02209],[14.329979,50.022085],[14.330002,50.022085],[14.330088,50.022083],[14.330104,50.022083],[14.330111,50.022083],[14.330192,50.022163],[14.330218,50.022189],[14.330546,50.022514],[14.330563,50.022532],[14.330777,50.022767],[14.330827,50.022824],[14.330866,50.022906],[14.330903,50.022983],[14.330948,50.023399],[14.331658,50.023455],[14.331748,50.023687],[14.331984,50.023979],[14.33211,50.024471],[14.33224,50.024667],[14.332592,50.02578],[14.33275,50.025922],[14.332246,50.026627],[14.33229,50.026843],[14.332738,50.027268],[14.3339,50.027669],[14.333952,50.027706],[14.334202,50.02789],[14.334251,50.027987],[14.334529,50.028546],[14.334536,50.028573],[14.334777,50.028783],[14.334805,50.028939],[14.334928,50.02907],[14.334719,50.029158],[14.334311,50.029205],[14.334012,50.029336],[14.334021,50.029547],[14.334012,50.02982],[14.333964,50.029923],[14.333937,50.029985],[14.333907,50.030052],[14.333854,50.030178],[14.333844,50.030239],[14.333844,50.030243],[14.333842,50.030254],[14.333841,50.030258],[14.333836,50.030289],[14.333765,50.030783],[14.334852,50.031201],[14.335618,50.031545],[14.335778,50.031679],[14.335834,50.031727],[14.335869,50.031705],[14.335945,50.031656],[14.336494,50.031613],[14.336866,50.031586],[14.33714,50.031566],[14.337469,50.031622],[14.337898,50.031696],[14.338442,50.031774],[14.338386,50.032281],[14.337882,50.032619],[14.338297,50.032694],[14.338437,50.032719],[14.339138,50.032435],[14.339836,50.032354],[14.339973,50.032329],[14.34048,50.032083],[14.340899,50.032121],[14.3414,50.03212],[14.341536,50.032137],[14.342332,50.032481],[14.342524,50.032199],[14.342688,50.031772],[14.342791,50.031802],[14.34306,50.031881],[14.343437,50.03199],[14.343474,50.032018],[14.343912,50.032117],[14.34398,50.032142],[14.344009,50.032155],[14.344211,50.032196],[14.344314,50.032304],[14.344302,50.032325],[14.344331,50.032331],[14.344368,50.032357],[14.344451,50.032439],[14.344576,50.032519],[14.344627,50.032516],[14.344809,50.032583],[14.344958,50.032636],[14.345028,50.032774],[14.345505,50.033146],[14.34624,50.033425],[14.34671,50.033666],[14.346739,50.033674],[14.346756,50.033678],[14.34713,50.033775],[14.347659,50.033963],[14.348263,50.034128],[14.348266,50.034129]]]}}]}
