{"type":"FeatureCollection","features":[{"type":"Feature","properties":{"cislo":38001,"kod":26043,"mestskaCast":"praha-libus"},"geometry":{"type":"MultiPolygon","coordinates":[[[[14.453191,50.013265],[14.453451,50.013352],[14.454661,50.013757],[14.454784,50.013799],[14.455241,50.013952],[14.455286,50.013967],[14.455384,50.014001],[14.455484,50.014034],[14.455682,50.0141],[14.45593,50.014184],[14.456177,50.014267],[14.456417,50.014347],[14.456495,50.014371],[14.456497,50.014371],[14.456529,50.014378],[14.456586,50.01439],[14.456627,50.014399],[14.45671,50.014417],[14.456758,50.014427],[14.456812,50.014438],[14.456854,50.014447],[14.45702,50.014483],[14.457078,50.014495],[14.45723,50.014527],[14.45757,50.014599],[14.457621,50.01425],[14.457868,50.0143],[14.45789,50.014247],[14.457921,50.014252],[14.457956,50.014173],[14.457923,50.014166],[14.457952,50.014093],[14.457865,50.014069],[14.458159,50.013621],[14.457996,50.013462],[14.458141,50.013301],[14.458232,50.013265],[14.458447,50.013201],[14.458559,50.013067],[14.458568,50.013027],[14.458624,50.012821],[14.458572,50.012798],[14.458433,50.012746],[14.458331,50.012708],[14.458117,50.01261],[14.457797,50.012527],[14.457644,50.012813],[14.45667,50.012747],[14.456477,50.013058],[14.457008,50.013192],[14.456922,50.01334],[14.456863,50.013324],[14.456857,50.013305],[14.456499,50.013223],[14.456386,50.013196],[14.456378,50.013055],[14.456207,50.013008],[14.455988,50.01307],[14.456073,50.012967],[14.45613,50.01285],[14.456287,50.012495],[14.456451,50.012127],[14.457108,50.012295],[14.457766,50.012461],[14.458372,50.012617],[14.458432,50.012634],[14.459478,50.012984],[14.459606,50.012841],[14.459756,50.0128],[14.459962,50.012556],[14.459673,50.012458],[14.45928,50.012258],[14.45941,50.012103],[14.45955,50.011921],[14.45844,50.011556],[14.458248,50.011785],[14.457806,50.011639],[14.457864,50.011563],[14.457957,50.011534],[14.458233,50.01136],[14.45835,50.011197],[14.458575,50.011272],[14.458438,50.011433],[14.459651,50.011839],[14.459678,50.011779],[14.45955,50.011594],[14.459634,50.011481],[14.460334,50.011712],[14.460551,50.011418],[14.460062,50.011278],[14.460196,50.011125],[14.459747,50.010986],[14.459922,50.010829],[14.460382,50.010913],[14.460508,50.010812],[14.460609,50.01075],[14.460686,50.010689],[14.460839,50.010569],[14.460889,50.010529],[14.460984,50.010403],[14.461072,50.010249],[14.461088,50.010185],[14.461147,50.010101],[14.461432,50.010026],[14.461548,50.009952],[14.461686,50.009851],[14.462051,50.009557],[14.462292,50.009667],[14.462371,50.009596],[14.462139,50.009485],[14.462257,50.009392],[14.462294,50.009365],[14.462415,50.009424],[14.462486,50.009327],[14.462784,50.008848],[14.463032,50.008915],[14.463098,50.008802],[14.463142,50.008727],[14.463201,50.008662],[14.463315,50.00845],[14.463209,50.008414],[14.463243,50.008355],[14.4633,50.008256],[14.463384,50.008128],[14.463476,50.008021],[14.463376,50.007893],[14.463405,50.007854],[14.463453,50.007787],[14.463493,50.00774],[14.463664,50.007665],[14.463701,50.007559],[14.463959,50.00747],[14.463762,50.0074],[14.46376,50.007346],[14.46388,50.00725],[14.463908,50.007119],[14.463936,50.007047],[14.463942,50.006898],[14.463972,50.006748],[14.46406,50.006665],[14.464125,50.006478],[14.464178,50.00635],[14.464303,50.006051],[14.464212,50.005953],[14.464199,50.005751],[14.464255,50.005612],[14.464388,50.005453],[14.46426,50.005432],[14.464032,50.005269],[14.464392,50.005333],[14.46442,50.005291],[14.464547,50.005098],[14.464646,50.004948],[14.464754,50.004829],[14.464807,50.004761],[14.464258,50.00464],[14.464087,50.004625],[14.464067,50.004719],[14.463743,50.004706],[14.463695,50.004758],[14.463874,50.005024],[14.463793,50.005123],[14.463882,50.005248],[14.463612,50.005266],[14.463507,50.005554],[14.4635,50.005717],[14.463561,50.00583],[14.463511,50.005936],[14.463316,50.006127],[14.463117,50.0062],[14.462738,50.006258],[14.462711,50.006319],[14.462825,50.006446],[14.462755,50.006577],[14.462997,50.006634],[14.462971,50.006687],[14.462962,50.006796],[14.462897,50.006898],[14.462798,50.00717],[14.462772,50.007212],[14.462911,50.007234],[14.462827,50.007363],[14.462681,50.007331],[14.462633,50.007411],[14.462715,50.007427],[14.462542,50.007711],[14.462435,50.007682],[14.462338,50.007865],[14.462192,50.008076],[14.461995,50.008247],[14.46187,50.008313],[14.46179,50.008399],[14.461772,50.008643],[14.461865,50.008712],[14.461777,50.008795],[14.46156,50.008822],[14.461293,50.008952],[14.46116,50.009005],[14.461014,50.009149],[14.460548,50.009152],[14.460037,50.009159],[14.459721,50.009194],[14.459105,50.00924],[14.458757,50.009291],[14.45874,50.009289],[14.458583,50.009312],[14.458324,50.009322],[14.457791,50.009348],[14.457331,50.009373],[14.457313,50.009372],[14.457161,50.009377],[14.457104,50.009372],[14.457005,50.009328],[14.456923,50.009301],[14.456865,50.009275],[14.456737,50.009205],[14.45667,50.009163],[14.456545,50.009074],[14.456016,50.008804],[14.456011,50.00883],[14.455908,50.009209],[14.455772,50.009599],[14.455769,50.009659],[14.45562,50.009988],[14.45556,50.01012],[14.455486,50.010259],[14.455477,50.010277],[14.455468,50.010293],[14.455374,50.01047],[14.455161,50.010813],[14.455038,50.010989],[14.454925,50.011149],[14.454551,50.011623],[14.454541,50.011636],[14.454526,50.011654],[14.454496,50.01169],[14.454356,50.011856],[14.454224,50.012017],[14.454096,50.012172],[14.45408,50.01219],[14.454032,50.01225],[14.453976,50.012232],[14.45394,50.01222],[14.453644,50.012121],[14.453605,50.012108],[14.45359,50.012103],[14.453544,50.012088],[14.453472,50.01206],[14.453131,50.011948],[14.452888,50.011863],[14.452821,50.011841],[14.452813,50.011839],[14.452805,50.011836],[14.452638,50.011782],[14.452388,50.011702],[14.452222,50.011649],[14.452137,50.011621],[14.451888,50.011541],[14.451643,50.011462],[14.451612,50.011451],[14.451469,50.011412],[14.45131,50.011368],[14.451215,50.011342],[14.451153,50.011325],[14.451087,50.011314],[14.450978,50.011305],[14.450739,50.011284],[14.450602,50.011275],[14.450457,50.011265],[14.450075,50.01126],[14.449775,50.011257],[14.449532,50.011255],[14.448689,50.011169],[14.448256,50.011147],[14.447852,50.011203],[14.447772,50.011267],[14.44772,50.011308],[14.447675,50.011344],[14.447661,50.011356],[14.447598,50.01134],[14.447587,50.011339],[14.447267,50.011315],[14.446586,50.011328],[14.446289,50.011325],[14.445957,50.011296],[14.445935,50.01135],[14.445897,50.011262],[14.445888,50.011237],[14.445866,50.011177],[14.44581,50.011176],[14.445763,50.011174],[14.445653,50.011172],[14.445556,50.011175],[14.445556,50.011164],[14.445511,50.011168],[14.445427,50.011175],[14.445242,50.011186],[14.445033,50.011207],[14.444903,50.011226],[14.444804,50.011245],[14.444685,50.011267],[14.444655,50.011272],[14.444601,50.011284],[14.444521,50.011288],[14.4444,50.011316],[14.444342,50.011312],[14.444278,50.011322],[14.444232,50.011368],[14.443977,50.011439],[14.443836,50.011477],[14.443807,50.011485],[14.443723,50.011508],[14.443667,50.011524],[14.443585,50.011549],[14.443502,50.011575],[14.443368,50.011619],[14.44329,50.011649],[14.443207,50.011685],[14.443155,50.011711],[14.443161,50.011726],[14.443161,50.011728],[14.443124,50.011746],[14.44304,50.011789],[14.442969,50.011825],[14.442763,50.011941],[14.442885,50.011986],[14.442977,50.012019],[14.443272,50.012127],[14.443313,50.012143],[14.443351,50.012157],[14.443562,50.012231],[14.443745,50.012299],[14.443918,50.012357],[14.444192,50.01245],[14.444267,50.012475],[14.444502,50.01256],[14.444649,50.012613],[14.444673,50.012622],[14.444761,50.012655],[14.44506,50.012758],[14.44515,50.012789],[14.445181,50.0128],[14.445348,50.012855],[14.445385,50.012867],[14.445418,50.012879],[14.445654,50.012956],[14.445684,50.012966],[14.44571,50.012975],[14.445744,50.012985],[14.445753,50.012988],[14.446038,50.013074],[14.446202,50.013123],[14.446285,50.013147],[14.446533,50.013219],[14.446764,50.013289],[14.44678,50.013294],[14.446935,50.013339],[14.447038,50.01337],[14.447132,50.013397],[14.447137,50.013398],[14.447215,50.013422],[14.447216,50.013423],[14.447316,50.013493],[14.447359,50.013519],[14.447561,50.013659],[14.447753,50.013589],[14.447846,50.013554],[14.447945,50.013518],[14.447988,50.013567],[14.448075,50.013688],[14.448134,50.013771],[14.448244,50.013935],[14.448345,50.014103],[14.44844,50.014272],[14.448524,50.014444],[14.448571,50.014553],[14.448584,50.014583],[14.448598,50.014617],[14.448687,50.014825],[14.448699,50.01484],[14.44872,50.014852],[14.448748,50.014858],[14.448773,50.014856],[14.448788,50.014854],[14.44885,50.014843],[14.448975,50.014821],[14.449245,50.014773],[14.449517,50.014725],[14.449723,50.014688],[14.44979,50.014677],[14.449925,50.01465],[14.45008,50.014623],[14.450197,50.014603],[14.450318,50.014582],[14.450436,50.014561],[14.450632,50.014527],[14.450736,50.014511],[14.450883,50.014556],[14.450895,50.01456],[14.45091,50.014565],[14.451027,50.014601],[14.451297,50.014684],[14.451371,50.014707],[14.451411,50.014658],[14.451478,50.014577],[14.451673,50.014341],[14.451687,50.014325],[14.45172,50.014285],[14.451727,50.014277],[14.452015,50.013949],[14.452118,50.013831],[14.452264,50.01365],[14.452458,50.013411],[14.452554,50.013292],[14.452651,50.013172],[14.452708,50.013104],[14.452725,50.01311],[14.452786,50.01313],[14.452918,50.013174],[14.452967,50.01319],[14.453096,50.013233],[14.453191,50.013265]]],[[[14.463267,50.004235],[14.463196,50.004437],[14.464419,50.004582],[14.464551,50.004621],[14.464966,50.004721],[14.465075,50.00454],[14.465186,50.00435],[14.465281,50.004168],[14.465448,50.00391],[14.465676,50.003504],[14.466,50.003569],[14.46664,50.003471],[14.467196,50.003438],[14.469911,50.003651],[14.471729,50.003775],[14.471731,50.003776],[14.471796,50.003672],[14.473919,50.003829],[14.473934,50.00383],[14.473876,50.004153],[14.473865,50.004215],[14.474145,50.004236],[14.474178,50.004239],[14.474251,50.004244],[14.47466,50.004275],[14.475319,50.004325],[14.475835,50.004365],[14.475916,50.003912],[14.476069,50.003044],[14.476072,50.003027],[14.476073,50.00302],[14.476079,50.002989],[14.47624,50.002079],[14.476257,50.001981],[14.476261,50.001961],[14.476283,50.001837],[14.476203,50.001831],[14.475906,50.001809],[14.475817,50.001802],[14.475655,50.00179],[14.474201,50.001681],[14.474124,50.001676],[14.474098,50.001674],[14.47409,50.001673],[14.473544,50.001632],[14.473504,50.001629],[14.473684,50.001381],[14.473869,50.00117],[14.473872,50.001168],[14.473877,50.001162],[14.473895,50.001141],[14.473922,50.001111],[14.473985,50.00104],[14.474006,50.001016],[14.474028,50.000992],[14.474044,50.000973],[14.474281,50.000705],[14.475336,49.999363],[14.475512,49.999097],[14.475632,49.998874],[14.475772,49.998518],[14.475781,49.998495],[14.475813,49.998413],[14.47582,49.998397],[14.475839,49.998348],[14.475839,49.998348],[14.475839,49.998348],[14.475838,49.998348],[14.47574,49.998348],[14.475682,49.998352],[14.475454,49.998368],[14.475024,49.998403],[14.474738,49.998423],[14.474139,49.998461],[14.473938,49.998479],[14.473494,49.998513],[14.472852,49.998556],[14.472666,49.998567],[14.47212,49.998619],[14.471474,49.998679],[14.470812,49.998748],[14.470439,49.998779],[14.470409,49.998785],[14.470006,49.998895],[14.469528,49.999025],[14.469036,49.999154],[14.468648,49.999256],[14.468095,49.999407],[14.467812,49.999482],[14.467408,49.999591],[14.467184,49.999653],[14.467021,49.999693],[14.467013,49.999729],[14.466936,49.999958],[14.466842,50.000204],[14.466776,50.000379],[14.46673,50.000529],[14.466638,50.00083],[14.466598,50.001017],[14.466583,50.001025],[14.466289,50.001743],[14.465937,50.002274],[14.464851,50.002215],[14.464734,50.002831],[14.464717,50.002911],[14.464954,50.002923],[14.464821,50.003682],[14.464199,50.003628],[14.464124,50.003848],[14.463471,50.003808],[14.46337,50.004017],[14.463267,50.004235]]]]}},{"type":"Feature","properties":{"cislo":38002,"kod":26045,"mestskaCast":"praha-libus"},"geometry":{"type":"Polygon","coordinates":[[[14.464644,50.000872],[14.464782,50.000884],[14.464879,50.000892],[14.465268,50.000918],[14.465823,50.000958],[14.465864,50.000961],[14.466002,50.000973],[14.466099,50.000982],[14.466223,50.000993],[14.466362,50.001005],[14.466458,50.001014],[14.466583,50.001025],[14.466598,50.001017],[14.466638,50.00083],[14.46673,50.000529],[14.466776,50.000379],[14.466842,50.000204],[14.466936,49.999958],[14.467013,49.999729],[14.467021,49.999693],[14.467184,49.999653],[14.467408,49.999591],[14.467812,49.999482],[14.468095,49.999407],[14.468648,49.999256],[14.469036,49.999154],[14.469528,49.999025],[14.470006,49.998895],[14.470409,49.998785],[14.470439,49.998779],[14.470812,49.998748],[14.471474,49.998679],[14.47212,49.998619],[14.472666,49.998567],[14.472852,49.998556],[14.473494,49.998513],[14.473938,49.998479],[14.474139,49.998461],[14.474738,49.998423],[14.475024,49.998403],[14.475454,49.998368],[14.475682,49.998352],[14.47574,49.998348],[14.475838,49.998348],[14.475839,49.998348],[14.475839,49.998348],[14.475873,49.998311],[14.475882,49.998301],[14.475912,49.998268],[14.475977,49.998195],[14.47598,49.998192],[14.476022,49.998146],[14.476323,49.997984],[14.476351,49.997969],[14.476344,49.99784],[14.476473,49.997585],[14.476487,49.99754],[14.476536,49.997386],[14.476538,49.997332],[14.476541,49.997264],[14.476545,49.997153],[14.476545,49.997148],[14.476545,49.997143],[14.476547,49.997085],[14.476554,49.996917],[14.476661,49.996776],[14.47681,49.99658],[14.477133,49.996319],[14.477171,49.996288],[14.477219,49.99625],[14.477396,49.996106],[14.477456,49.996058],[14.477793,49.995785],[14.477864,49.995727],[14.477968,49.995643],[14.478027,49.995541],[14.478141,49.995344],[14.478157,49.995317],[14.478183,49.995319],[14.478273,49.995326],[14.478829,49.995372],[14.478856,49.995375],[14.479334,49.995384],[14.479545,49.995388],[14.479659,49.995386],[14.480001,49.995377],[14.480897,49.995311],[14.480906,49.995385],[14.481394,49.995343],[14.481572,49.995261],[14.481615,49.995242],[14.48185,49.995134],[14.482087,49.995008],[14.482149,49.994975],[14.482311,49.994713],[14.482675,49.994758],[14.48277,49.994769],[14.483086,49.994808],[14.483258,49.994544],[14.48341,49.99431],[14.483492,49.994185],[14.483562,49.994078],[14.483682,49.993893],[14.483711,49.993848],[14.483712,49.993846],[14.48379,49.993625],[14.483798,49.993602],[14.483808,49.993575],[14.483855,49.993476],[14.483874,49.993437],[14.483897,49.993387],[14.484018,49.993133],[14.484068,49.993028],[14.484185,49.992783],[14.483823,49.992669],[14.483935,49.992419],[14.483948,49.992319],[14.483964,49.992195],[14.483981,49.992059],[14.483984,49.992029],[14.48406,49.991849],[14.484066,49.991833],[14.484136,49.991665],[14.484519,49.99174],[14.484593,49.991575],[14.4846,49.99156],[14.484703,49.991331],[14.48475,49.991173],[14.484824,49.990926],[14.484889,49.990706],[14.484874,49.990651],[14.484786,49.990332],[14.484837,49.990109],[14.484839,49.990099],[14.484847,49.990064],[14.48439,49.989715],[14.48433,49.989587],[14.484325,49.989578],[14.484237,49.989391],[14.484235,49.98926],[14.484231,49.98905],[14.48423,49.989033],[14.484268,49.988861],[14.484277,49.988821],[14.484399,49.988264],[14.484447,49.988046],[14.484474,49.987922],[14.484475,49.987918],[14.48452,49.987714],[14.484585,49.987415],[14.484909,49.987429],[14.485152,49.98744],[14.485392,49.987476],[14.48585,49.987545],[14.487039,49.987584],[14.486919,49.987169],[14.486902,49.987109],[14.486885,49.987052],[14.486794,49.986773],[14.486783,49.986742],[14.486775,49.986717],[14.486731,49.986396],[14.48673,49.986389],[14.486794,49.985945],[14.486816,49.985916],[14.486886,49.985821],[14.486986,49.985687],[14.486958,49.985684],[14.486571,49.985644],[14.486316,49.985618],[14.482868,49.985264],[14.482772,49.985254],[14.482769,49.985254],[14.482475,49.98524],[14.482429,49.985238],[14.482403,49.985236],[14.482362,49.985234],[14.482322,49.985233],[14.482288,49.985232],[14.481584,49.985212],[14.4811,49.985199],[14.480755,49.98519],[14.479968,49.985011],[14.479555,49.984912],[14.479311,49.984855],[14.478978,49.984778],[14.478371,49.984639],[14.478329,49.98463],[14.47765,49.984472],[14.477141,49.984323],[14.476678,49.984159],[14.476579,49.984119],[14.476221,49.983954],[14.476001,49.984079],[14.475976,49.984094],[14.475949,49.984109],[14.475579,49.983873],[14.475214,49.98364],[14.474634,49.983271],[14.474623,49.983264],[14.474605,49.983253],[14.474594,49.983251],[14.474566,49.983238],[14.474505,49.98321],[14.473997,49.983773],[14.473835,49.98377],[14.473705,49.983752],[14.473715,49.983727],[14.473795,49.983526],[14.473831,49.983421],[14.473839,49.983395],[14.473843,49.982987],[14.473852,49.982563],[14.473865,49.982232],[14.473899,49.981762],[14.47391,49.981441],[14.473913,49.981049],[14.473914,49.980955],[14.473919,49.980893],[14.473935,49.980684],[14.473974,49.980496],[14.473984,49.980451],[14.473994,49.980403],[14.47395,49.980399],[14.47392,49.980395],[14.473175,49.980315],[14.471951,49.980174],[14.47159,49.980133],[14.471384,49.980108],[14.471109,49.980076],[14.469453,49.979878],[14.469467,49.98002],[14.469471,49.980058],[14.469477,49.980109],[14.469435,49.980118],[14.469253,49.98016],[14.46919,49.980175],[14.46916,49.980181],[14.46908,49.9802],[14.468711,49.980284],[14.468666,49.980295],[14.468041,49.980576],[14.467984,49.980602],[14.467116,49.980848],[14.466738,49.980954],[14.466708,49.98096],[14.466305,49.981036],[14.466216,49.981399],[14.466097,49.981704],[14.466054,49.981925],[14.466051,49.981938],[14.466049,49.981948],[14.466048,49.981954],[14.466045,49.981972],[14.466044,49.981977],[14.466048,49.982106],[14.466053,49.982233],[14.466053,49.982245],[14.46607,49.982317],[14.466118,49.982521],[14.466121,49.982533],[14.466125,49.982546],[14.466146,49.982616],[14.466158,49.982656],[14.466211,49.982832],[14.466214,49.982842],[14.466293,49.983122],[14.466355,49.983332],[14.466362,49.983386],[14.466364,49.983393],[14.466367,49.983405],[14.466394,49.983481],[14.466453,49.983652],[14.466461,49.983673],[14.466466,49.983688],[14.466468,49.983697],[14.46647,49.983703],[14.466473,49.983715],[14.466553,49.98399],[14.466631,49.984267],[14.466672,49.984439],[14.467041,49.984851],[14.467074,49.984888],[14.467046,49.984899],[14.467043,49.9849],[14.467035,49.984903],[14.467029,49.984906],[14.46702,49.984909],[14.466947,49.984938],[14.466945,49.984939],[14.466903,49.984956],[14.466817,49.984947],[14.466463,49.984911],[14.466052,49.98493],[14.465626,49.984973],[14.464816,49.98501],[14.4642,49.985029],[14.464167,49.98503],[14.46322,49.985052],[14.462417,49.985071],[14.462117,49.985078],[14.461631,49.985074],[14.461561,49.985267],[14.461562,49.985353],[14.461563,49.985454],[14.461768,49.985617],[14.46185,49.985618],[14.46187,49.985618],[14.462448,49.985621],[14.462851,49.985622],[14.463252,49.985619],[14.463399,49.985618],[14.463898,49.985607],[14.463916,49.985606],[14.463842,49.985875],[14.463824,49.986183],[14.463823,49.986203],[14.463781,49.986482],[14.463739,49.986791],[14.463759,49.986791],[14.464534,49.986811],[14.465494,49.986764],[14.46581,49.986761],[14.466371,49.986794],[14.466245,49.987194],[14.4662,49.987311],[14.466086,49.987528],[14.465954,49.987773],[14.465886,49.987901],[14.46562,49.98818],[14.465369,49.988161],[14.465227,49.988165],[14.464921,49.988173],[14.464572,49.988182],[14.464167,49.988193],[14.464078,49.988193],[14.464044,49.988194],[14.464018,49.988194],[14.463112,49.988203],[14.462905,49.988339],[14.462753,49.98856],[14.462747,49.988567],[14.462719,49.988606],[14.462995,49.988718],[14.46336,49.988844],[14.463358,49.988847],[14.463246,49.989038],[14.463129,49.989212],[14.462983,49.989429],[14.462837,49.989647],[14.462517,49.990135],[14.463002,49.99012],[14.463222,49.990113],[14.463385,49.990138],[14.463866,49.990211],[14.463947,49.990223],[14.463865,49.990402],[14.463832,49.990447],[14.463733,49.990585],[14.463721,49.990605],[14.463588,49.99078],[14.462999,49.990569],[14.462836,49.990523],[14.462783,49.990507],[14.461939,49.990264],[14.461202,49.990037],[14.460985,49.990344],[14.460681,49.990775],[14.460647,49.990822],[14.460493,49.991064],[14.460468,49.991104],[14.460456,49.991122],[14.460597,49.991209],[14.460253,49.991854],[14.460239,49.991879],[14.460221,49.99191],[14.459821,49.991849],[14.459412,49.991775],[14.45914,49.991735],[14.45901,49.991715],[14.458578,49.991617],[14.458168,49.99153],[14.457628,49.991382],[14.457114,49.991229],[14.456314,49.991941],[14.455292,49.992755],[14.454782,49.993073],[14.454748,49.993101],[14.45422,49.993545],[14.454196,49.993636],[14.454186,49.993672],[14.454178,49.993705],[14.454412,49.993851],[14.4545,49.993973],[14.454659,49.994049],[14.455385,49.994262],[14.455627,49.994402],[14.455905,49.994512],[14.455966,49.994648],[14.45618,49.994773],[14.456385,49.994964],[14.456598,49.994961],[14.457032,49.995148],[14.457045,49.995367],[14.456818,49.995681],[14.457,49.995856],[14.456837,49.996184],[14.457123,49.996506],[14.457194,49.996695],[14.45733,49.99675],[14.457348,49.996835],[14.457258,49.996975],[14.457522,49.997103],[14.457849,49.997229],[14.457964,49.997273],[14.457979,49.997283],[14.458187,49.997417],[14.458215,49.997436],[14.458253,49.99746],[14.458098,49.997521],[14.458001,49.997559],[14.457811,49.997633],[14.457437,49.997771],[14.457383,49.99779],[14.457328,49.997822],[14.457094,49.997952],[14.457063,49.99797],[14.457037,49.997985],[14.456787,49.998133],[14.456556,49.998196],[14.456165,49.998235],[14.45604,49.998249],[14.455769,49.99828],[14.455875,49.998388],[14.4559,49.998414],[14.455846,49.99851],[14.455659,49.998524],[14.455427,49.998468],[14.455342,49.99851],[14.455193,49.998584],[14.455156,49.998764],[14.455148,49.9988],[14.4552,49.998874],[14.455256,49.998954],[14.45532,49.998948],[14.455345,49.998946],[14.455498,49.998932],[14.455479,49.998983],[14.455454,49.999049],[14.455882,49.999177],[14.455986,49.999243],[14.455982,49.99925],[14.455949,49.999323],[14.45713,49.999727],[14.457204,49.999706],[14.457309,49.999679],[14.457429,49.999644],[14.457563,49.999611],[14.457651,49.999591],[14.457696,49.999577],[14.457771,49.999557],[14.45786,49.999537],[14.457874,49.999538],[14.457992,49.999512],[14.458094,49.999494],[14.458226,49.99947],[14.458242,49.999462],[14.458362,49.999427],[14.458393,49.999412],[14.458484,49.999384],[14.458582,49.99932],[14.458711,49.99924],[14.458823,49.999178],[14.458921,49.999114],[14.459051,49.999034],[14.459151,49.998962],[14.459165,49.998963],[14.459271,49.998927],[14.459287,49.998919],[14.459405,49.998893],[14.459446,49.998897],[14.459573,49.998899],[14.459614,49.998903],[14.459764,49.998925],[14.459778,49.998926],[14.459983,49.998953],[14.460161,49.998978],[14.460285,49.998989],[14.460467,49.998996],[14.460619,49.99901],[14.46066,49.999013],[14.460799,49.999025],[14.460937,49.999038],[14.461089,49.999051],[14.46113,49.999055],[14.461282,49.999068],[14.461502,49.999097],[14.46164,49.999109],[14.461819,49.999125],[14.462011,49.999151],[14.462,49.999204],[14.461998,49.999213],[14.461965,49.999301],[14.461913,49.999414],[14.461894,49.999503],[14.46185,49.999645],[14.461848,49.999654],[14.461825,49.99976],[14.461795,49.999903],[14.461768,50.000028],[14.461764,50.000046],[14.461757,50.000145],[14.461758,50.000208],[14.461765,50.000309],[14.461759,50.000335],[14.461734,50.000451],[14.461719,50.000523],[14.461712,50.000558],[14.461693,50.000647],[14.461928,50.000668],[14.462149,50.000688],[14.462246,50.000696],[14.462522,50.00072],[14.462897,50.000745],[14.463203,50.000762],[14.463244,50.000766],[14.463454,50.000776],[14.463619,50.00079],[14.463827,50.000809],[14.463841,50.00081],[14.464064,50.00082],[14.464105,50.000824],[14.464381,50.000848],[14.464644,50.000872]]]}},{"type":"Feature","properties":{"cislo":38003,"kod":26047,"mestskaCast":"praha-libus"},"geometry":{"type":"Polygon","coordinates":[[[14.453012,50.002548],[14.453012,50.002548],[14.453092,50.002555],[14.453106,50.002557],[14.453136,50.00255],[14.45343,50.002558],[14.453895,50.002554],[14.454477,50.002732],[14.454637,50.002774],[14.454663,50.002785],[14.454891,50.002769],[14.455066,50.002675],[14.455304,50.002551],[14.455543,50.002418],[14.45572,50.002316],[14.456607,50.002449],[14.456942,50.00246],[14.457124,50.002467],[14.458116,50.002437],[14.459367,50.002711],[14.460141,50.002715],[14.460437,50.002778],[14.460939,50.002604],[14.461547,50.002459],[14.461636,50.002439],[14.462389,50.002406],[14.464081,50.002528],[14.464152,50.002126],[14.463293,50.002059],[14.463418,50.001208],[14.463862,50.001238],[14.46401,50.001206],[14.464563,50.001255],[14.464644,50.000872],[14.464381,50.000848],[14.464105,50.000824],[14.464064,50.00082],[14.463841,50.00081],[14.463827,50.000809],[14.463619,50.00079],[14.463454,50.000776],[14.463244,50.000766],[14.463203,50.000762],[14.462897,50.000745],[14.462522,50.00072],[14.462246,50.000696],[14.462149,50.000688],[14.461928,50.000668],[14.461693,50.000647],[14.461712,50.000558],[14.461719,50.000523],[14.461734,50.000451],[14.461759,50.000335],[14.461765,50.000309],[14.461758,50.000208],[14.461757,50.000145],[14.461764,50.000046],[14.461768,50.000028],[14.461795,49.999903],[14.461825,49.99976],[14.461848,49.999654],[14.46185,49.999645],[14.461894,49.999503],[14.461913,49.999414],[14.461965,49.999301],[14.461998,49.999213],[14.462,49.999204],[14.462011,49.999151],[14.461819,49.999125],[14.46164,49.999109],[14.461502,49.999097],[14.461282,49.999068],[14.46113,49.999055],[14.461089,49.999051],[14.460937,49.999038],[14.460799,49.999025],[14.46066,49.999013],[14.460619,49.99901],[14.460467,49.998996],[14.460285,49.998989],[14.460161,49.998978],[14.459983,49.998953],[14.459778,49.998926],[14.459764,49.998925],[14.459614,49.998903],[14.459573,49.998899],[14.459446,49.998897],[14.459405,49.998893],[14.459287,49.998919],[14.459271,49.998927],[14.459165,49.998963],[14.459151,49.998962],[14.459051,49.999034],[14.458921,49.999114],[14.458823,49.999178],[14.458711,49.99924],[14.458582,49.99932],[14.458484,49.999384],[14.458393,49.999412],[14.458362,49.999427],[14.458242,49.999462],[14.458226,49.99947],[14.458094,49.999494],[14.457992,49.999512],[14.457874,49.999538],[14.45786,49.999537],[14.457771,49.999557],[14.457696,49.999577],[14.457651,49.999591],[14.457563,49.999611],[14.457429,49.999644],[14.457309,49.999679],[14.457204,49.999706],[14.45713,49.999727],[14.455949,49.999323],[14.455948,49.999326],[14.45561,49.999384],[14.455233,49.999465],[14.455121,49.999489],[14.455014,49.999512],[14.454934,49.999495],[14.454477,49.999399],[14.454371,49.999495],[14.454163,49.999491],[14.453814,49.999577],[14.453655,49.999533],[14.453391,49.999548],[14.452963,49.999616],[14.452613,49.999831],[14.452591,49.999931],[14.452393,50.000121],[14.452134,50.000247],[14.451911,50.000305],[14.451621,50.000196],[14.451432,50.000315],[14.451243,50.000538],[14.451284,50.000754],[14.451294,50.001013],[14.45137,50.001281],[14.451251,50.001357],[14.451322,50.001441],[14.451558,50.001648],[14.45182,50.001783],[14.452234,50.001884],[14.452366,50.001949],[14.45273,50.0021],[14.452991,50.002224],[14.453086,50.002375],[14.45309,50.002458],[14.453073,50.002457],[14.453012,50.002548]]]}},{"type":"Feature","properties":{"cislo":38004,"kod":26049,"mestskaCast":"praha-libus"},"geometry":{"type":"Polygon","coordinates":[[[14.461547,50.002459],[14.461218,50.002748],[14.461066,50.002796],[14.460935,50.002886],[14.460741,50.003082],[14.460608,50.00318],[14.460521,50.003241],[14.460454,50.003346],[14.460423,50.003574],[14.460456,50.003678],[14.460395,50.0039],[14.461992,50.004086],[14.461803,50.004761],[14.461579,50.00482],[14.461514,50.004861],[14.461505,50.004907],[14.461542,50.00498],[14.461695,50.005009],[14.461644,50.005181],[14.461329,50.005144],[14.461122,50.005252],[14.461014,50.005624],[14.461577,50.005692],[14.461613,50.005522],[14.461987,50.005555],[14.462105,50.005148],[14.461985,50.005115],[14.46192,50.005108],[14.46188,50.004984],[14.461937,50.004662],[14.462352,50.004562],[14.462385,50.004411],[14.462323,50.00438],[14.462335,50.004117],[14.463267,50.004235],[14.46337,50.004017],[14.463471,50.003808],[14.464124,50.003848],[14.464199,50.003628],[14.464821,50.003682],[14.464954,50.002923],[14.464717,50.002911],[14.464734,50.002831],[14.464851,50.002215],[14.465937,50.002274],[14.466289,50.001743],[14.466583,50.001025],[14.466458,50.001014],[14.466362,50.001005],[14.466223,50.000993],[14.466099,50.000982],[14.466002,50.000973],[14.465864,50.000961],[14.465823,50.000958],[14.465268,50.000918],[14.464879,50.000892],[14.464782,50.000884],[14.464644,50.000872],[14.464563,50.001255],[14.46401,50.001206],[14.463862,50.001238],[14.463418,50.001208],[14.463293,50.002059],[14.464152,50.002126],[14.464081,50.002528],[14.462389,50.002406],[14.461636,50.002439],[14.461547,50.002459]]]}},{"type":"Feature","properties":{"cislo":38005,"kod":26051,"mestskaCast":"praha-libus"},"geometry":{"type":"Polygon","coordinates":[[[14.456016,50.008804],[14.456545,50.009074],[14.45667,50.009163],[14.456737,50.009205],[14.456865,50.009275],[14.456923,50.009301],[14.457005,50.009328],[14.457104,50.009372],[14.457161,50.009377],[14.457313,50.009372],[14.457331,50.009373],[14.457791,50.009348],[14.458324,50.009322],[14.458583,50.009312],[14.45874,50.009289],[14.458757,50.009291],[14.459105,50.00924],[14.459721,50.009194],[14.460037,50.009159],[14.460548,50.009152],[14.461014,50.009149],[14.46116,50.009005],[14.461293,50.008952],[14.46156,50.008822],[14.461777,50.008795],[14.461865,50.008712],[14.461772,50.008643],[14.46179,50.008399],[14.46187,50.008313],[14.461995,50.008247],[14.462192,50.008076],[14.462338,50.007865],[14.462435,50.007682],[14.462542,50.007711],[14.462715,50.007427],[14.462633,50.007411],[14.462681,50.007331],[14.462827,50.007363],[14.462911,50.007234],[14.462772,50.007212],[14.462798,50.00717],[14.462897,50.006898],[14.462962,50.006796],[14.462971,50.006687],[14.462997,50.006634],[14.462755,50.006577],[14.462825,50.006446],[14.462711,50.006319],[14.462738,50.006258],[14.463117,50.0062],[14.463316,50.006127],[14.463511,50.005936],[14.463561,50.00583],[14.4635,50.005717],[14.463507,50.005554],[14.463612,50.005266],[14.463882,50.005248],[14.463793,50.005123],[14.463874,50.005024],[14.463695,50.004758],[14.463743,50.004706],[14.464067,50.004719],[14.464087,50.004625],[14.464258,50.00464],[14.464807,50.004761],[14.464754,50.004829],[14.464646,50.004948],[14.464547,50.005098],[14.46442,50.005291],[14.464392,50.005333],[14.464032,50.005269],[14.46426,50.005432],[14.464388,50.005453],[14.464255,50.005612],[14.464199,50.005751],[14.464212,50.005953],[14.464303,50.006051],[14.464178,50.00635],[14.464125,50.006478],[14.46406,50.006665],[14.463972,50.006748],[14.463942,50.006898],[14.463936,50.007047],[14.463908,50.007119],[14.46388,50.00725],[14.46376,50.007346],[14.463762,50.0074],[14.463959,50.00747],[14.463701,50.007559],[14.463664,50.007665],[14.463493,50.00774],[14.463453,50.007787],[14.463405,50.007854],[14.463376,50.007893],[14.463476,50.008021],[14.463384,50.008128],[14.4633,50.008256],[14.463243,50.008355],[14.463209,50.008414],[14.463315,50.00845],[14.463201,50.008662],[14.463142,50.008727],[14.463098,50.008802],[14.463032,50.008915],[14.463301,50.008975],[14.463391,50.009019],[14.463877,50.009117],[14.463907,50.009174],[14.464039,50.009213],[14.464405,50.009281],[14.464664,50.009123],[14.464794,50.008907],[14.465186,50.008987],[14.465997,50.009277],[14.466227,50.009324],[14.466609,50.008587],[14.466157,50.008393],[14.466516,50.007698],[14.466689,50.007414],[14.466942,50.007241],[14.466672,50.007133],[14.466888,50.006894],[14.467243,50.007034],[14.467662,50.006747],[14.46781,50.006778],[14.469467,50.007033],[14.469468,50.00703],[14.469648,50.006654],[14.469776,50.006387],[14.469778,50.006378],[14.469795,50.006324],[14.470046,50.005817],[14.470157,50.005593],[14.470337,50.00523],[14.470662,50.004574],[14.470805,50.004285],[14.471248,50.004378],[14.471342,50.004397],[14.471585,50.004009],[14.4716,50.003985],[14.471731,50.003776],[14.471729,50.003775],[14.469911,50.003651],[14.467196,50.003438],[14.46664,50.003471],[14.466,50.003569],[14.465676,50.003504],[14.465448,50.00391],[14.465281,50.004168],[14.465186,50.00435],[14.465075,50.00454],[14.464966,50.004721],[14.464551,50.004621],[14.464419,50.004582],[14.463196,50.004437],[14.463267,50.004235],[14.462335,50.004117],[14.462323,50.00438],[14.462385,50.004411],[14.462352,50.004562],[14.461937,50.004662],[14.46188,50.004984],[14.46192,50.005108],[14.461985,50.005115],[14.462105,50.005148],[14.461987,50.005555],[14.461613,50.005522],[14.461577,50.005692],[14.461014,50.005624],[14.461122,50.005252],[14.461329,50.005144],[14.461644,50.005181],[14.461695,50.005009],[14.461542,50.00498],[14.461505,50.004907],[14.461514,50.004861],[14.461579,50.00482],[14.461803,50.004761],[14.461992,50.004086],[14.460395,50.0039],[14.460456,50.003678],[14.460423,50.003574],[14.460454,50.003346],[14.460521,50.003241],[14.460608,50.00318],[14.460741,50.003082],[14.460935,50.002886],[14.461066,50.002796],[14.461218,50.002748],[14.461547,50.002459],[14.460939,50.002604],[14.460437,50.002778],[14.460141,50.002715],[14.459367,50.002711],[14.458116,50.002437],[14.457124,50.002467],[14.456942,50.00246],[14.456607,50.002449],[14.45572,50.002316],[14.455543,50.002418],[14.455304,50.002551],[14.455066,50.002675],[14.454891,50.002769],[14.454663,50.002785],[14.454637,50.002774],[14.454477,50.002732],[14.453895,50.002554],[14.45343,50.002558],[14.453136,50.00255],[14.453106,50.002557],[14.453092,50.002555],[14.453012,50.002548],[14.453012,50.002548],[14.453009,50.002552],[14.45274,50.002587],[14.452579,50.002607],[14.452506,50.002617],[14.452212,50.002654],[14.451773,50.002542],[14.451549,50.002485],[14.451325,50.002429],[14.451174,50.002442],[14.45111,50.002447],[14.450448,50.002501],[14.450323,50.002516],[14.449996,50.002553],[14.449986,50.002553],[14.449933,50.002553],[14.449801,50.002553],[14.449328,50.002554],[14.449311,50.002554],[14.449287,50.002551],[14.44928,50.00255],[14.449008,50.002524],[14.448993,50.002535],[14.448968,50.002552],[14.448939,50.002572],[14.448926,50.002581],[14.44884,50.002641],[14.44884,50.002642],[14.448751,50.00287],[14.448864,50.003177],[14.448919,50.003329],[14.449035,50.003566],[14.449273,50.003639],[14.449667,50.003659],[14.449693,50.00369],[14.449753,50.003764],[14.449968,50.004025],[14.449804,50.004398],[14.449728,50.004405],[14.449517,50.004454],[14.449507,50.004457],[14.4495,50.004533],[14.449496,50.004572],[14.449541,50.004877],[14.449564,50.005033],[14.449588,50.005189],[14.449603,50.005289],[14.449633,50.005514],[14.449709,50.006026],[14.449725,50.00614],[14.449454,50.006189],[14.44908,50.006256],[14.44887,50.00629],[14.448851,50.006293],[14.448814,50.006296],[14.448705,50.006309],[14.448227,50.006398],[14.448193,50.006403],[14.447799,50.006469],[14.447593,50.0065],[14.447475,50.006518],[14.447119,50.006573],[14.44686,50.006622],[14.446865,50.006634],[14.446953,50.006616],[14.447157,50.006583],[14.447377,50.006545],[14.447513,50.00652],[14.447522,50.006517],[14.44773,50.006485],[14.447983,50.006442],[14.448109,50.006426],[14.448428,50.006381],[14.448552,50.006365],[14.448585,50.006361],[14.44884,50.006331],[14.44904,50.006308],[14.449241,50.006289],[14.449241,50.006288],[14.449447,50.006269],[14.449625,50.006255],[14.449682,50.00625],[14.449796,50.006241],[14.450073,50.006224],[14.450352,50.006209],[14.450631,50.006196],[14.45091,50.006183],[14.451189,50.00617],[14.451467,50.006157],[14.451744,50.006144],[14.452022,50.006131],[14.452301,50.006119],[14.452585,50.006107],[14.452859,50.006092],[14.45299,50.006086],[14.453166,50.006065],[14.45316,50.006047],[14.453337,50.006027],[14.453405,50.006023],[14.45383,50.006004],[14.453968,50.005998],[14.454107,50.005991],[14.454108,50.006009],[14.454246,50.006013],[14.45431,50.006015],[14.454525,50.005995],[14.454803,50.00597],[14.455081,50.005957],[14.455359,50.005945],[14.455358,50.005921],[14.455391,50.005901],[14.455828,50.00588],[14.455968,50.005873],[14.456011,50.005871],[14.456304,50.005968],[14.45636,50.005977],[14.456394,50.005988],[14.456552,50.006047],[14.456567,50.006051],[14.456594,50.006069],[14.456593,50.00609],[14.456594,50.006118],[14.456563,50.00612],[14.456231,50.006134],[14.456143,50.006159],[14.456072,50.006194],[14.456021,50.006251],[14.456036,50.006341],[14.456065,50.006543],[14.456092,50.006722],[14.456118,50.006901],[14.456141,50.007054],[14.456148,50.007104],[14.456164,50.007211],[14.456172,50.007269],[14.456203,50.007481],[14.456228,50.007655],[14.456277,50.007987],[14.456297,50.008125],[14.456199,50.008359],[14.456173,50.008419],[14.456107,50.008574],[14.456019,50.008784],[14.456012,50.0088],[14.456016,50.008801],[14.456016,50.008804]]]}},{"type":"Feature","properties":{"cislo":38006,"kod":26053,"mestskaCast":"praha-libus"},"geometry":{"type":"Polygon","coordinates":[[[14.469467,50.007033],[14.46781,50.006778],[14.467662,50.006747],[14.467243,50.007034],[14.466888,50.006894],[14.466672,50.007133],[14.466942,50.007241],[14.466689,50.007414],[14.466516,50.007698],[14.466157,50.008393],[14.466609,50.008587],[14.466227,50.009324],[14.465997,50.009277],[14.465186,50.008987],[14.464794,50.008907],[14.464664,50.009123],[14.464405,50.009281],[14.464039,50.009213],[14.463907,50.009174],[14.463877,50.009117],[14.463391,50.009019],[14.463301,50.008975],[14.463032,50.008915],[14.462784,50.008848],[14.462486,50.009327],[14.462415,50.009424],[14.462294,50.009365],[14.462257,50.009392],[14.462139,50.009485],[14.462371,50.009596],[14.462292,50.009667],[14.462051,50.009557],[14.461686,50.009851],[14.461548,50.009952],[14.461432,50.010026],[14.461147,50.010101],[14.461088,50.010185],[14.461072,50.010249],[14.460984,50.010403],[14.460889,50.010529],[14.460839,50.010569],[14.460686,50.010689],[14.460609,50.01075],[14.460508,50.010812],[14.460382,50.010913],[14.459922,50.010829],[14.459747,50.010986],[14.460196,50.011125],[14.460062,50.011278],[14.460551,50.011418],[14.460334,50.011712],[14.459634,50.011481],[14.45955,50.011594],[14.459678,50.011779],[14.459651,50.011839],[14.458438,50.011433],[14.458575,50.011272],[14.45835,50.011197],[14.458233,50.01136],[14.457957,50.011534],[14.457864,50.011563],[14.457806,50.011639],[14.458248,50.011785],[14.45844,50.011556],[14.45955,50.011921],[14.45941,50.012103],[14.45928,50.012258],[14.459673,50.012458],[14.459962,50.012556],[14.459756,50.0128],[14.459606,50.012841],[14.459478,50.012984],[14.458432,50.012634],[14.458372,50.012617],[14.457766,50.012461],[14.457108,50.012295],[14.456451,50.012127],[14.456287,50.012495],[14.45613,50.01285],[14.456073,50.012967],[14.455988,50.01307],[14.456207,50.013008],[14.456378,50.013055],[14.456386,50.013196],[14.456499,50.013223],[14.456857,50.013305],[14.456863,50.013324],[14.456922,50.01334],[14.457008,50.013192],[14.456477,50.013058],[14.45667,50.012747],[14.457644,50.012813],[14.457797,50.012527],[14.458117,50.01261],[14.458331,50.012708],[14.458433,50.012746],[14.458572,50.012798],[14.458624,50.012821],[14.458568,50.013027],[14.458559,50.013067],[14.458447,50.013201],[14.458232,50.013265],[14.458141,50.013301],[14.457996,50.013462],[14.458159,50.013621],[14.457865,50.014069],[14.457952,50.014093],[14.457923,50.014166],[14.457956,50.014173],[14.457921,50.014252],[14.45789,50.014247],[14.457868,50.0143],[14.457621,50.01425],[14.45757,50.014599],[14.458562,50.014809],[14.458662,50.01483],[14.458941,50.014884],[14.45913,50.01491],[14.459482,50.014939],[14.45994,50.014976],[14.460163,50.014986],[14.460302,50.014991],[14.460327,50.014991],[14.460328,50.014991],[14.460317,50.015018],[14.460552,50.015061],[14.460626,50.015074],[14.460691,50.015086],[14.460694,50.015086],[14.460731,50.014991],[14.460747,50.014991],[14.460779,50.014991],[14.461165,50.015039],[14.46134,50.015061],[14.462043,50.015249],[14.462192,50.015289],[14.462235,50.015304],[14.462302,50.015326],[14.462312,50.01533],[14.462903,50.015532],[14.463305,50.01565],[14.463698,50.015766],[14.463728,50.015775],[14.463822,50.015802],[14.463825,50.015803],[14.463946,50.015839],[14.464012,50.015858],[14.46433,50.015969],[14.464362,50.01598],[14.46438,50.015936],[14.46447,50.015721],[14.464502,50.015646],[14.464514,50.015615],[14.464586,50.015444],[14.464611,50.015385],[14.464735,50.015089],[14.464805,50.014921],[14.464865,50.014779],[14.464914,50.014661],[14.464992,50.014475],[14.465046,50.014345],[14.464696,50.014289],[14.464622,50.014277],[14.46435,50.014234],[14.464497,50.014198],[14.464537,50.014189],[14.464787,50.014129],[14.464934,50.014078],[14.465025,50.014047],[14.465193,50.01399],[14.465369,50.013931],[14.465389,50.013924],[14.466271,50.013624],[14.466375,50.013588],[14.466465,50.01331],[14.466529,50.013176],[14.466621,50.012984],[14.466826,50.012556],[14.466996,50.012198],[14.467113,50.011952],[14.467447,50.011248],[14.467671,50.010775],[14.467895,50.010302],[14.467947,50.010197],[14.468023,50.010039],[14.468116,50.009844],[14.468179,50.009713],[14.468406,50.009239],[14.468444,50.009159],[14.46854,50.008959],[14.468668,50.008692],[14.468847,50.008317],[14.468866,50.008288],[14.469209,50.00757],[14.469362,50.007251],[14.469408,50.007155],[14.469411,50.007149],[14.469413,50.007145],[14.469467,50.007033]]]}}]}
