{"type":"FeatureCollection","features":[{"type":"Feature","properties":{"cislo":47001,"kod":27915,"mestskaCast":"praha-satalice"},"geometry":{"type":"Polygon","coordinates":[[[14.600875,50.129306],[14.601063,50.12922],[14.601306,50.129144],[14.601393,50.129123],[14.601597,50.129075],[14.601696,50.129053],[14.601751,50.12904],[14.602169,50.128947],[14.603145,50.128736],[14.604304,50.128471],[14.604393,50.128451],[14.604502,50.128428],[14.604569,50.128413],[14.604538,50.128394],[14.604475,50.128354],[14.604443,50.128333],[14.604006,50.126839],[14.603866,50.126174],[14.603852,50.126112],[14.603718,50.125222],[14.603717,50.125217],[14.603711,50.125172],[14.603643,50.124705],[14.603613,50.124554],[14.603451,50.123937],[14.603421,50.123824],[14.603244,50.12315],[14.603206,50.123003],[14.603175,50.122886],[14.603175,50.122885],[14.603174,50.12288],[14.603166,50.122847],[14.603165,50.122847],[14.603165,50.122846],[14.603157,50.122815],[14.603154,50.122802],[14.603153,50.1228],[14.603153,50.122798],[14.603152,50.122794],[14.603124,50.122687],[14.603123,50.122681],[14.603115,50.122654],[14.603114,50.122647],[14.603086,50.12254],[14.603085,50.122534],[14.603084,50.122531],[14.603083,50.122529],[14.603081,50.122519],[14.603072,50.122485],[14.603072,50.122484],[14.603059,50.122436],[14.603058,50.122431],[14.603008,50.122235],[14.602814,50.121483],[14.602795,50.121412],[14.602789,50.12139],[14.602764,50.121392],[14.602735,50.121395],[14.602731,50.121396],[14.602645,50.121404],[14.602638,50.121405],[14.602613,50.121396],[14.60261,50.121395],[14.602531,50.121367],[14.602522,50.121364],[14.602378,50.121397],[14.602317,50.121416],[14.602285,50.121424],[14.602053,50.121478],[14.601042,50.121714],[14.600912,50.121745],[14.60038,50.121869],[14.600225,50.121907],[14.599524,50.122077],[14.599442,50.122097],[14.598947,50.122228],[14.598652,50.122297],[14.597998,50.122457],[14.597974,50.122462],[14.597925,50.122471],[14.5969,50.122659],[14.596892,50.12266],[14.595851,50.122791],[14.594789,50.122829],[14.594745,50.12283],[14.593349,50.122809],[14.593348,50.122809],[14.593201,50.122807],[14.593199,50.122806],[14.593109,50.122806],[14.593083,50.122806],[14.592624,50.122804],[14.59213,50.122802],[14.592092,50.122802],[14.591956,50.122801],[14.591783,50.122802],[14.591857,50.122739],[14.59186,50.122736],[14.591868,50.122729],[14.591985,50.122614],[14.592099,50.122471],[14.592219,50.122277],[14.592247,50.122219],[14.592528,50.121532],[14.59284,50.120696],[14.59284,50.120696],[14.592685,50.120696],[14.591377,50.120704],[14.59097,50.120706],[14.590916,50.120706],[14.590908,50.120706],[14.590894,50.120706],[14.590608,50.120708],[14.590596,50.120708],[14.590576,50.120708],[14.590541,50.120708],[14.590037,50.120711],[14.589981,50.120712],[14.589952,50.120712],[14.589927,50.120712],[14.589635,50.120713],[14.589617,50.120714],[14.589581,50.120714],[14.589566,50.120714],[14.589239,50.120716],[14.589214,50.120716],[14.589206,50.120716],[14.589178,50.120716],[14.589067,50.120717],[14.588335,50.120721],[14.587217,50.120727],[14.587125,50.120728],[14.58712,50.12035],[14.587106,50.119226],[14.587104,50.119117],[14.587103,50.118994],[14.587101,50.118883],[14.587101,50.118854],[14.5871,50.118754],[14.587099,50.118723],[14.587098,50.118644],[14.587098,50.118582],[14.587087,50.117639],[14.587082,50.117184],[14.587082,50.117177],[14.586496,50.11718],[14.584906,50.11719],[14.584878,50.11719],[14.583853,50.117195],[14.582263,50.117203],[14.582203,50.117203],[14.581942,50.117204],[14.581874,50.117205],[14.581645,50.117206],[14.580916,50.11721],[14.580264,50.117213],[14.579876,50.117215],[14.57988,50.117265],[14.5799,50.117525],[14.5799,50.11766],[14.5799,50.117979],[14.579887,50.1181],[14.579865,50.118305],[14.579762,50.118478],[14.579713,50.118731],[14.579712,50.118733],[14.579696,50.11873],[14.57969,50.118729],[14.57952,50.118711],[14.579049,50.118659],[14.579044,50.118658],[14.578747,50.118602],[14.577367,50.118343],[14.576611,50.118227],[14.576608,50.118226],[14.576568,50.11822],[14.576298,50.11784],[14.576042,50.117593],[14.57595,50.117532],[14.575946,50.11753],[14.575945,50.117529],[14.575944,50.117529],[14.575933,50.117522],[14.57583,50.117454],[14.575824,50.117456],[14.575809,50.11746],[14.575796,50.117464],[14.575735,50.11748],[14.575731,50.117481],[14.575482,50.117549],[14.575477,50.11755],[14.575473,50.117551],[14.573929,50.117968],[14.573138,50.118182],[14.569558,50.11915],[14.56897,50.119309],[14.568916,50.119324],[14.568071,50.119552],[14.568006,50.11957],[14.567897,50.119599],[14.567503,50.119706],[14.567415,50.11973],[14.566571,50.119958],[14.566505,50.119976],[14.566447,50.11999],[14.566395,50.120003],[14.565289,50.120274],[14.565209,50.120286],[14.565189,50.120289],[14.56508,50.120305],[14.565024,50.120321],[14.564782,50.120393],[14.564735,50.120408],[14.564726,50.120411],[14.564608,50.120446],[14.564583,50.120453],[14.564579,50.120454],[14.564555,50.120462],[14.563778,50.120694],[14.563675,50.120704],[14.563618,50.12071],[14.563572,50.120714],[14.563482,50.120723],[14.562565,50.120579],[14.562549,50.120621],[14.562549,50.120624],[14.562604,50.120996],[14.562687,50.121448],[14.562774,50.121789],[14.563042,50.122512],[14.563156,50.12282],[14.563613,50.123739],[14.564042,50.124708],[14.564076,50.12474],[14.56314,50.12501],[14.562261,50.125264],[14.562321,50.125381],[14.562337,50.125412],[14.562344,50.125435],[14.562409,50.12563],[14.562409,50.125632],[14.56241,50.125634],[14.562411,50.125637],[14.562425,50.12568],[14.562426,50.125683],[14.562426,50.125684],[14.562427,50.125688],[14.56246,50.125786],[14.562477,50.125843],[14.56255,50.126084],[14.56252,50.126086],[14.562495,50.126088],[14.562282,50.126105],[14.562099,50.126119],[14.562002,50.126127],[14.561885,50.126136],[14.561893,50.126188],[14.561893,50.126191],[14.561894,50.126197],[14.5619,50.126233],[14.56191,50.126301],[14.561911,50.126303],[14.561912,50.12631],[14.561914,50.126326],[14.561914,50.126327],[14.561914,50.126329],[14.561919,50.126356],[14.561919,50.126357],[14.56192,50.126361],[14.561922,50.126377],[14.561922,50.126377],[14.561922,50.126379],[14.561924,50.126391],[14.561926,50.126402],[14.561934,50.126453],[14.561935,50.12646],[14.561937,50.126476],[14.56194,50.126493],[14.56263,50.126441],[14.563017,50.126406],[14.56307,50.126763],[14.563098,50.126968],[14.563214,50.127543],[14.563285,50.127828],[14.563308,50.127886],[14.563313,50.127899],[14.563332,50.127946],[14.563333,50.127949],[14.563346,50.127983],[14.563348,50.127989],[14.563368,50.128039],[14.563373,50.128051],[14.563743,50.128973],[14.563781,50.129133],[14.563877,50.129539],[14.563454,50.129595],[14.563338,50.129611],[14.563342,50.129656],[14.563548,50.132328],[14.563563,50.132636],[14.563578,50.132967],[14.563986,50.132987],[14.564487,50.133012],[14.564588,50.133017],[14.565046,50.133054],[14.565389,50.133081],[14.565403,50.133083],[14.565413,50.133083],[14.565422,50.133084],[14.565569,50.133096],[14.565767,50.133112],[14.565896,50.133122],[14.565961,50.133124],[14.566037,50.13313],[14.566048,50.133131],[14.566508,50.133215],[14.566888,50.133283],[14.56695,50.133271],[14.567126,50.133237],[14.567363,50.133191],[14.567405,50.133194],[14.567417,50.133195],[14.567534,50.133203],[14.567618,50.133308],[14.567753,50.133477],[14.567986,50.133772],[14.568014,50.133808],[14.567745,50.13396],[14.567682,50.133994],[14.567626,50.134027],[14.56776,50.134082],[14.567905,50.134141],[14.567923,50.134148],[14.568203,50.134364],[14.568336,50.134434],[14.568679,50.13451],[14.568951,50.134553],[14.569081,50.134573],[14.570734,50.13473],[14.571093,50.134749],[14.571303,50.134772],[14.571463,50.134812],[14.571799,50.134931],[14.572126,50.135019],[14.572381,50.135046],[14.572952,50.135075],[14.573939,50.135121],[14.574048,50.135147],[14.574146,50.135213],[14.574541,50.135569],[14.574811,50.135903],[14.574846,50.136097],[14.575542,50.135208],[14.575866,50.134772],[14.575979,50.134546],[14.576163,50.134492],[14.576248,50.134483],[14.57761,50.134136],[14.579552,50.133608],[14.579702,50.133566],[14.579757,50.133551],[14.579882,50.133515],[14.580492,50.133349],[14.580817,50.133309],[14.581652,50.13326],[14.583565,50.133237],[14.583639,50.130946],[14.583701,50.130956],[14.58408,50.12997],[14.584139,50.129995],[14.584155,50.130001],[14.585929,50.130469],[14.586797,50.130686],[14.587426,50.130823],[14.587492,50.130659],[14.58764,50.130603],[14.588291,50.129638],[14.588312,50.129603],[14.588335,50.129566],[14.588358,50.129528],[14.588364,50.12953],[14.588493,50.129567],[14.588738,50.129653],[14.589152,50.129311],[14.589627,50.128894],[14.589793,50.128725],[14.58994,50.12849],[14.590104,50.128519],[14.590136,50.128524],[14.590448,50.128553],[14.590749,50.128576],[14.591159,50.128601],[14.591364,50.128613],[14.592334,50.128615],[14.592901,50.128602],[14.593209,50.12863],[14.593518,50.128657],[14.593843,50.128686],[14.593881,50.128689],[14.594254,50.12874],[14.594731,50.128801],[14.594883,50.128814],[14.595252,50.128846],[14.595268,50.128848],[14.595291,50.128669],[14.595276,50.128458],[14.595201,50.128084],[14.595184,50.128001],[14.595239,50.127997],[14.595837,50.127954],[14.595894,50.127949],[14.596191,50.12793],[14.597924,50.12779],[14.598019,50.128121],[14.598152,50.128661],[14.59822,50.12932],[14.59911,50.129349],[14.599701,50.129332],[14.60078,50.129214],[14.60081,50.129243],[14.600853,50.129285],[14.600875,50.129306]]]}}]}
