{"type":"FeatureCollection","features":[{"type":"Feature","properties":{"cislo":7001,"kod":26055,"mestskaCast":"praha-7"},"geometry":{"type":"Polygon","coordinates":[[[14.437626,50.115764],[14.437633,50.115785],[14.437688,50.115782],[14.440725,50.115968],[14.441771,50.115814],[14.441773,50.115784],[14.442132,50.115708],[14.442177,50.115698],[14.44254,50.115615],[14.442867,50.11553],[14.444682,50.115083],[14.445378,50.114863],[14.445391,50.114486],[14.44532,50.113418],[14.445492,50.113425],[14.445531,50.113422],[14.44769,50.113289],[14.448787,50.113178],[14.448787,50.113178],[14.448787,50.113177],[14.448455,50.111886],[14.44838,50.111643],[14.448343,50.111486],[14.448296,50.111309],[14.448249,50.111133],[14.448206,50.110938],[14.448155,50.11078],[14.448125,50.110659],[14.448138,50.11066],[14.448458,50.110616],[14.448662,50.110588],[14.448764,50.11057],[14.448362,50.110008],[14.448147,50.110089],[14.448056,50.10999],[14.447886,50.109794],[14.447902,50.109786],[14.44801,50.109741],[14.448116,50.109705],[14.448072,50.109647],[14.447959,50.109519],[14.447787,50.109331],[14.447675,50.109194],[14.447424,50.108918],[14.44729,50.108752],[14.447198,50.108653],[14.447182,50.108661],[14.44689,50.108771],[14.446571,50.108879],[14.446279,50.108989],[14.446003,50.109092],[14.445804,50.109165],[14.445743,50.109187],[14.445518,50.109249],[14.445321,50.109313],[14.445276,50.109327],[14.445108,50.109385],[14.444956,50.109435],[14.444702,50.109504],[14.444585,50.109521],[14.444427,50.109534],[14.444301,50.109532],[14.44419,50.109522],[14.444083,50.109494],[14.443964,50.109457],[14.443807,50.109397],[14.443728,50.109372],[14.443678,50.109341],[14.443488,50.109242],[14.443323,50.109155],[14.443325,50.109146],[14.443136,50.109039],[14.44306,50.108996],[14.442947,50.108931],[14.442784,50.108835],[14.442625,50.108721],[14.442482,50.1086],[14.442458,50.108579],[14.44233,50.10845],[14.442308,50.108421],[14.44222,50.108304],[14.44221,50.108285],[14.442117,50.108195],[14.442047,50.108126],[14.442015,50.108077],[14.441953,50.108036],[14.441885,50.107957],[14.441853,50.107909],[14.441851,50.107854],[14.441836,50.107726],[14.441838,50.107717],[14.441786,50.107495],[14.441741,50.107309],[14.441725,50.107253],[14.441696,50.107124],[14.441606,50.106952],[14.441574,50.106904],[14.441528,50.106855],[14.441516,50.106845],[14.441361,50.106776],[14.44111,50.106763],[14.440833,50.106739],[14.440582,50.106726],[14.440261,50.106706],[14.440066,50.106698],[14.439941,50.106687],[14.439692,50.106665],[14.439525,50.106651],[14.439413,50.10665],[14.43926,50.106636],[14.438873,50.106602],[14.438502,50.106551],[14.438227,50.106518],[14.437948,50.106502],[14.437707,50.106508],[14.43752,50.106528],[14.437403,50.106545],[14.437261,50.10655],[14.437128,50.106575],[14.437006,50.106619],[14.436943,50.106649],[14.436928,50.106657],[14.436843,50.106722],[14.436641,50.106877],[14.436474,50.106998],[14.436356,50.107087],[14.436398,50.107155],[14.43643,50.107203],[14.436482,50.107289],[14.436576,50.107443],[14.436723,50.107683],[14.436841,50.107856],[14.436881,50.107932],[14.436955,50.108112],[14.437032,50.108282],[14.437078,50.108395],[14.437123,50.108517],[14.437198,50.108696],[14.437236,50.108781],[14.437296,50.108895],[14.43742,50.109106],[14.437407,50.109104],[14.437493,50.109293],[14.437558,50.109453],[14.437569,50.109663],[14.437521,50.109822],[14.43742,50.110031],[14.437346,50.110179],[14.437247,50.110315],[14.437194,50.110365],[14.436931,50.110669],[14.436857,50.110753],[14.436788,50.11081],[14.436666,50.110854],[14.436322,50.110878],[14.435913,50.110878],[14.43546,50.110884],[14.43515,50.110883],[14.435051,50.110884],[14.435035,50.110891],[14.434889,50.110915],[14.434873,50.110922],[14.434796,50.110952],[14.434743,50.111002],[14.434727,50.111009],[14.434655,50.111148],[14.434642,50.111211],[14.434607,50.111307],[14.434555,50.111484],[14.434482,50.111696],[14.43443,50.111873],[14.434386,50.112014],[14.434385,50.112015],[14.434455,50.112025],[14.435304,50.11215],[14.438097,50.112651],[14.437774,50.113365],[14.437769,50.113378],[14.437765,50.113388],[14.437745,50.113422],[14.43765,50.113591],[14.437571,50.113727],[14.437546,50.113809],[14.437544,50.113816],[14.437528,50.113869],[14.437527,50.113871],[14.437524,50.11388],[14.437511,50.113923],[14.437499,50.113964],[14.437476,50.114015],[14.437472,50.114023],[14.437452,50.114067],[14.437409,50.114404],[14.43733,50.115029],[14.437322,50.115099],[14.437295,50.11532],[14.437291,50.11535],[14.43728,50.115433],[14.437273,50.11549],[14.437286,50.115488],[14.437406,50.11547],[14.437515,50.115454],[14.437517,50.115459],[14.437612,50.115725],[14.437615,50.115735],[14.437626,50.115764]]]}},{"type":"Feature","properties":{"cislo":7002,"kod":26057,"mestskaCast":"praha-7"},"geometry":{"type":"Polygon","coordinates":[[[14.442015,50.108077],[14.442047,50.108126],[14.442117,50.108195],[14.44221,50.108285],[14.44222,50.108304],[14.442308,50.108421],[14.44233,50.10845],[14.442458,50.108579],[14.442482,50.1086],[14.442625,50.108721],[14.442784,50.108835],[14.442947,50.108931],[14.44306,50.108996],[14.443136,50.109039],[14.443325,50.109146],[14.443323,50.109155],[14.443488,50.109242],[14.443678,50.109341],[14.443728,50.109372],[14.443807,50.109397],[14.443964,50.109457],[14.444083,50.109494],[14.44419,50.109522],[14.444301,50.109532],[14.444427,50.109534],[14.444585,50.109521],[14.444702,50.109504],[14.444956,50.109435],[14.445108,50.109385],[14.445276,50.109327],[14.445321,50.109313],[14.445518,50.109249],[14.445743,50.109187],[14.445804,50.109165],[14.446003,50.109092],[14.446279,50.108989],[14.446571,50.108879],[14.44689,50.108771],[14.447182,50.108661],[14.447198,50.108653],[14.44729,50.108752],[14.447424,50.108918],[14.447675,50.109194],[14.447787,50.109331],[14.447959,50.109519],[14.448072,50.109647],[14.448116,50.109705],[14.44801,50.109741],[14.447902,50.109786],[14.447886,50.109794],[14.448056,50.10999],[14.448147,50.110089],[14.448362,50.110008],[14.448764,50.11057],[14.448662,50.110588],[14.448458,50.110616],[14.448138,50.11066],[14.448125,50.110659],[14.448155,50.11078],[14.448206,50.110938],[14.448249,50.111133],[14.448296,50.111309],[14.448343,50.111486],[14.44838,50.111643],[14.448455,50.111886],[14.448787,50.113177],[14.448787,50.113178],[14.448787,50.113178],[14.449285,50.113128],[14.449424,50.113124],[14.449483,50.113123],[14.449517,50.113122],[14.451229,50.113079],[14.453108,50.11288],[14.454294,50.112475],[14.45626,50.111568],[14.457161,50.110937],[14.457161,50.110937],[14.45272,50.109295],[14.452415,50.109068],[14.452043,50.108763],[14.451763,50.10862],[14.45148,50.108359],[14.451917,50.108162],[14.451033,50.107213],[14.450375,50.107454],[14.45013,50.107542],[14.449826,50.107578],[14.449206,50.107641],[14.448848,50.107664],[14.448489,50.107696],[14.448003,50.107726],[14.447556,50.107768],[14.447212,50.107792],[14.447068,50.107807],[14.446768,50.107826],[14.44661,50.107839],[14.446181,50.107864],[14.44608,50.107874],[14.44575,50.107899],[14.44539,50.107931],[14.445173,50.107957],[14.444875,50.107967],[14.444845,50.107973],[14.44443,50.108],[14.444001,50.108026],[14.443659,50.108041],[14.443389,50.108054],[14.443189,50.108063],[14.443161,50.108061],[14.442679,50.108073],[14.442454,50.108071],[14.442369,50.108072],[14.442127,50.108078],[14.442015,50.108077]]]}},{"type":"Feature","properties":{"cislo":7003,"kod":26059,"mestskaCast":"praha-7"},"geometry":{"type":"Polygon","coordinates":[[[14.442015,50.108077],[14.442127,50.108078],[14.442369,50.108072],[14.442454,50.108071],[14.442679,50.108073],[14.443161,50.108061],[14.443189,50.108063],[14.443389,50.108054],[14.443659,50.108041],[14.444001,50.108026],[14.44443,50.108],[14.444845,50.107973],[14.444875,50.107967],[14.445173,50.107957],[14.44539,50.107931],[14.44575,50.107899],[14.44608,50.107874],[14.446181,50.107864],[14.44661,50.107839],[14.446768,50.107826],[14.447068,50.107807],[14.447212,50.107792],[14.447556,50.107768],[14.448003,50.107726],[14.448489,50.107696],[14.448848,50.107664],[14.449206,50.107641],[14.449826,50.107578],[14.449861,50.106755],[14.446752,50.106686],[14.446828,50.105035],[14.443098,50.104988],[14.442957,50.105384],[14.442243,50.106809],[14.441361,50.106776],[14.441516,50.106845],[14.441528,50.106855],[14.441574,50.106904],[14.441606,50.106952],[14.441696,50.107124],[14.441725,50.107253],[14.441741,50.107309],[14.441786,50.107495],[14.441838,50.107717],[14.441836,50.107726],[14.441851,50.107854],[14.441853,50.107909],[14.441885,50.107957],[14.441953,50.108036],[14.442015,50.108077]]]}},{"type":"Feature","properties":{"cislo":7004,"kod":26061,"mestskaCast":"praha-7"},"geometry":{"type":"Polygon","coordinates":[[[14.446828,50.105035],[14.446752,50.106686],[14.449861,50.106755],[14.449826,50.107578],[14.45013,50.107542],[14.450375,50.107454],[14.451033,50.107213],[14.452364,50.106718],[14.452413,50.105111],[14.449906,50.105089],[14.446828,50.105035]]]}},{"type":"Feature","properties":{"cislo":7005,"kod":26063,"mestskaCast":"praha-7"},"geometry":{"type":"Polygon","coordinates":[[[14.452364,50.106718],[14.455252,50.105625],[14.455883,50.105229],[14.455861,50.10429],[14.454117,50.104263],[14.454072,50.105139],[14.452413,50.105111],[14.452364,50.106718]]]}},{"type":"Feature","properties":{"cislo":7006,"kod":26065,"mestskaCast":"praha-7"},"geometry":{"type":"Polygon","coordinates":[[[14.459971,50.103354],[14.459967,50.103346],[14.459967,50.103346],[14.454125,50.103302],[14.454123,50.104173],[14.452438,50.104197],[14.452413,50.105111],[14.454072,50.105139],[14.454117,50.104263],[14.455861,50.10429],[14.455883,50.105229],[14.456645,50.105312],[14.460525,50.106134],[14.46051,50.104728],[14.460005,50.103443],[14.460005,50.103442],[14.460004,50.10344],[14.459995,50.103417],[14.459993,50.103411],[14.459992,50.10341],[14.459976,50.103369],[14.459971,50.103354]]]}},{"type":"Feature","properties":{"cislo":7007,"kod":26067,"mestskaCast":"praha-7"},"geometry":{"type":"Polygon","coordinates":[[[14.449973,50.103253],[14.449906,50.105089],[14.452413,50.105111],[14.452438,50.104197],[14.454123,50.104173],[14.454125,50.103302],[14.459967,50.103346],[14.459967,50.103346],[14.459967,50.103344],[14.45996,50.103327],[14.459958,50.103322],[14.459941,50.103279],[14.459941,50.103278],[14.459929,50.103249],[14.459928,50.103246],[14.459883,50.103131],[14.458861,50.101748],[14.458592,50.101537],[14.457489,50.100671],[14.455244,50.099481],[14.454856,50.099339],[14.454256,50.099119],[14.454256,50.099119],[14.454255,50.099121],[14.45418,50.101918],[14.452565,50.101885],[14.45249,50.103294],[14.449973,50.103253]]]}},{"type":"Feature","properties":{"cislo":7008,"kod":26069,"mestskaCast":"praha-7"},"geometry":{"type":"Polygon","coordinates":[[[14.454256,50.099119],[14.452754,50.09857],[14.450619,50.09795],[14.44882,50.096751],[14.447425,50.096354],[14.446728,50.096155],[14.444522,50.09528],[14.441557,50.094707],[14.441523,50.0947],[14.441504,50.094699],[14.441402,50.094691],[14.441388,50.09469],[14.441388,50.09469],[14.440364,50.098892],[14.441415,50.101699],[14.443034,50.101851],[14.444844,50.101766],[14.444897,50.10079],[14.447,50.100722],[14.450067,50.10063],[14.449973,50.103253],[14.45249,50.103294],[14.452565,50.101885],[14.45418,50.101918],[14.454255,50.099121],[14.454256,50.099119],[14.454256,50.099119]]]}},{"type":"Feature","properties":{"cislo":7009,"kod":26071,"mestskaCast":"praha-7"},"geometry":{"type":"Polygon","coordinates":[[[14.446908,50.1032],[14.446938,50.103194],[14.449959,50.103252],[14.449973,50.103253],[14.450067,50.10063],[14.447,50.100722],[14.44695,50.101816],[14.446908,50.1032]]]}},{"type":"Feature","properties":{"cislo":7010,"kod":26073,"mestskaCast":"praha-7"},"geometry":{"type":"Polygon","coordinates":[[[14.444844,50.101766],[14.445417,50.101789],[14.446768,50.101809],[14.44695,50.101816],[14.447,50.100722],[14.444897,50.10079],[14.444844,50.101766]]]}},{"type":"Feature","properties":{"cislo":7011,"kod":26075,"mestskaCast":"praha-7"},"geometry":{"type":"Polygon","coordinates":[[[14.443066,50.103152],[14.446908,50.1032],[14.44695,50.101816],[14.446768,50.101809],[14.445417,50.101789],[14.444844,50.101766],[14.443034,50.101851],[14.443066,50.103152]]]}},{"type":"Feature","properties":{"cislo":7012,"kod":26077,"mestskaCast":"praha-7"},"geometry":{"type":"Polygon","coordinates":[[[14.443098,50.104988],[14.446828,50.105035],[14.449906,50.105089],[14.449973,50.103253],[14.449959,50.103252],[14.446938,50.103194],[14.446908,50.1032],[14.443066,50.103152],[14.443098,50.104988]]]}},{"type":"Feature","properties":{"cislo":7013,"kod":26079,"mestskaCast":"praha-7"},"geometry":{"type":"Polygon","coordinates":[[[14.436356,50.107087],[14.436474,50.106998],[14.436641,50.106877],[14.436843,50.106722],[14.436928,50.106657],[14.436943,50.106649],[14.436945,50.10664],[14.436814,50.106592],[14.436564,50.106507],[14.436527,50.106485],[14.436449,50.106451],[14.436413,50.106421],[14.436371,50.106354],[14.436371,50.10629],[14.436364,50.10619],[14.436357,50.106089],[14.436359,50.10608],[14.436342,50.105897],[14.436317,50.10575],[14.4363,50.105567],[14.436297,50.105512],[14.4363,50.105431],[14.436286,50.105366],[14.436262,50.105282],[14.436264,50.105137],[14.43626,50.105091],[14.436265,50.104938],[14.436294,50.104868],[14.436353,50.104655],[14.436372,50.104566],[14.436411,50.104451],[14.436461,50.104283],[14.436511,50.104115],[14.436579,50.103931],[14.436629,50.103763],[14.436694,50.103587],[14.435677,50.103461],[14.434666,50.103308],[14.433996,50.104592],[14.431564,50.104086],[14.431739,50.104193],[14.431989,50.104342],[14.432214,50.10448],[14.432464,50.104629],[14.432576,50.104702],[14.432963,50.104936],[14.433176,50.105064],[14.433388,50.105192],[14.433476,50.105245],[14.433748,50.105423],[14.434058,50.105623],[14.434305,50.10579],[14.434565,50.105958],[14.434563,50.105967],[14.434758,50.106111],[14.435027,50.106307],[14.435233,50.106462],[14.435281,50.106502],[14.435446,50.10659],[14.435712,50.106731],[14.435976,50.106881],[14.436191,50.107],[14.436356,50.107087]]]}},{"type":"Feature","properties":{"cislo":7014,"kod":26081,"mestskaCast":"praha-7"},"geometry":{"type":"Polygon","coordinates":[[[14.434666,50.103308],[14.433393,50.103123],[14.433969,50.102212],[14.432991,50.102034],[14.432948,50.102103],[14.432276,50.103069],[14.43193,50.103565],[14.431564,50.104086],[14.433996,50.104592],[14.434666,50.103308]]]}},{"type":"Feature","properties":{"cislo":7015,"kod":26083,"mestskaCast":"praha-7"},"geometry":{"type":"Polygon","coordinates":[[[14.433969,50.102212],[14.433393,50.103123],[14.434666,50.103308],[14.435677,50.103461],[14.436694,50.103587],[14.437008,50.10278],[14.436059,50.102596],[14.435166,50.102417],[14.433969,50.102212]]]}},{"type":"Feature","properties":{"cislo":7016,"kod":26085,"mestskaCast":"praha-7"},"geometry":{"type":"Polygon","coordinates":[[[14.436943,50.106649],[14.437288,50.106289],[14.437892,50.105708],[14.438407,50.104882],[14.439611,50.101957],[14.437766,50.10174],[14.437148,50.101594],[14.436468,50.101543],[14.435348,50.101435],[14.434302,50.101379],[14.433969,50.102212],[14.435166,50.102417],[14.436059,50.102596],[14.437008,50.10278],[14.436694,50.103587],[14.436629,50.103763],[14.436579,50.103931],[14.436511,50.104115],[14.436461,50.104283],[14.436411,50.104451],[14.436372,50.104566],[14.436353,50.104655],[14.436294,50.104868],[14.436265,50.104938],[14.43626,50.105091],[14.436264,50.105137],[14.436262,50.105282],[14.436286,50.105366],[14.4363,50.105431],[14.436297,50.105512],[14.4363,50.105567],[14.436317,50.10575],[14.436342,50.105897],[14.436359,50.10608],[14.436357,50.106089],[14.436364,50.10619],[14.436371,50.10629],[14.436371,50.106354],[14.436413,50.106421],[14.436449,50.106451],[14.436527,50.106485],[14.436564,50.106507],[14.436814,50.106592],[14.436945,50.10664],[14.436943,50.106649]]]}},{"type":"Feature","properties":{"cislo":7017,"kod":26087,"mestskaCast":"praha-7"},"geometry":{"type":"Polygon","coordinates":[[[14.433969,50.102212],[14.434302,50.101379],[14.435348,50.101435],[14.435538,50.100544],[14.434639,50.100528],[14.433358,50.100515],[14.432992,50.102025],[14.432991,50.102034],[14.433969,50.102212]]]}},{"type":"Feature","properties":{"cislo":7018,"kod":26089,"mestskaCast":"praha-7"},"geometry":{"type":"Polygon","coordinates":[[[14.437148,50.101594],[14.43731,50.100574],[14.437262,50.10007],[14.435871,50.099848],[14.435823,50.100533],[14.435538,50.100544],[14.435348,50.101435],[14.436468,50.101543],[14.437148,50.101594]]]}},{"type":"Feature","properties":{"cislo":7019,"kod":26091,"mestskaCast":"praha-7"},"geometry":{"type":"Polygon","coordinates":[[[14.431903,50.099134],[14.431784,50.100485],[14.433358,50.100515],[14.434639,50.100528],[14.435538,50.100544],[14.435823,50.100533],[14.435871,50.099848],[14.434586,50.099716],[14.433329,50.099723],[14.433246,50.098926],[14.433143,50.098944],[14.43227,50.099066],[14.431917,50.099135],[14.431903,50.099134]]]}},{"type":"Feature","properties":{"cislo":7020,"kod":26093,"mestskaCast":"praha-7"},"geometry":{"type":"Polygon","coordinates":[[[14.432991,50.102034],[14.432992,50.102025],[14.433358,50.100515],[14.431784,50.100485],[14.431903,50.099134],[14.431787,50.099151],[14.431378,50.099214],[14.430867,50.099296],[14.430501,50.099355],[14.430221,50.10159],[14.430411,50.101625],[14.431104,50.10175],[14.431364,50.101791],[14.431649,50.101843],[14.431665,50.101963],[14.431505,50.102184],[14.431239,50.102569],[14.431316,50.102803],[14.432276,50.103069],[14.432948,50.102103],[14.432991,50.102034]]]}},{"type":"Feature","properties":{"cislo":7021,"kod":26095,"mestskaCast":"praha-7"},"geometry":{"type":"Polygon","coordinates":[[[14.430221,50.10159],[14.430501,50.099355],[14.430428,50.099366],[14.429801,50.099465],[14.428983,50.099593],[14.428399,50.099686],[14.427976,50.101201],[14.428127,50.101223],[14.428903,50.101355],[14.429584,50.10147],[14.430207,50.101589],[14.430221,50.10159]]]}},{"type":"Feature","properties":{"cislo":7022,"kod":26097,"mestskaCast":"praha-7"},"geometry":{"type":"Polygon","coordinates":[[[14.427976,50.101201],[14.428399,50.099686],[14.428326,50.099698],[14.427789,50.099768],[14.427423,50.099827],[14.427236,50.099846],[14.42722,50.099854],[14.426527,50.099929],[14.426225,50.099957],[14.425908,50.099983],[14.42545,50.100015],[14.425108,50.10003],[14.424883,50.100029],[14.4246,50.100031],[14.424391,50.100021],[14.424387,50.100039],[14.424349,50.100081],[14.424275,50.100165],[14.424144,50.100317],[14.424054,50.100409],[14.423956,50.100536],[14.42394,50.100544],[14.424077,50.100565],[14.424269,50.100591],[14.424763,50.100653],[14.424791,50.100656],[14.425361,50.100761],[14.425811,50.100837],[14.425824,50.100838],[14.426042,50.100875],[14.42622,50.1009],[14.42686,50.101011],[14.427105,50.101051],[14.427976,50.101201]]]}},{"type":"Feature","properties":{"cislo":7023,"kod":26099,"mestskaCast":"praha-7"},"geometry":{"type":"Polygon","coordinates":[[[14.425421,50.101801],[14.425706,50.101853],[14.426181,50.10194],[14.426385,50.101977],[14.426767,50.102038],[14.427147,50.102108],[14.427502,50.102166],[14.427692,50.102201],[14.427573,50.102427],[14.427481,50.102591],[14.42726,50.103034],[14.427232,50.103095],[14.428849,50.103256],[14.429316,50.103316],[14.429712,50.103378],[14.43012,50.10345],[14.430413,50.103531],[14.430713,50.103648],[14.43134,50.103949],[14.431564,50.104086],[14.43193,50.103565],[14.432276,50.103069],[14.431316,50.102803],[14.431239,50.102569],[14.431505,50.102184],[14.431665,50.101963],[14.431649,50.101843],[14.431364,50.101791],[14.431104,50.10175],[14.430411,50.101625],[14.430221,50.10159],[14.430207,50.101589],[14.429584,50.10147],[14.428903,50.101355],[14.428127,50.101223],[14.427976,50.101201],[14.427105,50.101051],[14.42686,50.101011],[14.42622,50.1009],[14.426042,50.100875],[14.425824,50.100838],[14.425811,50.100837],[14.425421,50.101801]]]}},{"type":"Feature","properties":{"cislo":7024,"kod":26101,"mestskaCast":"praha-7"},"geometry":{"type":"Polygon","coordinates":[[[14.434385,50.112015],[14.434386,50.112014],[14.43443,50.111873],[14.434482,50.111696],[14.434555,50.111484],[14.434607,50.111307],[14.434642,50.111211],[14.434655,50.111148],[14.434727,50.111009],[14.434743,50.111002],[14.434796,50.110952],[14.434873,50.110922],[14.434889,50.110915],[14.435035,50.110891],[14.435051,50.110884],[14.43515,50.110883],[14.43546,50.110884],[14.435913,50.110878],[14.436322,50.110878],[14.436666,50.110854],[14.436788,50.11081],[14.436857,50.110753],[14.436931,50.110669],[14.437194,50.110365],[14.437247,50.110315],[14.437346,50.110179],[14.43742,50.110031],[14.437521,50.109822],[14.437569,50.109663],[14.437558,50.109453],[14.437493,50.109293],[14.437407,50.109104],[14.43742,50.109106],[14.437296,50.108895],[14.437236,50.108781],[14.437198,50.108696],[14.437123,50.108517],[14.437078,50.108395],[14.437032,50.108282],[14.436955,50.108112],[14.436881,50.107932],[14.436841,50.107856],[14.436723,50.107683],[14.436576,50.107443],[14.436482,50.107289],[14.43643,50.107203],[14.436398,50.107155],[14.436356,50.107087],[14.436191,50.107],[14.435976,50.106881],[14.435712,50.106731],[14.435446,50.10659],[14.435281,50.106502],[14.435233,50.106462],[14.435027,50.106307],[14.434758,50.106111],[14.434563,50.105967],[14.434565,50.105958],[14.434305,50.10579],[14.434058,50.105623],[14.433748,50.105423],[14.433476,50.105245],[14.433388,50.105192],[14.433176,50.105064],[14.432963,50.104936],[14.432576,50.104702],[14.432464,50.104629],[14.432214,50.10448],[14.431989,50.104342],[14.431739,50.104193],[14.431564,50.104086],[14.43134,50.103949],[14.430713,50.103648],[14.430413,50.103531],[14.43012,50.10345],[14.429712,50.103378],[14.429316,50.103316],[14.428849,50.103256],[14.427232,50.103095],[14.42726,50.103034],[14.427481,50.102591],[14.427573,50.102427],[14.427692,50.102201],[14.427502,50.102166],[14.427147,50.102108],[14.426767,50.102038],[14.426385,50.101977],[14.426181,50.10194],[14.425706,50.101853],[14.425421,50.101801],[14.425407,50.101799],[14.425243,50.101776],[14.424752,50.101696],[14.424451,50.101651],[14.424192,50.10161],[14.423578,50.10151],[14.423497,50.101494],[14.423453,50.101699],[14.423396,50.101966],[14.423323,50.102241],[14.423287,50.10241],[14.423204,50.10273],[14.423019,50.102741],[14.422875,50.102755],[14.42279,50.102757],[14.422489,50.102775],[14.422145,50.102799],[14.42176,50.10282],[14.421602,50.102833],[14.421531,50.102836],[14.421416,50.102844],[14.421029,50.102873],[14.420584,50.102906],[14.420284,50.102925],[14.420053,50.10295],[14.419664,50.102988],[14.41962,50.102993],[14.419328,50.10304],[14.419022,50.103086],[14.418643,50.103143],[14.41837,50.103164],[14.418165,50.103137],[14.41816,50.10314],[14.418161,50.10314],[14.417989,50.10331],[14.417881,50.103301],[14.417826,50.103314],[14.417766,50.103364],[14.417867,50.10361],[14.416628,50.103891],[14.416522,50.10393],[14.416334,50.103989],[14.416233,50.104027],[14.416049,50.104082],[14.415929,50.104118],[14.41575,50.104161],[14.415457,50.104232],[14.415205,50.104222],[14.414925,50.104165],[14.414887,50.104152],[14.414863,50.104129],[14.414782,50.104001],[14.414774,50.103996],[14.414428,50.104061],[14.414398,50.104066],[14.414338,50.104085],[14.413562,50.104168],[14.413507,50.104176],[14.413471,50.104185],[14.413365,50.10424],[14.413321,50.104263],[14.413295,50.104276],[14.4132,50.104231],[14.412867,50.104167],[14.412358,50.10407],[14.412361,50.104064],[14.411856,50.103964],[14.41185,50.103972],[14.411671,50.10394],[14.411609,50.10393],[14.411612,50.103921],[14.411545,50.103909],[14.411514,50.103913],[14.411482,50.10392],[14.411448,50.103937],[14.411436,50.103954],[14.411442,50.103956],[14.411289,50.104172],[14.411219,50.104269],[14.41114,50.104383],[14.411123,50.104407],[14.410632,50.104345],[14.41049,50.104371],[14.410389,50.104387],[14.410316,50.104398],[14.410063,50.104433],[14.410001,50.104442],[14.409721,50.104474],[14.409606,50.10449],[14.409595,50.104492],[14.40937,50.104529],[14.409321,50.104536],[14.409237,50.104549],[14.409039,50.104561],[14.408769,50.104589],[14.408583,50.104609],[14.408567,50.10461],[14.408204,50.10464],[14.408007,50.104649],[14.407963,50.104648],[14.407943,50.104647],[14.407844,50.104644],[14.407844,50.104642],[14.407708,50.104641],[14.407674,50.104641],[14.407489,50.104641],[14.407482,50.104641],[14.407471,50.104643],[14.40738,50.104752],[14.40729,50.104844],[14.407274,50.104861],[14.406916,50.105257],[14.405903,50.106381],[14.405639,50.106673],[14.405683,50.106732],[14.405699,50.106753],[14.40571,50.106768],[14.405725,50.106765],[14.406045,50.106684],[14.40611,50.106668],[14.406248,50.106633],[14.406292,50.106541],[14.406363,50.106568],[14.406495,50.106727],[14.406593,50.106685],[14.406654,50.106659],[14.406704,50.10682],[14.406649,50.106837],[14.40656,50.106855],[14.406534,50.106861],[14.406563,50.106974],[14.406564,50.106975],[14.406594,50.107227],[14.406565,50.107609],[14.406025,50.108265],[14.405766,50.108388],[14.406424,50.108522],[14.406669,50.108641],[14.406602,50.109168],[14.406641,50.109186],[14.407026,50.109382],[14.407161,50.10945],[14.407151,50.109458],[14.407989,50.109897],[14.408073,50.110301],[14.408165,50.110737],[14.408366,50.110789],[14.408263,50.111008],[14.406971,50.111086],[14.407007,50.11127],[14.405479,50.111397],[14.405527,50.111675],[14.405587,50.111693],[14.405721,50.112264],[14.405721,50.112431],[14.405803,50.112836],[14.405628,50.112948],[14.405482,50.112996],[14.405466,50.113132],[14.405346,50.113868],[14.407503,50.113453],[14.4096,50.113586],[14.411567,50.113755],[14.414198,50.114272],[14.416653,50.114518],[14.418661,50.11434],[14.420633,50.113819],[14.422324,50.113171],[14.423805,50.112655],[14.426157,50.112155],[14.427508,50.112017],[14.427927,50.111974],[14.428425,50.111923],[14.430512,50.111662],[14.432996,50.111811],[14.434322,50.112005],[14.434385,50.112015]]]}},{"type":"Feature","properties":{"cislo":7025,"kod":26103,"mestskaCast":"praha-7"},"geometry":{"type":"Polygon","coordinates":[[[14.423482,50.100377],[14.42331,50.100652],[14.423277,50.10074],[14.423019,50.101288],[14.422682,50.101413],[14.422542,50.101936],[14.422701,50.102313],[14.422738,50.102471],[14.422773,50.102701],[14.42279,50.102757],[14.422875,50.102755],[14.423019,50.102741],[14.423204,50.10273],[14.423287,50.10241],[14.423323,50.102241],[14.423396,50.101966],[14.423453,50.101699],[14.423497,50.101494],[14.423578,50.10151],[14.424192,50.10161],[14.424451,50.101651],[14.424752,50.101696],[14.425243,50.101776],[14.425407,50.101799],[14.425421,50.101801],[14.425811,50.100837],[14.425361,50.100761],[14.424791,50.100656],[14.424763,50.100653],[14.424269,50.100591],[14.424077,50.100565],[14.42394,50.100544],[14.4239,50.100532],[14.423716,50.10047],[14.423559,50.100411],[14.423482,50.100377]]]}},{"type":"Feature","properties":{"cislo":7026,"kod":26105,"mestskaCast":"praha-7"},"geometry":{"type":"Polygon","coordinates":[[[14.420092,50.101447],[14.42012,50.101449],[14.420514,50.101521],[14.420744,50.101568],[14.42088,50.101589],[14.421001,50.101355],[14.421157,50.101024],[14.421158,50.101015],[14.421442,50.101076],[14.422176,50.101205],[14.422257,50.101221],[14.422178,50.101396],[14.421581,50.102731],[14.42158,50.10274],[14.421531,50.102836],[14.421602,50.102833],[14.42176,50.10282],[14.422145,50.102799],[14.422489,50.102775],[14.42279,50.102757],[14.422773,50.102701],[14.422738,50.102471],[14.422701,50.102313],[14.422542,50.101936],[14.422682,50.101413],[14.423019,50.101288],[14.423277,50.10074],[14.42331,50.100652],[14.423482,50.100377],[14.42257,50.100024],[14.422148,50.099886],[14.421918,50.099839],[14.421669,50.099817],[14.421467,50.099835],[14.420833,50.100097],[14.419994,50.100458],[14.419343,50.100727],[14.420092,50.101447]]]}},{"type":"Feature","properties":{"cislo":7027,"kod":26107,"mestskaCast":"praha-7"},"geometry":{"type":"Polygon","coordinates":[[[14.421531,50.102836],[14.42158,50.10274],[14.421581,50.102731],[14.422178,50.101396],[14.422257,50.101221],[14.422176,50.101205],[14.421442,50.101076],[14.421158,50.101015],[14.421157,50.101024],[14.421001,50.101355],[14.42088,50.101589],[14.420744,50.101568],[14.420514,50.101521],[14.42012,50.101449],[14.420092,50.101447],[14.419891,50.101529],[14.420077,50.101718],[14.418849,50.102244],[14.418638,50.102044],[14.41853,50.102089],[14.418528,50.102098],[14.418093,50.102286],[14.417937,50.102354],[14.417716,50.102462],[14.417513,50.102553],[14.417374,50.102613],[14.417373,50.102613],[14.417949,50.102995],[14.41816,50.10314],[14.418165,50.103137],[14.41837,50.103164],[14.418643,50.103143],[14.419022,50.103086],[14.419328,50.10304],[14.41962,50.102993],[14.419664,50.102988],[14.420053,50.10295],[14.420284,50.102925],[14.420584,50.102906],[14.421029,50.102873],[14.421416,50.102844],[14.421531,50.102836]]]}},{"type":"Feature","properties":{"cislo":7028,"kod":26109,"mestskaCast":"praha-7"},"geometry":{"type":"Polygon","coordinates":[[[14.417373,50.102613],[14.417374,50.102613],[14.417513,50.102553],[14.417716,50.102462],[14.417937,50.102354],[14.418093,50.102286],[14.418528,50.102098],[14.41853,50.102089],[14.418638,50.102044],[14.418849,50.102244],[14.420077,50.101718],[14.419891,50.101529],[14.420092,50.101447],[14.419343,50.100727],[14.418876,50.100931],[14.417927,50.101346],[14.417911,50.101354],[14.416871,50.100345],[14.416873,50.100336],[14.416686,50.100419],[14.416343,50.10057],[14.416063,50.100691],[14.416018,50.100705],[14.415754,50.100818],[14.415567,50.100901],[14.415133,50.10108],[14.415132,50.101081],[14.415254,50.10117],[14.415409,50.10128],[14.415556,50.101385],[14.41598,50.101707],[14.416127,50.101832],[14.416351,50.101994],[14.416432,50.102053],[14.416611,50.102098],[14.417294,50.102561],[14.417373,50.102613]]]}},{"type":"Feature","properties":{"cislo":7029,"kod":26111,"mestskaCast":"praha-7"},"geometry":{"type":"Polygon","coordinates":[[[14.415132,50.101081],[14.415133,50.10108],[14.415567,50.100901],[14.415754,50.100818],[14.416018,50.100705],[14.416063,50.100691],[14.416343,50.10057],[14.416686,50.100419],[14.416873,50.100336],[14.416871,50.100345],[14.417911,50.101354],[14.417927,50.101346],[14.418876,50.100931],[14.419343,50.100727],[14.419994,50.100458],[14.420833,50.100097],[14.421313,50.098578],[14.421791,50.097068],[14.421451,50.097011],[14.421905,50.096534],[14.421965,50.096321],[14.422011,50.095844],[14.42246,50.094006],[14.422461,50.094001],[14.422397,50.093997],[14.420601,50.093801],[14.418641,50.093457],[14.417153,50.093072],[14.417115,50.093062],[14.417045,50.093047],[14.416492,50.093894],[14.415042,50.093445],[14.414771,50.093371],[14.414444,50.09331],[14.413917,50.093238],[14.41351,50.093167],[14.412309,50.092729],[14.411431,50.092218],[14.411473,50.092337],[14.411479,50.092355],[14.411608,50.0925],[14.411696,50.092602],[14.41172,50.092629],[14.411836,50.092766],[14.411963,50.092949],[14.412004,50.093025],[14.412055,50.093111],[14.412059,50.09311],[14.412142,50.093217],[14.412137,50.093221],[14.411953,50.09335],[14.411299,50.0938],[14.411031,50.093742],[14.411024,50.09374],[14.410985,50.093732],[14.410913,50.093716],[14.410907,50.093715],[14.410893,50.093743],[14.410808,50.093908],[14.410571,50.094371],[14.41055,50.094413],[14.410671,50.094437],[14.410677,50.094438],[14.410942,50.094492],[14.410943,50.09452],[14.410947,50.094537],[14.410953,50.09458],[14.410962,50.094654],[14.410965,50.094677],[14.411107,50.095423],[14.409637,50.095412],[14.409417,50.095127],[14.409383,50.09513],[14.409264,50.09514],[14.409208,50.095144],[14.409073,50.095155],[14.407678,50.097492],[14.407582,50.097657],[14.407585,50.097657],[14.409666,50.09796],[14.411518,50.098243],[14.411464,50.098388],[14.411385,50.0986],[14.411262,50.098731],[14.411417,50.098776],[14.411781,50.098918],[14.411859,50.098954],[14.412097,50.099067],[14.4122,50.099118],[14.412363,50.099205],[14.412393,50.099223],[14.412491,50.099279],[14.412812,50.099488],[14.413012,50.099635],[14.413292,50.099845],[14.413279,50.099853],[14.413639,50.100115],[14.414782,50.100969],[14.414789,50.100966],[14.414823,50.100998],[14.415097,50.101055],[14.415132,50.101081]]]}},{"type":"Feature","properties":{"cislo":7030,"kod":26113,"mestskaCast":"praha-7"},"geometry":{"type":"Polygon","coordinates":[[[14.42394,50.100544],[14.423956,50.100536],[14.424054,50.100409],[14.424144,50.100317],[14.424275,50.100165],[14.424349,50.100081],[14.424387,50.100039],[14.424391,50.100021],[14.42442,50.099951],[14.424503,50.099759],[14.424618,50.099488],[14.424647,50.099418],[14.424722,50.099261],[14.424829,50.099025],[14.424942,50.098763],[14.425101,50.098351],[14.425235,50.098054],[14.424948,50.09801],[14.424291,50.097916],[14.423841,50.09784],[14.422949,50.097725],[14.422727,50.097705],[14.422803,50.097485],[14.422256,50.0974],[14.422337,50.097153],[14.421791,50.097068],[14.421313,50.098578],[14.420833,50.100097],[14.421467,50.099835],[14.421669,50.099817],[14.421918,50.099839],[14.422148,50.099886],[14.42257,50.100024],[14.423482,50.100377],[14.423559,50.100411],[14.423716,50.10047],[14.4239,50.100532],[14.42394,50.100544]]]}},{"type":"Feature","properties":{"cislo":7031,"kod":26115,"mestskaCast":"praha-7"},"geometry":{"type":"Polygon","coordinates":[[[14.425235,50.098054],[14.425101,50.098351],[14.424942,50.098763],[14.424829,50.099025],[14.424722,50.099261],[14.424647,50.099418],[14.424618,50.099488],[14.424503,50.099759],[14.42442,50.099951],[14.424391,50.100021],[14.4246,50.100031],[14.424883,50.100029],[14.425108,50.10003],[14.42545,50.100015],[14.425908,50.099983],[14.426225,50.099957],[14.426527,50.099929],[14.42722,50.099854],[14.427236,50.099846],[14.427423,50.099827],[14.428049,50.098484],[14.428021,50.098482],[14.427653,50.098422],[14.4272,50.098364],[14.426776,50.098299],[14.426489,50.098256],[14.426408,50.098239],[14.42604,50.09818],[14.425494,50.098095],[14.425235,50.098054]]]}},{"type":"Feature","properties":{"cislo":7032,"kod":26117,"mestskaCast":"praha-7"},"geometry":{"type":"Polygon","coordinates":[[[14.430659,50.098289],[14.430683,50.098109],[14.430728,50.097768],[14.430761,50.097481],[14.430809,50.097122],[14.43092,50.095943],[14.431074,50.09417],[14.429273,50.094501],[14.427141,50.094323],[14.427137,50.094323],[14.427089,50.094319],[14.426853,50.094299],[14.426808,50.094295],[14.426805,50.094295],[14.426772,50.094292],[14.42677,50.094292],[14.42495,50.094173],[14.424626,50.094151],[14.422461,50.094001],[14.42246,50.094006],[14.422011,50.095844],[14.421965,50.096321],[14.421905,50.096534],[14.421451,50.097011],[14.421791,50.097068],[14.422337,50.097153],[14.422256,50.0974],[14.422803,50.097485],[14.422727,50.097705],[14.422949,50.097725],[14.423841,50.09784],[14.424291,50.097916],[14.424948,50.09801],[14.425235,50.098054],[14.425494,50.098095],[14.42604,50.09818],[14.426408,50.098239],[14.426489,50.098256],[14.426776,50.098299],[14.4272,50.098364],[14.427653,50.098422],[14.428021,50.098482],[14.428049,50.098484],[14.428459,50.098548],[14.428856,50.098601],[14.429377,50.098674],[14.429828,50.098742],[14.430416,50.09883],[14.430566,50.098852],[14.430596,50.098646],[14.43064,50.098378],[14.430659,50.098289]]]}},{"type":"Feature","properties":{"cislo":7033,"kod":26119,"mestskaCast":"praha-7"},"geometry":{"type":"Polygon","coordinates":[[[14.428049,50.098484],[14.427423,50.099827],[14.427789,50.099768],[14.428326,50.099698],[14.428399,50.099686],[14.428983,50.099593],[14.429801,50.099465],[14.430428,50.099366],[14.430501,50.099355],[14.430867,50.099296],[14.431378,50.099214],[14.431787,50.099151],[14.431903,50.099134],[14.431917,50.099135],[14.431932,50.098338],[14.430659,50.098289],[14.43064,50.098378],[14.430596,50.098646],[14.430566,50.098852],[14.430416,50.09883],[14.429828,50.098742],[14.429377,50.098674],[14.428856,50.098601],[14.428459,50.098548],[14.428049,50.098484]]]}},{"type":"Feature","properties":{"cislo":7034,"kod":26121,"mestskaCast":"praha-7"},"geometry":{"type":"Polygon","coordinates":[[[14.436943,50.106649],[14.437006,50.106619],[14.437128,50.106575],[14.437261,50.10655],[14.437403,50.106545],[14.43752,50.106528],[14.437707,50.106508],[14.437948,50.106502],[14.438227,50.106518],[14.438502,50.106551],[14.438873,50.106602],[14.43926,50.106636],[14.439413,50.10665],[14.439525,50.106651],[14.439692,50.106665],[14.439941,50.106687],[14.440066,50.106698],[14.440261,50.106706],[14.440582,50.106726],[14.440833,50.106739],[14.44111,50.106763],[14.441361,50.106776],[14.442243,50.106809],[14.442957,50.105384],[14.443098,50.104988],[14.443066,50.103152],[14.443034,50.101851],[14.441415,50.101699],[14.440364,50.098892],[14.441388,50.09469],[14.441388,50.09469],[14.441311,50.094684],[14.441206,50.094675],[14.43997,50.09458],[14.439392,50.094535],[14.437697,50.094389],[14.437333,50.094358],[14.437283,50.094354],[14.437274,50.094353],[14.437233,50.094349],[14.436936,50.094323],[14.436891,50.094319],[14.436883,50.094319],[14.436805,50.094312],[14.43677,50.094309],[14.436746,50.094307],[14.436614,50.094295],[14.435557,50.094213],[14.433897,50.094272],[14.431877,50.094022],[14.431074,50.09417],[14.43092,50.095943],[14.430809,50.097122],[14.430761,50.097481],[14.430728,50.097768],[14.430683,50.098109],[14.430659,50.098289],[14.431932,50.098338],[14.432052,50.097713],[14.43327,50.097757],[14.433256,50.098745],[14.434451,50.098896],[14.435806,50.099161],[14.435872,50.099839],[14.435871,50.099848],[14.437262,50.10007],[14.43731,50.100574],[14.437148,50.101594],[14.437766,50.10174],[14.439611,50.101957],[14.438407,50.104882],[14.437892,50.105708],[14.437288,50.106289],[14.436943,50.106649]]]}},{"type":"Feature","properties":{"cislo":7035,"kod":26123,"mestskaCast":"praha-7"},"geometry":{"type":"Polygon","coordinates":[[[14.435871,50.099848],[14.435872,50.099839],[14.435806,50.099161],[14.434451,50.098896],[14.433256,50.098745],[14.43327,50.097757],[14.432052,50.097713],[14.431932,50.098338],[14.431917,50.099135],[14.43227,50.099066],[14.433143,50.098944],[14.433246,50.098926],[14.433329,50.099723],[14.434586,50.099716],[14.435871,50.099848]]]}},{"type":"Feature","properties":{"cislo":7036,"kod":208038,"mestskaCast":"praha-7"},"geometry":{"type":"Polygon","coordinates":[[[14.457161,50.110937],[14.457826,50.110472],[14.458982,50.109326],[14.460149,50.107595],[14.460525,50.106142],[14.460525,50.106134],[14.456645,50.105312],[14.455883,50.105229],[14.455252,50.105625],[14.452364,50.106718],[14.451033,50.107213],[14.451917,50.108162],[14.45148,50.108359],[14.451763,50.10862],[14.452043,50.108763],[14.452415,50.109068],[14.45272,50.109295],[14.457161,50.110937],[14.457161,50.110937]]]}}]}
