{"type":"FeatureCollection","features":[{"type":"Feature","properties":{"cislo":19001,"kod":30657,"mestskaCast":"praha-19"},"geometry":{"type":"Polygon","coordinates":[[[14.545906,50.147178],[14.545941,50.14711],[14.546036,50.146924],[14.54604,50.146914],[14.546053,50.146888],[14.546152,50.146659],[14.546253,50.146424],[14.546353,50.146189],[14.54645,50.145963],[14.546495,50.145856],[14.546683,50.144974],[14.546686,50.144961],[14.546695,50.14496],[14.546694,50.144957],[14.546654,50.144745],[14.546661,50.144446],[14.546688,50.144249],[14.546701,50.144123],[14.54671,50.144015],[14.546718,50.143907],[14.546752,50.143683],[14.546796,50.143206],[14.546798,50.142998],[14.546814,50.142854],[14.546821,50.142355],[14.546836,50.141948],[14.54684,50.141794],[14.546848,50.141423],[14.546851,50.141342],[14.546848,50.141224],[14.546845,50.14077],[14.546901,50.140239],[14.546906,50.139949],[14.546903,50.139831],[14.546905,50.139686],[14.546913,50.13965],[14.546876,50.139221],[14.54688,50.139203],[14.546894,50.138868],[14.546899,50.138778],[14.546898,50.138651],[14.546899,50.138578],[14.546897,50.138524],[14.546899,50.138379],[14.5469,50.138306],[14.546906,50.13828],[14.546913,50.13818],[14.546917,50.138027],[14.54692,50.137945],[14.546948,50.137948],[14.547017,50.137954],[14.547102,50.137952],[14.547385,50.137949],[14.547611,50.137951],[14.54768,50.137957],[14.547687,50.137658],[14.54769,50.13764],[14.547682,50.137612],[14.547691,50.137504],[14.547693,50.137495],[14.547823,50.13748],[14.547894,50.137477],[14.54795,50.137482],[14.547992,50.137485],[14.548148,50.137481],[14.548231,50.137488],[14.548261,50.137481],[14.548288,50.137484],[14.548359,50.137481],[14.548557,50.13748],[14.548571,50.137481],[14.548656,50.13748],[14.54867,50.137481],[14.5487,50.137474],[14.548769,50.137481],[14.548771,50.137472],[14.548799,50.137474],[14.548983,50.137472],[14.54904,50.137468],[14.549123,50.137475],[14.549153,50.137469],[14.549194,50.137472],[14.549307,50.137473],[14.549422,50.137465],[14.549477,50.13747],[14.549675,50.137469],[14.549717,50.137473],[14.549803,50.137462],[14.549845,50.137466],[14.54993,50.137464],[14.550258,50.137447],[14.55026,50.137438],[14.550246,50.137374],[14.550233,50.1373],[14.550212,50.137198],[14.550174,50.136977],[14.550166,50.136949],[14.55016,50.136776],[14.550159,50.136713],[14.550157,50.136458],[14.550155,50.136331],[14.55016,50.136241],[14.550165,50.136087],[14.550162,50.136032],[14.550156,50.135996],[14.550161,50.135905],[14.550162,50.135697],[14.550165,50.135552],[14.550163,50.135361],[14.550171,50.135189],[14.550177,50.135027],[14.550035,50.135032],[14.549809,50.135031],[14.549623,50.135042],[14.549269,50.135047],[14.549284,50.134912],[14.549291,50.134813],[14.549322,50.134598],[14.549334,50.134472],[14.549347,50.134346],[14.549389,50.134014],[14.549403,50.133879],[14.54942,50.133799],[14.549433,50.133737],[14.549421,50.133727],[14.549207,50.133672],[14.549154,50.133658],[14.548884,50.133598],[14.548628,50.133539],[14.548414,50.133484],[14.5484,50.133483],[14.548337,50.133514],[14.548161,50.133544],[14.547977,50.133546],[14.547849,50.133553],[14.547681,50.133547],[14.547621,50.13356],[14.547576,50.133574],[14.547527,50.133606],[14.547511,50.133614],[14.547421,50.133706],[14.547392,50.133776],[14.547393,50.13384],[14.547363,50.133982],[14.547343,50.134144],[14.547323,50.134305],[14.547313,50.13435],[14.547303,50.134467],[14.547269,50.134627],[14.547252,50.134771],[14.547224,50.134905],[14.547204,50.135066],[14.547022,50.13506],[14.546729,50.135043],[14.546408,50.135024],[14.546046,50.135001],[14.545753,50.134985],[14.545417,50.134974],[14.545009,50.134965],[14.544855,50.134961],[14.544629,50.134959],[14.54439,50.134957],[14.544204,50.134968],[14.544162,50.134964],[14.544149,50.134963],[14.543806,50.134978],[14.543793,50.134977],[14.543563,50.134993],[14.543291,50.135015],[14.543045,50.135039],[14.542702,50.135063],[14.542356,50.135096],[14.542298,50.135101],[14.542053,50.135124],[14.541767,50.135145],[14.541395,50.135167],[14.54128,50.135175],[14.540982,50.135185],[14.540384,50.135205],[14.540242,50.135211],[14.539662,50.135215],[14.539053,50.135225],[14.538798,50.13523],[14.538685,50.135229],[14.538304,50.135232],[14.537977,50.13524],[14.537694,50.135242],[14.53734,50.135248],[14.537002,50.135245],[14.536492,50.135255],[14.536025,50.13526],[14.535572,50.135266],[14.535567,50.135266],[14.535567,50.135266],[14.535566,50.135295],[14.53557,50.135304],[14.535605,50.135712],[14.535683,50.136254],[14.535707,50.137021],[14.535709,50.137507],[14.535696,50.137553],[14.535689,50.137578],[14.535404,50.138661],[14.535378,50.13876],[14.535321,50.138977],[14.535272,50.139215],[14.535046,50.140149],[14.535094,50.140163],[14.535178,50.140187],[14.536257,50.140293],[14.536619,50.140321],[14.537397,50.140379],[14.53804,50.140398],[14.538048,50.140398],[14.538393,50.140408],[14.539092,50.140414],[14.539561,50.140405],[14.539985,50.140378],[14.540425,50.140337],[14.540479,50.140333],[14.540481,50.140906],[14.540474,50.140939],[14.540497,50.141628],[14.540531,50.14278],[14.540532,50.142819],[14.540533,50.142833],[14.540534,50.142846],[14.540535,50.142874],[14.540568,50.142873],[14.541097,50.142861],[14.541758,50.142813],[14.542465,50.142705],[14.543098,50.142584],[14.543992,50.142342],[14.543996,50.142371],[14.544004,50.142483],[14.543993,50.142841],[14.543957,50.143059],[14.543948,50.143098],[14.543928,50.143217],[14.543915,50.143522],[14.543915,50.143528],[14.543913,50.143868],[14.54392,50.144491],[14.54392,50.144496],[14.54392,50.144516],[14.543927,50.144807],[14.543933,50.145138],[14.543918,50.145414],[14.543917,50.145429],[14.543896,50.145703],[14.54385,50.146055],[14.543819,50.146207],[14.543812,50.146226],[14.543802,50.146273],[14.543773,50.146388],[14.543741,50.146598],[14.543675,50.14698],[14.54368,50.146981],[14.543906,50.147015],[14.544386,50.147063],[14.545031,50.147106],[14.545569,50.147138],[14.545746,50.147159],[14.545787,50.147164],[14.545862,50.147173],[14.545906,50.147178]]]}},{"type":"Feature","properties":{"cislo":19002,"kod":30659,"mestskaCast":"praha-19"},"geometry":{"type":"Polygon","coordinates":[[[14.551535,50.139691],[14.551549,50.139692],[14.551625,50.139663],[14.551675,50.139631],[14.55183,50.139563],[14.551875,50.139548],[14.552088,50.139476],[14.552347,50.13939],[14.552788,50.139238],[14.552987,50.139164],[14.553111,50.139112],[14.553298,50.139028],[14.553664,50.138833],[14.553969,50.13866],[14.55438,50.138388],[14.554658,50.13814],[14.554998,50.137798],[14.555217,50.137563],[14.555297,50.137452],[14.555443,50.137228],[14.555584,50.137032],[14.555665,50.136912],[14.555721,50.136781],[14.555799,50.136615],[14.555818,50.13659],[14.555864,50.136439],[14.555877,50.136377],[14.554368,50.136372],[14.554351,50.136117],[14.554279,50.136056],[14.553712,50.13607],[14.55347,50.136076],[14.553409,50.136035],[14.553333,50.135992],[14.553007,50.135999],[14.552397,50.13601],[14.551974,50.136009],[14.551464,50.136019],[14.551096,50.136023],[14.550799,50.136025],[14.550544,50.136029],[14.550289,50.136034],[14.550162,50.136032],[14.550165,50.136087],[14.55016,50.136241],[14.550155,50.136331],[14.550157,50.136458],[14.550159,50.136713],[14.55016,50.136776],[14.550166,50.136949],[14.550174,50.136977],[14.550212,50.137198],[14.550233,50.1373],[14.550246,50.137374],[14.55026,50.137438],[14.550258,50.137447],[14.550316,50.137643],[14.55033,50.137708],[14.550359,50.137837],[14.550376,50.137893],[14.550443,50.138108],[14.55045,50.138144],[14.550468,50.138191],[14.550527,50.138315],[14.550614,50.138504],[14.550644,50.138561],[14.550698,50.138638],[14.550815,50.138821],[14.550902,50.138946],[14.551012,50.139092],[14.55102,50.13912],[14.551044,50.13914],[14.551132,50.139257],[14.551177,50.139315],[14.551313,50.139472],[14.551385,50.139533],[14.551405,50.139571],[14.551535,50.139691]]]}},{"type":"Feature","properties":{"cislo":19003,"kod":30661,"mestskaCast":"praha-19"},"geometry":{"type":"Polygon","coordinates":[[[14.567626,50.134027],[14.567682,50.133994],[14.567745,50.13396],[14.568014,50.133808],[14.567986,50.133772],[14.567753,50.133477],[14.567618,50.133308],[14.567534,50.133203],[14.567417,50.133195],[14.567405,50.133194],[14.567363,50.133191],[14.567126,50.133237],[14.56695,50.133271],[14.566888,50.133283],[14.566508,50.133215],[14.566048,50.133131],[14.566037,50.13313],[14.565961,50.133124],[14.565896,50.133122],[14.565767,50.133112],[14.565569,50.133096],[14.565422,50.133084],[14.565413,50.133083],[14.565403,50.133083],[14.565389,50.133081],[14.565046,50.133054],[14.564588,50.133017],[14.564487,50.133012],[14.563986,50.132987],[14.563578,50.132967],[14.563563,50.132636],[14.563548,50.132328],[14.563342,50.129656],[14.563338,50.129611],[14.563454,50.129595],[14.563877,50.129539],[14.563781,50.129133],[14.563743,50.128973],[14.563373,50.128051],[14.563368,50.128039],[14.563348,50.127989],[14.563346,50.127983],[14.563333,50.127949],[14.563332,50.127946],[14.563313,50.127899],[14.563308,50.127886],[14.563285,50.127828],[14.563214,50.127543],[14.563098,50.126968],[14.56307,50.126763],[14.563017,50.126406],[14.56263,50.126441],[14.56194,50.126493],[14.561937,50.126476],[14.561935,50.12646],[14.561934,50.126453],[14.561926,50.126402],[14.561924,50.126391],[14.561922,50.126379],[14.561922,50.126377],[14.561922,50.126377],[14.56192,50.126361],[14.561919,50.126357],[14.561919,50.126356],[14.561914,50.126329],[14.561914,50.126327],[14.561914,50.126326],[14.561912,50.12631],[14.561911,50.126303],[14.56191,50.126301],[14.5619,50.126233],[14.561894,50.126197],[14.561893,50.126191],[14.561893,50.126188],[14.561885,50.126136],[14.562002,50.126127],[14.562099,50.126119],[14.562282,50.126105],[14.562495,50.126088],[14.56252,50.126086],[14.56255,50.126084],[14.562477,50.125843],[14.56246,50.125786],[14.562427,50.125688],[14.562426,50.125684],[14.562426,50.125683],[14.562425,50.12568],[14.562411,50.125637],[14.56241,50.125634],[14.562409,50.125632],[14.562409,50.12563],[14.562344,50.125435],[14.562337,50.125412],[14.562321,50.125381],[14.562261,50.125264],[14.56314,50.12501],[14.564076,50.12474],[14.564042,50.124708],[14.563613,50.123739],[14.563156,50.12282],[14.563042,50.122512],[14.562774,50.121789],[14.562687,50.121448],[14.562604,50.120996],[14.562549,50.120624],[14.562549,50.120621],[14.562565,50.120579],[14.561503,50.120412],[14.561463,50.120406],[14.560711,50.120305],[14.560364,50.120259],[14.560356,50.1203],[14.55916,50.120187],[14.559157,50.120208],[14.559163,50.120261],[14.559272,50.121338],[14.559381,50.122009],[14.559478,50.122376],[14.559146,50.122425],[14.558373,50.122512],[14.558021,50.122549],[14.557946,50.122557],[14.557936,50.122558],[14.557514,50.122603],[14.557318,50.122628],[14.556772,50.122697],[14.556414,50.122726],[14.556075,50.122754],[14.554517,50.122936],[14.554328,50.122122],[14.554135,50.121189],[14.55376,50.121224],[14.553333,50.121283],[14.553222,50.121324],[14.553145,50.121387],[14.553046,50.121504],[14.552968,50.121633],[14.552965,50.121631],[14.552929,50.12161],[14.552901,50.121587],[14.552829,50.121529],[14.552807,50.12151],[14.551522,50.12178],[14.551441,50.121797],[14.55076,50.121937],[14.550234,50.121725],[14.549445,50.121405],[14.548088,50.120847],[14.546851,50.12034],[14.546132,50.120046],[14.545082,50.119616],[14.545137,50.11917],[14.545235,50.11864],[14.545437,50.117681],[14.545439,50.117667],[14.54544,50.117663],[14.543847,50.117427],[14.543067,50.11729],[14.542707,50.117226],[14.542428,50.117177],[14.54141,50.117009],[14.540642,50.116919],[14.540183,50.116897],[14.540122,50.116895],[14.539928,50.116889],[14.539416,50.116871],[14.53938,50.11687],[14.539271,50.116868],[14.538972,50.11685],[14.538466,50.116847],[14.53806,50.116877],[14.537431,50.116944],[14.537427,50.116945],[14.536601,50.117001],[14.534986,50.116939],[14.534703,50.11689],[14.534447,50.116838],[14.53424,50.116787],[14.533755,50.116628],[14.533333,50.116416],[14.533303,50.116472],[14.533274,50.116609],[14.53328,50.116713],[14.533427,50.117391],[14.532802,50.117454],[14.5322,50.117515],[14.531653,50.117583],[14.531649,50.117584],[14.531213,50.117638],[14.531194,50.117584],[14.531122,50.117372],[14.5311,50.117375],[14.531097,50.117376],[14.531052,50.117383],[14.529787,50.117574],[14.528722,50.117666],[14.528562,50.11768],[14.528259,50.117716],[14.527588,50.117794],[14.527048,50.117857],[14.526552,50.117915],[14.526477,50.117924],[14.526508,50.118231],[14.52659,50.118798],[14.526802,50.119298],[14.527002,50.119771],[14.527029,50.119836],[14.527322,50.120528],[14.527373,50.120647],[14.527393,50.120695],[14.527412,50.120764],[14.527474,50.120992],[14.52755,50.12127],[14.527552,50.121275],[14.527571,50.121346],[14.52728,50.12138],[14.526805,50.121435],[14.526601,50.121459],[14.52598,50.121529],[14.52525,50.121612],[14.525208,50.121616],[14.525202,50.121641],[14.525202,50.121641],[14.525188,50.12169],[14.525192,50.12169],[14.525881,50.121968],[14.527011,50.12243],[14.528169,50.122894],[14.52969,50.123508],[14.530954,50.124009],[14.531019,50.124033],[14.531919,50.124384],[14.532024,50.12442],[14.532751,50.12472],[14.532999,50.124814],[14.534546,50.12544],[14.535861,50.125963],[14.53745,50.126592],[14.538425,50.126986],[14.538636,50.127059],[14.539285,50.127324],[14.539611,50.127452],[14.54065,50.127879],[14.541027,50.12803],[14.541677,50.128295],[14.541872,50.128376],[14.542376,50.128592],[14.542778,50.128764],[14.54305,50.128878],[14.543582,50.129097],[14.543922,50.129226],[14.544403,50.129423],[14.544834,50.129587],[14.545171,50.129726],[14.545457,50.129842],[14.5456,50.129899],[14.545888,50.130006],[14.546018,50.130063],[14.546186,50.130132],[14.546333,50.130172],[14.546452,50.13021],[14.546599,50.13025],[14.546714,50.130305],[14.546869,50.130373],[14.546985,50.130492],[14.547065,50.130581],[14.547096,50.130638],[14.547262,50.130852],[14.547407,50.131037],[14.547593,50.131289],[14.547716,50.131445],[14.547863,50.131685],[14.547959,50.131829],[14.547991,50.131878],[14.548074,50.132021],[14.548112,50.132106],[14.548133,50.132144],[14.548169,50.132238],[14.548196,50.132313],[14.548194,50.132322],[14.548252,50.132445],[14.548279,50.13252],[14.548295,50.132576],[14.548324,50.132705],[14.548351,50.13278],[14.548374,50.132873],[14.548415,50.133013],[14.548456,50.133152],[14.548466,50.133171],[14.548484,50.133218],[14.548501,50.133274],[14.548497,50.133292],[14.548501,50.133338],[14.548498,50.133356],[14.54849,50.133391],[14.548488,50.1334],[14.548469,50.133426],[14.548453,50.133433],[14.548418,50.133466],[14.548414,50.133484],[14.548628,50.133539],[14.548884,50.133598],[14.549154,50.133658],[14.549207,50.133672],[14.549421,50.133727],[14.549433,50.133737],[14.549449,50.133729],[14.549567,50.133703],[14.549682,50.133695],[14.549838,50.13369],[14.550163,50.133691],[14.550604,50.133676],[14.550986,50.133673],[14.550985,50.133473],[14.55099,50.133183],[14.550985,50.132874],[14.550989,50.132856],[14.55098,50.132565],[14.550982,50.13242],[14.550972,50.132265],[14.550981,50.132093],[14.550972,50.131866],[14.550969,50.131548],[14.550968,50.131285],[14.550971,50.131203],[14.550974,50.130922],[14.55097,50.13074],[14.551301,50.130778],[14.551812,50.130832],[14.552142,50.13087],[14.552653,50.130924],[14.553176,50.130988],[14.55319,50.130989],[14.553812,50.131052],[14.554212,50.131096],[14.554558,50.131126],[14.554917,50.131167],[14.55492,50.131285],[14.554939,50.131395],[14.554978,50.131544],[14.55507,50.131779],[14.555156,50.13204],[14.555219,50.132209],[14.555299,50.132434],[14.555401,50.132751],[14.555482,50.132967],[14.55552,50.133125],[14.555534,50.133126],[14.555757,50.133136],[14.555785,50.133139],[14.555918,50.133178],[14.556017,50.133177],[14.556329,50.133168],[14.556571,50.133162],[14.556784,50.133153],[14.557112,50.133137],[14.557496,50.133125],[14.557856,50.133093],[14.557869,50.133094],[14.55814,50.133081],[14.558469,50.133065],[14.558498,50.133058],[14.558769,50.133045],[14.559113,50.133021],[14.559155,50.133025],[14.559657,50.132987],[14.560099,50.132962],[14.560673,50.132921],[14.560874,50.132902],[14.560963,50.132883],[14.561206,50.133004],[14.561474,50.133136],[14.56159,50.133192],[14.56159,50.133192],[14.56159,50.133192],[14.561647,50.133147],[14.561666,50.133132],[14.562299,50.133424],[14.562881,50.133707],[14.563832,50.134175],[14.563924,50.134219],[14.564948,50.134713],[14.565699,50.135085],[14.567156,50.135804],[14.567207,50.135829],[14.567225,50.135692],[14.567233,50.135625],[14.567311,50.135024],[14.567373,50.134603],[14.567496,50.13419],[14.567577,50.134089],[14.567587,50.134077],[14.567626,50.134027]]]}},{"type":"Feature","properties":{"cislo":19004,"kod":30663,"mestskaCast":"praha-19"},"geometry":{"type":"MultiPolygon","coordinates":[[[[14.56159,50.133192],[14.56159,50.133192],[14.56159,50.133192],[14.561474,50.133136],[14.561206,50.133004],[14.560963,50.132883],[14.560874,50.132902],[14.560673,50.132921],[14.560099,50.132962],[14.559657,50.132987],[14.559155,50.133025],[14.559113,50.133021],[14.558769,50.133045],[14.558498,50.133058],[14.558469,50.133065],[14.55814,50.133081],[14.557869,50.133094],[14.557856,50.133093],[14.557496,50.133125],[14.557112,50.133137],[14.556784,50.133153],[14.556571,50.133162],[14.556329,50.133168],[14.556017,50.133177],[14.555918,50.133178],[14.555785,50.133139],[14.555757,50.133136],[14.555534,50.133126],[14.55552,50.133125],[14.555482,50.132967],[14.555401,50.132751],[14.555299,50.132434],[14.555219,50.132209],[14.555156,50.13204],[14.55507,50.131779],[14.554978,50.131544],[14.554939,50.131395],[14.55492,50.131285],[14.554917,50.131167],[14.554558,50.131126],[14.554212,50.131096],[14.553812,50.131052],[14.55319,50.130989],[14.553176,50.130988],[14.552653,50.130924],[14.552142,50.13087],[14.551812,50.130832],[14.551301,50.130778],[14.55097,50.13074],[14.550974,50.130922],[14.550971,50.131203],[14.550968,50.131285],[14.550969,50.131548],[14.550972,50.131866],[14.550981,50.132093],[14.550972,50.132265],[14.550982,50.13242],[14.55098,50.132565],[14.550989,50.132856],[14.550985,50.132874],[14.55099,50.133183],[14.550985,50.133473],[14.550986,50.133673],[14.550604,50.133676],[14.550163,50.133691],[14.549838,50.13369],[14.549682,50.133695],[14.549567,50.133703],[14.549449,50.133729],[14.549433,50.133737],[14.54942,50.133799],[14.549403,50.133879],[14.549389,50.134014],[14.549347,50.134346],[14.549334,50.134472],[14.549322,50.134598],[14.549291,50.134813],[14.549284,50.134912],[14.549269,50.135047],[14.549623,50.135042],[14.549809,50.135031],[14.550035,50.135032],[14.550177,50.135027],[14.550171,50.135189],[14.550163,50.135361],[14.550165,50.135552],[14.550162,50.135697],[14.550161,50.135905],[14.550156,50.135996],[14.550162,50.136032],[14.550289,50.136034],[14.550544,50.136029],[14.550799,50.136025],[14.551096,50.136023],[14.551464,50.136019],[14.551974,50.136009],[14.552397,50.13601],[14.553007,50.135999],[14.553333,50.135992],[14.553409,50.136035],[14.55347,50.136076],[14.553712,50.13607],[14.554279,50.136056],[14.554351,50.136117],[14.554368,50.136372],[14.555877,50.136377],[14.555864,50.136439],[14.555818,50.13659],[14.555799,50.136615],[14.555721,50.136781],[14.555665,50.136912],[14.555584,50.137032],[14.555443,50.137228],[14.555297,50.137452],[14.555217,50.137563],[14.554998,50.137798],[14.554658,50.13814],[14.55438,50.138388],[14.553969,50.13866],[14.553664,50.138833],[14.553298,50.139028],[14.553111,50.139112],[14.552987,50.139164],[14.552788,50.139238],[14.552347,50.13939],[14.552088,50.139476],[14.551875,50.139548],[14.55183,50.139563],[14.551675,50.139631],[14.551625,50.139663],[14.551549,50.139692],[14.551535,50.139691],[14.551615,50.13978],[14.551677,50.139821],[14.551772,50.139902],[14.551956,50.140036],[14.552163,50.14019],[14.552249,50.140252],[14.552432,50.140386],[14.552676,50.140571],[14.552738,50.140613],[14.552907,50.140745],[14.553087,50.140897],[14.553183,50.140978],[14.553303,50.141079],[14.553432,50.1412],[14.553538,50.1413],[14.553572,50.141339],[14.553702,50.141459],[14.553712,50.141478],[14.553796,50.141549],[14.553873,50.141655],[14.553997,50.141802],[14.554143,50.141978],[14.554291,50.142146],[14.554402,50.142291],[14.554562,50.142469],[14.554708,50.142645],[14.554909,50.142898],[14.555069,50.143075],[14.555193,50.143222],[14.555217,50.143243],[14.555354,50.1434],[14.55547,50.143519],[14.55564,50.143715],[14.555732,50.143814],[14.555732,50.143815],[14.555732,50.143815],[14.555844,50.143829],[14.55635,50.143819],[14.557195,50.143803],[14.557365,50.143799],[14.558649,50.14377],[14.558851,50.143101],[14.558901,50.14289],[14.558993,50.142498],[14.559178,50.141716],[14.559468,50.140333],[14.559685,50.138957],[14.559669,50.138672],[14.559683,50.1382],[14.559704,50.137804],[14.559846,50.137242],[14.559974,50.136924],[14.560143,50.136656],[14.560312,50.136431],[14.560388,50.13632],[14.560865,50.13548],[14.560859,50.135408],[14.56105,50.134868],[14.56121,50.134414],[14.561507,50.133624],[14.561532,50.133422],[14.561516,50.133272],[14.561514,50.133253],[14.561554,50.133221],[14.56159,50.133192]]],[[[14.535567,50.135266],[14.535567,50.135266],[14.535572,50.135266],[14.536025,50.13526],[14.536492,50.135255],[14.537002,50.135245],[14.53734,50.135248],[14.537694,50.135242],[14.537977,50.13524],[14.538304,50.135232],[14.538685,50.135229],[14.538798,50.13523],[14.539053,50.135225],[14.539662,50.135215],[14.540242,50.135211],[14.540384,50.135205],[14.540982,50.135185],[14.54128,50.135175],[14.541395,50.135167],[14.541767,50.135145],[14.542053,50.135124],[14.542298,50.135101],[14.542356,50.135096],[14.542702,50.135063],[14.543045,50.135039],[14.543291,50.135015],[14.543563,50.134993],[14.543793,50.134977],[14.543806,50.134978],[14.544149,50.134963],[14.544162,50.134964],[14.544204,50.134968],[14.54439,50.134957],[14.544629,50.134959],[14.544855,50.134961],[14.545009,50.134965],[14.545417,50.134974],[14.545753,50.134985],[14.546046,50.135001],[14.546408,50.135024],[14.546729,50.135043],[14.547022,50.13506],[14.547204,50.135066],[14.547224,50.134905],[14.547252,50.134771],[14.547269,50.134627],[14.547303,50.134467],[14.547313,50.13435],[14.547323,50.134305],[14.547343,50.134144],[14.547363,50.133982],[14.547393,50.13384],[14.547392,50.133776],[14.547421,50.133706],[14.547511,50.133614],[14.547527,50.133606],[14.547576,50.133574],[14.547621,50.13356],[14.547681,50.133547],[14.547849,50.133553],[14.547977,50.133546],[14.548161,50.133544],[14.548337,50.133514],[14.5484,50.133483],[14.548414,50.133484],[14.548418,50.133466],[14.548453,50.133433],[14.548469,50.133426],[14.548488,50.1334],[14.54849,50.133391],[14.548498,50.133356],[14.548501,50.133338],[14.548497,50.133292],[14.548501,50.133274],[14.548484,50.133218],[14.548466,50.133171],[14.548456,50.133152],[14.548415,50.133013],[14.548374,50.132873],[14.548351,50.13278],[14.548324,50.132705],[14.548295,50.132576],[14.548279,50.13252],[14.548252,50.132445],[14.548194,50.132322],[14.548196,50.132313],[14.548169,50.132238],[14.548133,50.132144],[14.548112,50.132106],[14.548074,50.132021],[14.547991,50.131878],[14.547959,50.131829],[14.547863,50.131685],[14.547716,50.131445],[14.547593,50.131289],[14.547407,50.131037],[14.547262,50.130852],[14.547096,50.130638],[14.547065,50.130581],[14.546985,50.130492],[14.546869,50.130373],[14.546714,50.130305],[14.546599,50.13025],[14.546452,50.13021],[14.546333,50.130172],[14.546186,50.130132],[14.546018,50.130063],[14.545888,50.130006],[14.5456,50.129899],[14.545457,50.129842],[14.545171,50.129726],[14.544834,50.129587],[14.544403,50.129423],[14.543922,50.129226],[14.543582,50.129097],[14.54305,50.128878],[14.542778,50.128764],[14.542376,50.128592],[14.541872,50.128376],[14.541386,50.128805],[14.541072,50.129086],[14.540621,50.129482],[14.54027,50.129806],[14.539874,50.130143],[14.53949,50.130491],[14.539369,50.130598],[14.539147,50.130778],[14.538753,50.131107],[14.538616,50.131222],[14.538239,50.131534],[14.537849,50.131844],[14.537106,50.132487],[14.536749,50.132773],[14.536353,50.133111],[14.536062,50.133349],[14.535994,50.133406],[14.535761,50.13364],[14.535526,50.133882],[14.535471,50.133941],[14.535399,50.13408],[14.535393,50.13408],[14.535393,50.13408],[14.535444,50.134346],[14.535469,50.134476],[14.535518,50.134905],[14.53557,50.135215],[14.535567,50.135241],[14.535567,50.135247],[14.535567,50.135266]]]]}},{"type":"Feature","properties":{"cislo":19005,"kod":30665,"mestskaCast":"praha-19"},"geometry":{"type":"Polygon","coordinates":[[[14.535393,50.13408],[14.535393,50.13408],[14.535399,50.13408],[14.535471,50.133941],[14.535526,50.133882],[14.535761,50.13364],[14.535994,50.133406],[14.536062,50.133349],[14.536353,50.133111],[14.536749,50.132773],[14.537106,50.132487],[14.537849,50.131844],[14.538239,50.131534],[14.538616,50.131222],[14.538753,50.131107],[14.539147,50.130778],[14.539369,50.130598],[14.53949,50.130491],[14.539874,50.130143],[14.54027,50.129806],[14.540621,50.129482],[14.541072,50.129086],[14.541386,50.128805],[14.541872,50.128376],[14.541677,50.128295],[14.541027,50.12803],[14.54065,50.127879],[14.539611,50.127452],[14.539285,50.127324],[14.538636,50.127059],[14.538425,50.126986],[14.53745,50.126592],[14.535861,50.125963],[14.534546,50.12544],[14.532999,50.124814],[14.532751,50.12472],[14.532024,50.12442],[14.531919,50.124384],[14.531019,50.124033],[14.530954,50.124009],[14.52969,50.123508],[14.528169,50.122894],[14.527011,50.12243],[14.525881,50.121968],[14.525192,50.12169],[14.525188,50.12169],[14.525175,50.121739],[14.525168,50.121763],[14.525174,50.121786],[14.525368,50.122635],[14.525371,50.122648],[14.525416,50.122843],[14.52542,50.122858],[14.525446,50.122973],[14.525302,50.122979],[14.524452,50.123013],[14.523826,50.123032],[14.523852,50.123422],[14.523826,50.123759],[14.523781,50.123997],[14.523647,50.124374],[14.524002,50.124546],[14.524418,50.124778],[14.524526,50.125637],[14.524553,50.125969],[14.524267,50.125997],[14.523979,50.126012],[14.523169,50.12605],[14.522739,50.126081],[14.521771,50.126176],[14.522046,50.12659],[14.522824,50.126482],[14.524081,50.12639],[14.52419,50.126382],[14.524532,50.126357],[14.524612,50.126636],[14.524631,50.126702],[14.524682,50.126878],[14.524692,50.126908],[14.524852,50.12748],[14.524861,50.12751],[14.524872,50.127536],[14.52545,50.12749],[14.52548,50.127488],[14.525622,50.127476],[14.525837,50.127459],[14.525827,50.127543],[14.525833,50.127564],[14.525832,50.127609],[14.525863,50.127936],[14.525874,50.127982],[14.525875,50.128019],[14.525876,50.128044],[14.525876,50.128062],[14.525876,50.128063],[14.525876,50.128065],[14.525879,50.128139],[14.525889,50.128422],[14.525884,50.128606],[14.525883,50.128666],[14.525883,50.128672],[14.525882,50.128723],[14.525875,50.129002],[14.525922,50.12901],[14.526009,50.129024],[14.526059,50.129032],[14.526076,50.129035],[14.52608,50.129036],[14.526799,50.129153],[14.52718,50.12921],[14.52738,50.12924],[14.527403,50.129243],[14.527503,50.129258],[14.527506,50.129259],[14.527688,50.129286],[14.527729,50.129292],[14.528243,50.129369],[14.528558,50.129409],[14.528982,50.129463],[14.529363,50.129512],[14.529679,50.129553],[14.529762,50.129563],[14.529828,50.129569],[14.53097,50.12976],[14.531887,50.12997],[14.53202,50.130008],[14.532252,50.130075],[14.533279,50.130367],[14.534086,50.13061],[14.535217,50.131008],[14.53522,50.131009],[14.535289,50.131033],[14.535283,50.131057],[14.53513,50.131762],[14.535126,50.131781],[14.535126,50.132017],[14.53513,50.132313],[14.535132,50.132507],[14.535132,50.132524],[14.535183,50.132987],[14.535185,50.132996],[14.535202,50.133088],[14.535273,50.133449],[14.535276,50.133463],[14.53535,50.133854],[14.535393,50.13408]]]}},{"type":"Feature","properties":{"cislo":19006,"kod":30667,"mestskaCast":"praha-19"},"geometry":{"type":"Polygon","coordinates":[[[14.550258,50.137447],[14.54993,50.137464],[14.549845,50.137466],[14.549803,50.137462],[14.549717,50.137473],[14.549675,50.137469],[14.549477,50.13747],[14.549422,50.137465],[14.549307,50.137473],[14.549194,50.137472],[14.549153,50.137469],[14.549123,50.137475],[14.54904,50.137468],[14.548983,50.137472],[14.548799,50.137474],[14.548771,50.137472],[14.548769,50.137481],[14.5487,50.137474],[14.54867,50.137481],[14.548656,50.13748],[14.548571,50.137481],[14.548557,50.13748],[14.548359,50.137481],[14.548288,50.137484],[14.548261,50.137481],[14.548231,50.137488],[14.548148,50.137481],[14.547992,50.137485],[14.54795,50.137482],[14.547894,50.137477],[14.547823,50.13748],[14.547693,50.137495],[14.547691,50.137504],[14.547682,50.137612],[14.54769,50.13764],[14.547687,50.137658],[14.54768,50.137957],[14.547611,50.137951],[14.547385,50.137949],[14.547102,50.137952],[14.547017,50.137954],[14.546948,50.137948],[14.54692,50.137945],[14.546917,50.138027],[14.546913,50.13818],[14.546906,50.13828],[14.5469,50.138306],[14.546899,50.138379],[14.546897,50.138524],[14.546899,50.138578],[14.546898,50.138651],[14.546899,50.138778],[14.546894,50.138868],[14.54688,50.139203],[14.546876,50.139221],[14.546913,50.13965],[14.546905,50.139686],[14.546903,50.139831],[14.546906,50.139949],[14.546901,50.140239],[14.546845,50.14077],[14.546848,50.141224],[14.546851,50.141342],[14.546848,50.141423],[14.54684,50.141794],[14.546836,50.141948],[14.546821,50.142355],[14.546814,50.142854],[14.546798,50.142998],[14.546796,50.143206],[14.546752,50.143683],[14.546718,50.143907],[14.54671,50.144015],[14.546701,50.144123],[14.546688,50.144249],[14.546661,50.144446],[14.546654,50.144745],[14.546694,50.144957],[14.546695,50.14496],[14.55023,50.144502],[14.550562,50.144459],[14.551183,50.144379],[14.553483,50.144082],[14.55475,50.143918],[14.555624,50.143801],[14.55569,50.143809],[14.555732,50.143815],[14.555732,50.143815],[14.555732,50.143814],[14.55564,50.143715],[14.55547,50.143519],[14.555354,50.1434],[14.555217,50.143243],[14.555193,50.143222],[14.555069,50.143075],[14.554909,50.142898],[14.554708,50.142645],[14.554562,50.142469],[14.554402,50.142291],[14.554291,50.142146],[14.554143,50.141978],[14.553997,50.141802],[14.553873,50.141655],[14.553796,50.141549],[14.553712,50.141478],[14.553702,50.141459],[14.553572,50.141339],[14.553538,50.1413],[14.553432,50.1412],[14.553303,50.141079],[14.553183,50.140978],[14.553087,50.140897],[14.552907,50.140745],[14.552738,50.140613],[14.552676,50.140571],[14.552432,50.140386],[14.552249,50.140252],[14.552163,50.14019],[14.551956,50.140036],[14.551772,50.139902],[14.551677,50.139821],[14.551615,50.13978],[14.551535,50.139691],[14.551405,50.139571],[14.551385,50.139533],[14.551313,50.139472],[14.551177,50.139315],[14.551132,50.139257],[14.551044,50.13914],[14.55102,50.13912],[14.551012,50.139092],[14.550902,50.138946],[14.550815,50.138821],[14.550698,50.138638],[14.550644,50.138561],[14.550614,50.138504],[14.550527,50.138315],[14.550468,50.138191],[14.55045,50.138144],[14.550443,50.138108],[14.550376,50.137893],[14.550359,50.137837],[14.55033,50.137708],[14.550316,50.137643],[14.550258,50.137447]]]}}]}
