{"type":"FeatureCollection","features":[{"type":"Feature","properties":{"cislo":30001,"kod":27917,"mestskaCast":"praha-dolni-pocernice"},"geometry":{"type":"Polygon","coordinates":[[[14.564756,50.087556],[14.56487,50.087548],[14.565799,50.087493],[14.566626,50.087447],[14.567383,50.087404],[14.567981,50.087375],[14.568653,50.087334],[14.569125,50.087302],[14.56978,50.087269],[14.570509,50.087223],[14.571208,50.087185],[14.571763,50.08716],[14.571779,50.087153],[14.572298,50.087098],[14.572742,50.087001],[14.572988,50.086904],[14.573466,50.08671],[14.573962,50.086499],[14.574829,50.08613],[14.575419,50.085873],[14.575905,50.085707],[14.577783,50.085163],[14.57989,50.08453],[14.581005,50.084192],[14.582464,50.083756],[14.583361,50.083381],[14.584476,50.082906],[14.585127,50.082627],[14.585143,50.08262],[14.585158,50.082612],[14.585188,50.082605],[14.585204,50.082598],[14.585219,50.08259],[14.585251,50.082575],[14.585296,50.08256],[14.585314,50.082544],[14.585343,50.082537],[14.585359,50.08253],[14.585373,50.082531],[14.58537,50.082526],[14.585367,50.082527],[14.585369,50.082484],[14.585667,50.081128],[14.58561,50.081111],[14.585536,50.081086],[14.584389,50.08082],[14.583449,50.080778],[14.580787,50.080696],[14.580681,50.080698],[14.580054,50.080716],[14.578747,50.080754],[14.578338,50.080756],[14.576836,50.08053],[14.576782,50.08052],[14.576771,50.07998],[14.576789,50.079548],[14.576797,50.079378],[14.576882,50.078708],[14.576961,50.078085],[14.576981,50.077935],[14.577049,50.077426],[14.577085,50.077168],[14.577087,50.077154],[14.577095,50.077093],[14.577102,50.077047],[14.577104,50.077031],[14.577106,50.077016],[14.57711,50.076985],[14.577133,50.076919],[14.577142,50.076894],[14.577146,50.076884],[14.577147,50.076881],[14.577176,50.076799],[14.577183,50.076779],[14.5772,50.076729],[14.577206,50.076713],[14.577221,50.07667],[14.577237,50.076624],[14.577236,50.07662],[14.57722,50.076562],[14.577211,50.076528],[14.577224,50.07635],[14.577242,50.076078],[14.577249,50.075975],[14.5758,50.07589],[14.572626,50.075509],[14.572003,50.075434],[14.571997,50.075433],[14.571975,50.075431],[14.571929,50.075429],[14.571888,50.075427],[14.571735,50.075392],[14.571572,50.075354],[14.571543,50.075348],[14.571514,50.075341],[14.571499,50.075338],[14.571348,50.075303],[14.570768,50.07517],[14.570243,50.07505],[14.56932,50.074839],[14.569219,50.074816],[14.568746,50.074708],[14.568477,50.074646],[14.56829,50.074604],[14.567834,50.074499],[14.567659,50.074459],[14.56696,50.074299],[14.566942,50.074295],[14.566929,50.074292],[14.56554,50.073983],[14.565362,50.074418],[14.565184,50.074852],[14.565005,50.075287],[14.564707,50.076016],[14.564688,50.076062],[14.56425,50.075961],[14.5645,50.076087],[14.56504,50.076398],[14.565032,50.076555],[14.565029,50.076627],[14.565017,50.076873],[14.564995,50.077188],[14.564979,50.077423],[14.564977,50.077452],[14.564978,50.077668],[14.56497,50.07783],[14.564967,50.077887],[14.564962,50.077959],[14.564958,50.078021],[14.564957,50.078044],[14.564953,50.078114],[14.564951,50.078149],[14.56495,50.078154],[14.564944,50.078259],[14.564944,50.078264],[14.564928,50.078518],[14.564927,50.078537],[14.564892,50.079128],[14.564719,50.079355],[14.564699,50.079381],[14.564691,50.079392],[14.564722,50.079425],[14.564875,50.07959],[14.564897,50.079634],[14.565053,50.079958],[14.56507,50.080309],[14.564935,50.080745],[14.564913,50.08082],[14.564708,50.081089],[14.56466,50.081151],[14.564658,50.081154],[14.564653,50.08116],[14.564609,50.081213],[14.564584,50.081257],[14.564541,50.081333],[14.564387,50.081594],[14.564269,50.081797],[14.564238,50.081852],[14.564095,50.082098],[14.564035,50.082201],[14.564024,50.08224],[14.564024,50.082249],[14.564058,50.082503],[14.564109,50.082885],[14.56425,50.083934],[14.56438,50.084897],[14.564477,50.085619],[14.564703,50.087303],[14.564707,50.087331],[14.564717,50.087402],[14.564726,50.087466],[14.56473,50.087479],[14.564733,50.087488],[14.564736,50.087495],[14.56474,50.087507],[14.564755,50.087553],[14.564756,50.087556]]]}},{"type":"Feature","properties":{"cislo":30002,"kod":27919,"mestskaCast":"praha-dolni-pocernice"},"geometry":{"type":"Polygon","coordinates":[[[14.57297,50.100727],[14.573936,50.100815],[14.575328,50.100936],[14.576757,50.101015],[14.57816,50.101051],[14.5785,50.101052],[14.579386,50.101055],[14.579393,50.101055],[14.580204,50.09999],[14.580249,50.099931],[14.58049,50.099615],[14.580498,50.099604],[14.580511,50.099587],[14.580619,50.099445],[14.580623,50.09944],[14.580627,50.099435],[14.58065,50.099405],[14.580651,50.099404],[14.580652,50.099402],[14.58067,50.099394],[14.580678,50.099368],[14.580706,50.099332],[14.580716,50.099318],[14.580727,50.099305],[14.580783,50.09923],[14.580876,50.09911],[14.580889,50.099094],[14.580992,50.098959],[14.581892,50.097791],[14.582003,50.097646],[14.582238,50.097342],[14.58291,50.09753],[14.58305,50.097569],[14.583397,50.097666],[14.583431,50.097675],[14.583818,50.097784],[14.584083,50.097858],[14.584453,50.097961],[14.584489,50.097971],[14.584612,50.098006],[14.584942,50.098098],[14.586921,50.098648],[14.587801,50.098895],[14.588024,50.098957],[14.5892,50.099286],[14.589458,50.098903],[14.589736,50.09849],[14.589772,50.098442],[14.589789,50.098412],[14.589802,50.098392],[14.589802,50.098391],[14.589805,50.098388],[14.589837,50.09834],[14.589851,50.098319],[14.589892,50.098258],[14.58991,50.098232],[14.589976,50.098133],[14.590111,50.097934],[14.590189,50.097817],[14.590573,50.097248],[14.590599,50.097209],[14.591105,50.096452],[14.591199,50.096312],[14.591422,50.095978],[14.59175,50.095489],[14.591891,50.095278],[14.592113,50.094946],[14.592132,50.094917],[14.592183,50.094842],[14.592219,50.094791],[14.592258,50.094733],[14.592269,50.094716],[14.592308,50.094658],[14.592361,50.094575],[14.593583,50.094884],[14.593693,50.094921],[14.593812,50.094961],[14.593817,50.094963],[14.593821,50.094964],[14.593975,50.095027],[14.594028,50.095049],[14.594062,50.095065],[14.594113,50.095088],[14.594328,50.095187],[14.594336,50.09519],[14.594343,50.095193],[14.59435,50.095197],[14.594375,50.095208],[14.594398,50.095219],[14.594438,50.095237],[14.596002,50.095956],[14.596008,50.095958],[14.596248,50.096063],[14.596293,50.096083],[14.596296,50.096084],[14.596323,50.096096],[14.596445,50.096149],[14.596447,50.096149],[14.596464,50.096151],[14.59647,50.096152],[14.597763,50.096312],[14.598623,50.096391],[14.599141,50.096446],[14.600196,50.096552],[14.600555,50.096584],[14.600766,50.096602],[14.601343,50.096624],[14.602267,50.096635],[14.603072,50.096644],[14.603387,50.096648],[14.603404,50.096648],[14.603626,50.096654],[14.603751,50.096658],[14.603768,50.096659],[14.603777,50.096659],[14.604999,50.096724],[14.605002,50.096724],[14.605221,50.096748],[14.606716,50.096839],[14.606959,50.096919],[14.608343,50.097132],[14.608945,50.097224],[14.6093,50.097302],[14.609632,50.097376],[14.6098,50.097414],[14.610075,50.097476],[14.610507,50.097548],[14.610613,50.097566],[14.610946,50.097621],[14.611149,50.097655],[14.612031,50.097741],[14.612537,50.097788],[14.613224,50.097907],[14.613717,50.097934],[14.614585,50.097967],[14.614868,50.098001],[14.61539,50.098132],[14.615412,50.098136],[14.615611,50.098173],[14.615733,50.098184],[14.615988,50.098209],[14.616498,50.098258],[14.617227,50.098412],[14.617434,50.098454],[14.618082,50.098467],[14.618666,50.098478],[14.61867,50.098478],[14.618741,50.098479],[14.619094,50.098312],[14.619504,50.098118],[14.620119,50.097786],[14.620279,50.097709],[14.620642,50.097484],[14.620706,50.097426],[14.620758,50.097357],[14.620805,50.097295],[14.6209,50.097128],[14.621477,50.096814],[14.621924,50.096394],[14.62229,50.096131],[14.622436,50.09608],[14.623119,50.095933],[14.623507,50.095727],[14.623738,50.095722],[14.624204,50.095655],[14.624402,50.095583],[14.624152,50.095225],[14.624024,50.09504],[14.623986,50.094985],[14.623478,50.093983],[14.623366,50.093763],[14.623322,50.093676],[14.623307,50.093646],[14.622976,50.093628],[14.622559,50.093518],[14.621175,50.0936],[14.620538,50.093584],[14.620314,50.093557],[14.620008,50.093519],[14.619012,50.093469],[14.61895,50.093399],[14.618923,50.093368],[14.618894,50.093334],[14.618867,50.093304],[14.618658,50.0933],[14.618581,50.093299],[14.618091,50.093292],[14.616804,50.093271],[14.61666,50.093268],[14.61625,50.093262],[14.615681,50.093252],[14.615668,50.093252],[14.615151,50.093242],[14.614626,50.093235],[14.614334,50.09323],[14.613981,50.093197],[14.613883,50.093188],[14.613583,50.093162],[14.613254,50.093129],[14.613242,50.093128],[14.612493,50.093053],[14.612437,50.093048],[14.612101,50.093014],[14.61173,50.092987],[14.611621,50.092979],[14.611212,50.092954],[14.611023,50.092942],[14.61085,50.092931],[14.61048,50.092842],[14.610333,50.092806],[14.610053,50.092739],[14.609989,50.092724],[14.609972,50.092719],[14.609966,50.092718],[14.609883,50.092693],[14.609737,50.092649],[14.607535,50.092565],[14.607212,50.092607],[14.607178,50.092604],[14.606742,50.092567],[14.60653,50.092548],[14.606183,50.092459],[14.60592,50.092391],[14.604545,50.092226],[14.604458,50.092216],[14.604108,50.092174],[14.604001,50.090452],[14.603978,50.090085],[14.603922,50.089195],[14.604651,50.08916],[14.604653,50.089153],[14.604689,50.088913],[14.604678,50.088433],[14.604677,50.088429],[14.604679,50.08839],[14.604684,50.088252],[14.604685,50.088222],[14.604693,50.087999],[14.604793,50.087652],[14.604807,50.087612],[14.604824,50.087563],[14.604825,50.08756],[14.604898,50.087346],[14.604908,50.087317],[14.604909,50.087316],[14.604909,50.087314],[14.604943,50.087218],[14.604983,50.087104],[14.604996,50.087063],[14.605012,50.087025],[14.605094,50.086866],[14.605098,50.086857],[14.605116,50.086813],[14.605118,50.086808],[14.605135,50.086768],[14.604773,50.086743],[14.604386,50.086661],[14.603758,50.086474],[14.603707,50.086459],[14.602332,50.086306],[14.601975,50.086186],[14.60167,50.086083],[14.60135,50.085942],[14.60139,50.085845],[14.601402,50.085815],[14.601448,50.085704],[14.601446,50.085221],[14.601268,50.0841],[14.601258,50.084035],[14.601251,50.083993],[14.601429,50.083881],[14.601523,50.083835],[14.601584,50.083811],[14.601542,50.083724],[14.601578,50.083439],[14.601522,50.083431],[14.601444,50.083418],[14.60137,50.083407],[14.600765,50.083312],[14.599939,50.08322],[14.599112,50.083137],[14.598283,50.083046],[14.597596,50.082972],[14.596908,50.082897],[14.596766,50.08287],[14.596374,50.082796],[14.595857,50.082696],[14.595592,50.08234],[14.595255,50.082172],[14.595118,50.082104],[14.594238,50.081665],[14.594177,50.081635],[14.594038,50.081566],[14.593894,50.081553],[14.593588,50.081527],[14.593492,50.081519],[14.593486,50.081518],[14.593483,50.081518],[14.593379,50.081509],[14.593224,50.081495],[14.593059,50.081481],[14.592983,50.081486],[14.592978,50.081486],[14.591936,50.081544],[14.59156,50.081565],[14.590788,50.08165],[14.589514,50.081862],[14.58949,50.081866],[14.588186,50.082102],[14.588165,50.082105],[14.588108,50.082116],[14.588077,50.08212],[14.587461,50.08221],[14.587036,50.082272],[14.586947,50.082284],[14.586936,50.082286],[14.586821,50.082303],[14.586449,50.082356],[14.586104,50.082406],[14.586012,50.082419],[14.585503,50.082492],[14.585424,50.082513],[14.58537,50.082526],[14.585373,50.082531],[14.585359,50.08253],[14.585343,50.082537],[14.585314,50.082544],[14.585296,50.08256],[14.585251,50.082575],[14.585219,50.08259],[14.585204,50.082598],[14.585188,50.082605],[14.585158,50.082612],[14.585143,50.08262],[14.585127,50.082627],[14.584476,50.082906],[14.583361,50.083381],[14.582464,50.083756],[14.581005,50.084192],[14.57989,50.08453],[14.577783,50.085163],[14.575905,50.085707],[14.575419,50.085873],[14.574829,50.08613],[14.573962,50.086499],[14.573466,50.08671],[14.572988,50.086904],[14.572742,50.087001],[14.572298,50.087098],[14.571779,50.087153],[14.571763,50.08716],[14.571208,50.087185],[14.570509,50.087223],[14.56978,50.087269],[14.569125,50.087302],[14.568653,50.087334],[14.567981,50.087375],[14.567383,50.087404],[14.566626,50.087447],[14.565799,50.087493],[14.56487,50.087548],[14.564756,50.087556],[14.564762,50.087573],[14.564777,50.087617],[14.565318,50.087575],[14.565369,50.087714],[14.565461,50.087873],[14.565554,50.088048],[14.565559,50.088058],[14.565559,50.088058],[14.565895,50.088405],[14.56593,50.088441],[14.565956,50.088467],[14.56601,50.088524],[14.566062,50.088577],[14.566086,50.088635],[14.566198,50.08862],[14.566284,50.088643],[14.5666,50.088732],[14.566701,50.088776],[14.566628,50.08881],[14.566591,50.088924],[14.566503,50.089197],[14.566647,50.089344],[14.56676,50.089459],[14.566956,50.08966],[14.567473,50.08945],[14.56862,50.088885],[14.56923,50.088553],[14.569299,50.088515],[14.56933,50.088498],[14.569424,50.088538],[14.569444,50.088547],[14.56999,50.088896],[14.569991,50.088897],[14.57002,50.088919],[14.570216,50.088826],[14.570246,50.088848],[14.570414,50.088972],[14.570482,50.088965],[14.570588,50.088953],[14.570744,50.088937],[14.570795,50.088932],[14.570915,50.089043],[14.57101,50.089131],[14.571058,50.089176],[14.571146,50.089255],[14.571153,50.089262],[14.571194,50.089299],[14.571325,50.089417],[14.571591,50.089403],[14.571734,50.089526],[14.571752,50.089542],[14.571775,50.089562],[14.571845,50.089623],[14.571875,50.089609],[14.572147,50.089818],[14.572149,50.089834],[14.572155,50.089873],[14.572176,50.089889],[14.572185,50.089896],[14.572426,50.090082],[14.572518,50.090153],[14.572715,50.090305],[14.572687,50.09034],[14.572407,50.09021],[14.572294,50.090272],[14.572177,50.090338],[14.571955,50.090457],[14.571955,50.090457],[14.571576,50.09064],[14.571905,50.090944],[14.572374,50.091377],[14.572398,50.091399],[14.572491,50.091478],[14.572573,50.091516],[14.572595,50.091526],[14.571893,50.092171],[14.570972,50.0927],[14.569632,50.093381],[14.570308,50.093405],[14.570557,50.093413],[14.570575,50.093414],[14.570617,50.093435],[14.572228,50.094268],[14.573138,50.094585],[14.573262,50.094623],[14.573149,50.094766],[14.573061,50.094878],[14.57306,50.09488],[14.573014,50.095105],[14.573018,50.095218],[14.573018,50.095222],[14.573018,50.095256],[14.573019,50.095328],[14.573019,50.095461],[14.573784,50.09569],[14.574344,50.095858],[14.574332,50.095873],[14.57432,50.095888],[14.573944,50.09637],[14.573827,50.09652],[14.573741,50.096631],[14.573651,50.096747],[14.573523,50.096957],[14.573387,50.097183],[14.573367,50.097217],[14.573212,50.097473],[14.573052,50.097739],[14.572839,50.098092],[14.573039,50.098151],[14.574405,50.098557],[14.574448,50.09857],[14.57445,50.098571],[14.573682,50.099691],[14.57297,50.100727]]]}}]}
