{"type":"FeatureCollection","features":[{"type":"Feature","properties":{"cislo":1001,"kod":30531,"mestskaCast":"praha-1"},"geometry":{"type":"Polygon","coordinates":[[[14.389005,50.092095],[14.389096,50.092528],[14.389437,50.092763],[14.39105,50.092946],[14.392185,50.093071],[14.396852,50.093586],[14.398344,50.093304],[14.398348,50.093303],[14.399236,50.093427],[14.399926,50.093555],[14.403883,50.094125],[14.404454,50.094207],[14.405694,50.094363],[14.405694,50.094363],[14.405694,50.094363],[14.406407,50.093074],[14.406255,50.09306],[14.406163,50.092898],[14.406318,50.092766],[14.406701,50.092755],[14.406715,50.092692],[14.406753,50.092514],[14.406757,50.092496],[14.406208,50.092357],[14.405934,50.091924],[14.405196,50.09155],[14.404581,50.09126],[14.403349,50.090624],[14.402466,50.090201],[14.402414,50.090178],[14.402089,50.09005],[14.402097,50.090014],[14.402089,50.089986],[14.402084,50.08994],[14.402066,50.089893],[14.402038,50.089827],[14.402016,50.089798],[14.401951,50.089774],[14.401887,50.089741],[14.401828,50.089754],[14.4018,50.089752],[14.401798,50.089761],[14.401712,50.089771],[14.401639,50.089783],[14.401637,50.089792],[14.401621,50.089799],[14.401607,50.089798],[14.401593,50.089797],[14.401577,50.089804],[14.401564,50.089803],[14.40155,50.089802],[14.401538,50.089792],[14.401524,50.089791],[14.40151,50.089789],[14.401498,50.089779],[14.401488,50.08976],[14.401449,50.089748],[14.401373,50.089705],[14.401359,50.089703],[14.401347,50.089693],[14.40127,50.089659],[14.401237,50.089683],[14.401213,50.089663],[14.401197,50.089408],[14.401195,50.089353],[14.401194,50.089289],[14.401169,50.089142],[14.401161,50.089114],[14.401088,50.089126],[14.400914,50.089147],[14.400739,50.089176],[14.400547,50.089214],[14.40031,50.089265],[14.400284,50.089191],[14.4,50.089202],[14.399995,50.089156],[14.399987,50.089064],[14.399982,50.089019],[14.399996,50.088956],[14.399993,50.088902],[14.400012,50.088685],[14.399968,50.088691],[14.399972,50.088673],[14.399944,50.08867],[14.399963,50.088581],[14.399977,50.088519],[14.399724,50.088515],[14.399524,50.088524],[14.399344,50.088508],[14.399006,50.088505],[14.398658,50.088484],[14.398462,50.088475],[14.398435,50.088473],[14.398379,50.088468],[14.398308,50.088471],[14.398196,50.08847],[14.397951,50.088493],[14.397645,50.088539],[14.397501,50.088553],[14.397299,50.088572],[14.397062,50.08856],[14.396725,50.088484],[14.396684,50.088481],[14.396678,50.088444],[14.39669,50.088318],[14.39667,50.088216],[14.396583,50.088227],[14.396528,50.088222],[14.396523,50.088176],[14.396479,50.088118],[14.390534,50.086964],[14.390522,50.08689],[14.390521,50.086826],[14.390552,50.086747],[14.390583,50.086668],[14.390626,50.0866],[14.390697,50.086533],[14.390797,50.086461],[14.390911,50.086389],[14.391053,50.08632],[14.391167,50.086248],[14.391281,50.086177],[14.391354,50.086102],[14.391413,50.086025],[14.391459,50.085938],[14.391492,50.085851],[14.391529,50.085681],[14.391551,50.085575],[14.391594,50.085506],[14.391632,50.085464],[14.391681,50.085432],[14.391748,50.085383],[14.391815,50.085335],[14.391836,50.0853],[14.391879,50.085231],[14.391902,50.085188],[14.391943,50.085128],[14.391995,50.085087],[14.392056,50.085066],[14.392144,50.085046],[14.392231,50.085036],[14.392443,50.085036],[14.392543,50.085027],[14.392672,50.085021],[14.392729,50.085017],[14.392788,50.085004],[14.392849,50.084982],[14.392912,50.084951],[14.392977,50.084912],[14.39306,50.084855],[14.393127,50.084807],[14.393188,50.084785],[14.393247,50.084772],[14.393175,50.084384],[14.393608,50.084205],[14.392515,50.082352],[14.392286,50.081981],[14.392049,50.08194],[14.391052,50.081767],[14.390895,50.082139],[14.390717,50.08256],[14.391024,50.082905],[14.389534,50.08341],[14.389284,50.083094],[14.389249,50.08305],[14.388024,50.082975],[14.38802,50.082982],[14.388008,50.083004],[14.387871,50.083789],[14.387864,50.083797],[14.387885,50.083802],[14.388122,50.083919],[14.388362,50.084031],[14.388343,50.084048],[14.387264,50.084977],[14.387248,50.084992],[14.387242,50.084997],[14.386754,50.084751],[14.386749,50.084749],[14.385631,50.085107],[14.385558,50.08513],[14.385522,50.085106],[14.385509,50.0851],[14.385088,50.085291],[14.384975,50.085301],[14.384842,50.085312],[14.384993,50.085537],[14.385036,50.085601],[14.385447,50.086214],[14.385549,50.086365],[14.385556,50.086366],[14.385569,50.086368],[14.387267,50.086769],[14.387592,50.086888],[14.388107,50.08715],[14.388232,50.08729],[14.388264,50.087507],[14.388199,50.087802],[14.388032,50.088687],[14.388031,50.088702],[14.387966,50.089338],[14.388603,50.090582],[14.388781,50.091025],[14.389005,50.092095]]]}},{"type":"Feature","properties":{"cislo":1002,"kod":30533,"mestskaCast":"praha-1"},"geometry":{"type":"Polygon","coordinates":[[[14.41351,50.093167],[14.413917,50.093238],[14.414444,50.09331],[14.414771,50.093371],[14.415042,50.093445],[14.416492,50.093894],[14.417045,50.093047],[14.416983,50.093031],[14.416944,50.093018],[14.416797,50.092978],[14.41489,50.092001],[14.413635,50.090746],[14.412802,50.089366],[14.412216,50.088215],[14.411542,50.086685],[14.411406,50.086528],[14.411384,50.086499],[14.411386,50.08649],[14.409457,50.086737],[14.409458,50.0868],[14.409626,50.087133],[14.409702,50.087239],[14.409752,50.087335],[14.409815,50.08744],[14.409791,50.087483],[14.409758,50.087507],[14.409744,50.087506],[14.409728,50.087514],[14.409699,50.08752],[14.409473,50.087519],[14.409244,50.087471],[14.409192,50.087448],[14.409154,50.087427],[14.409115,50.087414],[14.408966,50.087383],[14.408899,50.087368],[14.408835,50.087335],[14.408774,50.087293],[14.40875,50.087273],[14.408736,50.087272],[14.408625,50.087198],[14.408577,50.087158],[14.408468,50.087075],[14.408404,50.087043],[14.408406,50.087034],[14.408382,50.087013],[14.408369,50.087012],[14.408277,50.087177],[14.406999,50.087217],[14.40674,50.08724],[14.406469,50.087252],[14.406234,50.087295],[14.406175,50.087308],[14.406057,50.087334],[14.405865,50.087371],[14.405469,50.087445],[14.40504,50.087534],[14.40466,50.0876],[14.404541,50.087626],[14.404421,50.087661],[14.404279,50.087666],[14.403935,50.08769],[14.403865,50.08762],[14.403825,50.087544],[14.403766,50.087357],[14.403746,50.087256],[14.403737,50.087164],[14.40376,50.087057],[14.402446,50.087268],[14.40211,50.087319],[14.401628,50.087395],[14.401512,50.087412],[14.401441,50.087414],[14.401427,50.087413],[14.401055,50.087371],[14.400887,50.087365],[14.40079,50.087357],[14.40061,50.087341],[14.400343,50.087335],[14.400094,50.087313],[14.400066,50.087311],[14.399831,50.08729],[14.39972,50.08728],[14.399608,50.087279],[14.399412,50.087271],[14.399285,50.087269],[14.399237,50.087364],[14.399168,50.087485],[14.399117,50.087526],[14.399039,50.087564],[14.398991,50.087587],[14.398911,50.087635],[14.398862,50.087667],[14.398844,50.087683],[14.398746,50.087747],[14.39864,50.087847],[14.398544,50.087965],[14.398483,50.08805],[14.398481,50.088059],[14.39844,50.088119],[14.398399,50.088243],[14.398392,50.088342],[14.398405,50.088416],[14.398435,50.088473],[14.398462,50.088475],[14.398658,50.088484],[14.399006,50.088505],[14.399344,50.088508],[14.399524,50.088524],[14.399724,50.088515],[14.399977,50.088519],[14.399963,50.088581],[14.399944,50.08867],[14.399972,50.088673],[14.399968,50.088691],[14.400012,50.088685],[14.399993,50.088902],[14.399996,50.088956],[14.399982,50.089019],[14.399987,50.089064],[14.399995,50.089156],[14.4,50.089202],[14.400284,50.089191],[14.40031,50.089265],[14.400547,50.089214],[14.400739,50.089176],[14.400914,50.089147],[14.401088,50.089126],[14.401161,50.089114],[14.401169,50.089142],[14.401194,50.089289],[14.401195,50.089353],[14.401197,50.089408],[14.401213,50.089663],[14.401237,50.089683],[14.40127,50.089659],[14.401347,50.089693],[14.401359,50.089703],[14.401373,50.089705],[14.401449,50.089748],[14.401488,50.08976],[14.401498,50.089779],[14.40151,50.089789],[14.401524,50.089791],[14.401538,50.089792],[14.40155,50.089802],[14.401564,50.089803],[14.401577,50.089804],[14.401593,50.089797],[14.401607,50.089798],[14.401621,50.089799],[14.401637,50.089792],[14.401639,50.089783],[14.401712,50.089771],[14.401798,50.089761],[14.4018,50.089752],[14.401828,50.089754],[14.401887,50.089741],[14.401951,50.089774],[14.402016,50.089798],[14.402038,50.089827],[14.402066,50.089893],[14.402084,50.08994],[14.402089,50.089986],[14.402097,50.090014],[14.402089,50.09005],[14.402414,50.090178],[14.402466,50.090201],[14.403349,50.090624],[14.404581,50.09126],[14.405196,50.09155],[14.405934,50.091924],[14.406208,50.092357],[14.406757,50.092496],[14.406753,50.092514],[14.406715,50.092692],[14.406701,50.092755],[14.406318,50.092766],[14.406163,50.092898],[14.406255,50.09306],[14.406407,50.093074],[14.405694,50.094363],[14.405694,50.094363],[14.405694,50.094363],[14.405927,50.094392],[14.406228,50.094459],[14.407231,50.094684],[14.407958,50.094836],[14.408696,50.094943],[14.409156,50.095028],[14.409073,50.095155],[14.409208,50.095144],[14.409264,50.09514],[14.409383,50.09513],[14.409417,50.095127],[14.409637,50.095412],[14.411107,50.095423],[14.410965,50.094677],[14.410962,50.094654],[14.410953,50.09458],[14.410947,50.094537],[14.410943,50.09452],[14.410942,50.094492],[14.410677,50.094438],[14.410671,50.094437],[14.41055,50.094413],[14.410571,50.094371],[14.410808,50.093908],[14.410893,50.093743],[14.410907,50.093715],[14.410913,50.093716],[14.410985,50.093732],[14.411024,50.09374],[14.411031,50.093742],[14.411299,50.0938],[14.411953,50.09335],[14.412137,50.093221],[14.412142,50.093217],[14.412059,50.09311],[14.412055,50.093111],[14.412004,50.093025],[14.411963,50.092949],[14.411836,50.092766],[14.41172,50.092629],[14.411696,50.092602],[14.411608,50.0925],[14.411479,50.092355],[14.411473,50.092337],[14.411431,50.092218],[14.412309,50.092729],[14.41351,50.093167]]]}},{"type":"Feature","properties":{"cislo":1003,"kod":30535,"mestskaCast":"praha-1"},"geometry":{"type":"Polygon","coordinates":[[[14.393247,50.084772],[14.393188,50.084785],[14.393127,50.084807],[14.39306,50.084855],[14.392977,50.084912],[14.392912,50.084951],[14.392849,50.084982],[14.392788,50.085004],[14.392729,50.085017],[14.392672,50.085021],[14.392543,50.085027],[14.392443,50.085036],[14.392231,50.085036],[14.392144,50.085046],[14.392056,50.085066],[14.391995,50.085087],[14.391943,50.085128],[14.391902,50.085188],[14.391879,50.085231],[14.391836,50.0853],[14.391815,50.085335],[14.391748,50.085383],[14.391681,50.085432],[14.391632,50.085464],[14.391594,50.085506],[14.391551,50.085575],[14.391529,50.085681],[14.391492,50.085851],[14.391459,50.085938],[14.391413,50.086025],[14.391354,50.086102],[14.391281,50.086177],[14.391167,50.086248],[14.391053,50.08632],[14.390911,50.086389],[14.390797,50.086461],[14.390697,50.086533],[14.390626,50.0866],[14.390583,50.086668],[14.390552,50.086747],[14.390521,50.086826],[14.390522,50.08689],[14.390534,50.086964],[14.396479,50.088118],[14.396523,50.088176],[14.396528,50.088222],[14.396583,50.088227],[14.39667,50.088216],[14.39669,50.088318],[14.396678,50.088444],[14.396684,50.088481],[14.396725,50.088484],[14.397062,50.08856],[14.397299,50.088572],[14.397501,50.088553],[14.397645,50.088539],[14.397951,50.088493],[14.398196,50.08847],[14.398308,50.088471],[14.398379,50.088468],[14.398435,50.088473],[14.398405,50.088416],[14.398392,50.088342],[14.398399,50.088243],[14.39844,50.088119],[14.398481,50.088059],[14.398483,50.08805],[14.398544,50.087965],[14.39864,50.087847],[14.398746,50.087747],[14.398844,50.087683],[14.398862,50.087667],[14.398911,50.087635],[14.398991,50.087587],[14.399039,50.087564],[14.399117,50.087526],[14.399168,50.087485],[14.399237,50.087364],[14.399285,50.087269],[14.399412,50.087271],[14.399608,50.087279],[14.39972,50.08728],[14.399831,50.08729],[14.400066,50.087311],[14.400094,50.087313],[14.400343,50.087335],[14.40061,50.087341],[14.40079,50.087357],[14.400887,50.087365],[14.401055,50.087371],[14.401427,50.087413],[14.401441,50.087414],[14.401512,50.087412],[14.401628,50.087395],[14.40211,50.087319],[14.402446,50.087268],[14.40376,50.087057],[14.403737,50.087164],[14.403746,50.087256],[14.403766,50.087357],[14.403825,50.087544],[14.403865,50.08762],[14.403935,50.08769],[14.404279,50.087666],[14.404421,50.087661],[14.404541,50.087626],[14.40466,50.0876],[14.40504,50.087534],[14.405469,50.087445],[14.405865,50.087371],[14.406057,50.087334],[14.406175,50.087308],[14.406123,50.087222],[14.405987,50.087001],[14.405908,50.086776],[14.405845,50.086743],[14.405732,50.086742],[14.405655,50.086708],[14.405638,50.086652],[14.405694,50.086457],[14.405591,50.086412],[14.405399,50.086386],[14.405251,50.086355],[14.405202,50.086187],[14.405262,50.086038],[14.405281,50.085949],[14.405226,50.085944],[14.405172,50.08593],[14.404963,50.085921],[14.404949,50.085919],[14.404947,50.085928],[14.404751,50.08592],[14.404307,50.08589],[14.404208,50.08589],[14.40336,50.085833],[14.402752,50.08577],[14.40227,50.085718],[14.40191,50.085686],[14.401617,50.085669],[14.401305,50.085678],[14.400584,50.085686],[14.40026,50.085685],[14.400135,50.085674],[14.399999,50.085653],[14.399325,50.085502],[14.398724,50.085349],[14.398456,50.08528],[14.398258,50.085217],[14.398052,50.085126],[14.397913,50.08505],[14.397818,50.084969],[14.397738,50.08488],[14.397666,50.085019],[14.397615,50.08506],[14.397542,50.085072],[14.397399,50.085077],[14.396642,50.085055],[14.395897,50.085044],[14.39546,50.085041],[14.395387,50.085053],[14.39533,50.085057],[14.395283,50.08508],[14.395157,50.085141],[14.394982,50.085235],[14.39483,50.085285],[14.39465,50.085332],[14.39455,50.085342],[14.394465,50.085343],[14.39437,50.085326],[14.394263,50.085298],[14.394189,50.085246],[14.394102,50.085193],[14.394024,50.085095],[14.393911,50.084967],[14.393825,50.084905],[14.393712,50.084841],[14.393607,50.084804],[14.393498,50.084785],[14.393374,50.084774],[14.393247,50.084772]]]}},{"type":"Feature","properties":{"cislo":1004,"kod":30537,"mestskaCast":"praha-1"},"geometry":{"type":"Polygon","coordinates":[[[14.404208,50.08589],[14.404237,50.08582],[14.404257,50.085658],[14.404285,50.085198],[14.404299,50.084936],[14.404343,50.084404],[14.404358,50.084333],[14.404392,50.08391],[14.404444,50.083469],[14.404469,50.083154],[14.404718,50.083113],[14.40493,50.083113],[14.405295,50.083118],[14.405491,50.083127],[14.405592,50.083117],[14.405651,50.083104],[14.405787,50.083062],[14.405857,50.082996],[14.405936,50.082894],[14.405996,50.082808],[14.4061,50.082654],[14.406157,50.082587],[14.406213,50.082519],[14.406276,50.082425],[14.406348,50.082349],[14.406421,50.082274],[14.406497,50.082181],[14.406617,50.082083],[14.406753,50.081977],[14.406914,50.081882],[14.406968,50.081234],[14.406968,50.08123],[14.406968,50.08123],[14.406188,50.081221],[14.404531,50.081177],[14.404566,50.080806],[14.404408,50.080801],[14.404229,50.080797],[14.403978,50.080793],[14.403954,50.080792],[14.403699,50.080778],[14.403169,50.080752],[14.403156,50.080753],[14.403151,50.080752],[14.402333,50.080749],[14.402226,50.080749],[14.401915,50.080748],[14.401915,50.08066],[14.40194,50.080649],[14.401951,50.080625],[14.401937,50.080603],[14.401895,50.08059],[14.401859,50.080599],[14.401843,50.080618],[14.401747,50.080606],[14.401654,50.080618],[14.401634,50.080599],[14.401593,50.080591],[14.401546,50.080614],[14.401547,50.080644],[14.40158,50.080661],[14.401579,50.080743],[14.400801,50.080652],[14.400649,50.080641],[14.400457,50.080639],[14.400327,50.080646],[14.400261,50.08065],[14.400195,50.080659],[14.39981,50.080708],[14.399668,50.080728],[14.399649,50.080675],[14.399618,50.080594],[14.399674,50.080582],[14.399666,50.080559],[14.398842,50.080651],[14.398735,50.080251],[14.39758,50.079925],[14.397513,50.080019],[14.397487,50.080054],[14.39746,50.080092],[14.397405,50.080169],[14.397204,50.08045],[14.397074,50.080631],[14.397064,50.080646],[14.397131,50.080739],[14.397342,50.08102],[14.396167,50.081361],[14.395747,50.081483],[14.395491,50.081113],[14.395435,50.081098],[14.395384,50.081085],[14.395237,50.081049],[14.394373,50.080833],[14.394337,50.080824],[14.394333,50.080823],[14.39391,50.081563],[14.39392,50.081579],[14.394136,50.081939],[14.393853,50.082011],[14.393765,50.082034],[14.393738,50.082041],[14.393734,50.082042],[14.392515,50.082352],[14.393608,50.084205],[14.393175,50.084384],[14.393247,50.084772],[14.393374,50.084774],[14.393498,50.084785],[14.393607,50.084804],[14.393712,50.084841],[14.393825,50.084905],[14.393911,50.084967],[14.394024,50.085095],[14.394102,50.085193],[14.394189,50.085246],[14.394263,50.085298],[14.39437,50.085326],[14.394465,50.085343],[14.39455,50.085342],[14.39465,50.085332],[14.39483,50.085285],[14.394982,50.085235],[14.395157,50.085141],[14.395283,50.08508],[14.39533,50.085057],[14.395387,50.085053],[14.39546,50.085041],[14.395897,50.085044],[14.396642,50.085055],[14.397399,50.085077],[14.397542,50.085072],[14.397615,50.08506],[14.397666,50.085019],[14.397738,50.08488],[14.397818,50.084969],[14.397913,50.08505],[14.398052,50.085126],[14.398258,50.085217],[14.398456,50.08528],[14.398724,50.085349],[14.399325,50.085502],[14.399999,50.085653],[14.400135,50.085674],[14.40026,50.085685],[14.400584,50.085686],[14.401305,50.085678],[14.401617,50.085669],[14.40191,50.085686],[14.40227,50.085718],[14.402752,50.08577],[14.40336,50.085833],[14.404208,50.08589]]]}},{"type":"Feature","properties":{"cislo":1005,"kod":30539,"mestskaCast":"praha-1"},"geometry":{"type":"Polygon","coordinates":[[[14.406175,50.087308],[14.406234,50.087295],[14.406469,50.087252],[14.40674,50.08724],[14.406999,50.087217],[14.408277,50.087177],[14.408369,50.087012],[14.408382,50.087013],[14.408406,50.087034],[14.408404,50.087043],[14.408468,50.087075],[14.408577,50.087158],[14.408625,50.087198],[14.408736,50.087272],[14.40875,50.087273],[14.408774,50.087293],[14.408835,50.087335],[14.408899,50.087368],[14.408966,50.087383],[14.409115,50.087414],[14.409154,50.087427],[14.409192,50.087448],[14.409244,50.087471],[14.409473,50.087519],[14.409699,50.08752],[14.409728,50.087514],[14.409744,50.087506],[14.409758,50.087507],[14.409791,50.087483],[14.409815,50.08744],[14.409752,50.087335],[14.409702,50.087239],[14.409626,50.087133],[14.409458,50.0868],[14.409457,50.086737],[14.411386,50.08649],[14.41134,50.086441],[14.4106,50.085549],[14.409964,50.08424],[14.409952,50.08423],[14.409912,50.084154],[14.409895,50.084098],[14.409689,50.08368],[14.409528,50.083376],[14.408977,50.082129],[14.409103,50.081278],[14.408008,50.08125],[14.40793,50.081248],[14.406979,50.08123],[14.406968,50.08123],[14.406968,50.08123],[14.406968,50.081234],[14.406914,50.081882],[14.406753,50.081977],[14.406617,50.082083],[14.406497,50.082181],[14.406421,50.082274],[14.406348,50.082349],[14.406276,50.082425],[14.406213,50.082519],[14.406157,50.082587],[14.4061,50.082654],[14.405996,50.082808],[14.405936,50.082894],[14.405857,50.082996],[14.405787,50.083062],[14.405651,50.083104],[14.405592,50.083117],[14.405491,50.083127],[14.405295,50.083118],[14.40493,50.083113],[14.404718,50.083113],[14.404469,50.083154],[14.404444,50.083469],[14.404392,50.08391],[14.404358,50.084333],[14.404343,50.084404],[14.404299,50.084936],[14.404285,50.085198],[14.404257,50.085658],[14.404237,50.08582],[14.404208,50.08589],[14.404307,50.08589],[14.404751,50.08592],[14.404947,50.085928],[14.404949,50.085919],[14.404963,50.085921],[14.405172,50.08593],[14.405226,50.085944],[14.405281,50.085949],[14.405262,50.086038],[14.405202,50.086187],[14.405251,50.086355],[14.405399,50.086386],[14.405591,50.086412],[14.405694,50.086457],[14.405638,50.086652],[14.405655,50.086708],[14.405732,50.086742],[14.405845,50.086743],[14.405908,50.086776],[14.405987,50.087001],[14.406123,50.087222],[14.406175,50.087308]]]}},{"type":"Feature","properties":{"cislo":1006,"kod":30541,"mestskaCast":"praha-1"},"geometry":{"type":"Polygon","coordinates":[[[14.409103,50.081278],[14.408977,50.082129],[14.409528,50.083376],[14.409689,50.08368],[14.413289,50.083464],[14.413775,50.083434],[14.413868,50.083461],[14.413991,50.083481],[14.414197,50.083508],[14.414414,50.083546],[14.415602,50.083732],[14.416173,50.083828],[14.416595,50.083902],[14.41666,50.083926],[14.416708,50.083967],[14.416845,50.084051],[14.417116,50.084039],[14.417385,50.084036],[14.417501,50.084019],[14.417606,50.084055],[14.417707,50.084109],[14.417783,50.084152],[14.417834,50.084175],[14.41802,50.084164],[14.418206,50.084154],[14.418281,50.084133],[14.418292,50.08408],[14.418384,50.083979],[14.418451,50.08393],[14.418441,50.083911],[14.418403,50.083826],[14.418423,50.083665],[14.418477,50.083479],[14.418533,50.083348],[14.418678,50.083197],[14.418821,50.083056],[14.418907,50.082918],[14.418985,50.082752],[14.419074,50.082533],[14.419154,50.082359],[14.419171,50.082342],[14.417661,50.081954],[14.417705,50.081877],[14.418397,50.080822],[14.418012,50.080706],[14.418233,50.080335],[14.418419,50.079725],[14.418,50.079643],[14.41682,50.079357],[14.415903,50.079094],[14.415704,50.079167],[14.415544,50.079126],[14.41553,50.079124],[14.415461,50.079118],[14.415293,50.079113],[14.415196,50.079104],[14.415173,50.079474],[14.415068,50.079501],[14.414247,50.079782],[14.414091,50.079787],[14.413887,50.07975],[14.413832,50.079873],[14.413657,50.080166],[14.413516,50.080362],[14.41327,50.080721],[14.413091,50.081032],[14.413018,50.081307],[14.412914,50.081262],[14.412901,50.08126],[14.412887,50.081259],[14.412859,50.081257],[14.412438,50.081247],[14.411735,50.081239],[14.411401,50.080029],[14.411392,50.079874],[14.411344,50.079244],[14.411339,50.079198],[14.410887,50.078677],[14.410886,50.078676],[14.409823,50.079066],[14.409499,50.079838],[14.409135,50.080765],[14.409133,50.080766],[14.409123,50.081177],[14.409108,50.081278],[14.409103,50.081278]]]}},{"type":"Feature","properties":{"cislo":1007,"kod":30543,"mestskaCast":"praha-1"},"geometry":{"type":"Polygon","coordinates":[[[14.421999,50.087258],[14.42208,50.087274],[14.422359,50.08729],[14.422598,50.087293],[14.422813,50.087275],[14.423064,50.087225],[14.423194,50.087209],[14.423485,50.087171],[14.423741,50.087158],[14.423953,50.087158],[14.424235,50.087156],[14.424544,50.087165],[14.424799,50.087161],[14.425125,50.087153],[14.425461,50.087165],[14.425738,50.087189],[14.425969,50.087228],[14.426248,50.087244],[14.426436,50.087224],[14.426785,50.087237],[14.427382,50.087217],[14.427601,50.087182],[14.428009,50.087055],[14.425256,50.08535],[14.425119,50.085265],[14.42383,50.084434],[14.42362,50.084297],[14.423594,50.084286],[14.423371,50.084139],[14.423125,50.083972],[14.422029,50.083158],[14.42192,50.083076],[14.421725,50.082931],[14.42054,50.082672],[14.420215,50.082607],[14.419171,50.082342],[14.419154,50.082359],[14.419074,50.082533],[14.418985,50.082752],[14.418907,50.082918],[14.418821,50.083056],[14.418678,50.083197],[14.418533,50.083348],[14.418477,50.083479],[14.418423,50.083665],[14.418403,50.083826],[14.418441,50.083911],[14.418451,50.08393],[14.418568,50.084041],[14.418626,50.0841],[14.418682,50.084169],[14.418754,50.084293],[14.418808,50.08437],[14.418826,50.084417],[14.418897,50.084415],[14.418994,50.084423],[14.419113,50.084461],[14.419309,50.084533],[14.419414,50.084569],[14.419714,50.08475],[14.419752,50.084772],[14.419869,50.084818],[14.420135,50.08496],[14.420149,50.084961],[14.420224,50.085004],[14.42035,50.085142],[14.420364,50.085143],[14.420411,50.085184],[14.420447,50.085214],[14.420495,50.085255],[14.42065,50.085387],[14.420793,50.085508],[14.420869,50.085551],[14.420641,50.085694],[14.420639,50.085767],[14.42065,50.085913],[14.420665,50.085978],[14.420683,50.086025],[14.420685,50.08608],[14.420697,50.086289],[14.420702,50.086399],[14.420688,50.086461],[14.420679,50.086505],[14.420665,50.086568],[14.420595,50.086698],[14.420955,50.086929],[14.421246,50.087019],[14.421405,50.087069],[14.421716,50.087196],[14.421811,50.087214],[14.421999,50.087258]]]}},{"type":"Feature","properties":{"cislo":1008,"kod":30545,"mestskaCast":"praha-1"},"geometry":{"type":"Polygon","coordinates":[[[14.411384,50.086499],[14.412575,50.086341],[14.413933,50.086126],[14.414395,50.086076],[14.414461,50.086227],[14.414491,50.086284],[14.414501,50.086303],[14.414511,50.086322],[14.414613,50.08644],[14.414693,50.086593],[14.414833,50.086796],[14.414922,50.086976],[14.415074,50.087252],[14.415121,50.087229],[14.415196,50.087209],[14.415283,50.087198],[14.41687,50.08723],[14.416593,50.087868],[14.416341,50.088517],[14.416517,50.088488],[14.417635,50.088205],[14.417919,50.088131],[14.419037,50.087849],[14.420657,50.087529],[14.421999,50.087258],[14.421811,50.087214],[14.421716,50.087196],[14.421405,50.087069],[14.421246,50.087019],[14.420955,50.086929],[14.420595,50.086698],[14.420665,50.086568],[14.420679,50.086505],[14.420688,50.086461],[14.420702,50.086399],[14.420697,50.086289],[14.420685,50.08608],[14.420683,50.086025],[14.420665,50.085978],[14.42065,50.085913],[14.420639,50.085767],[14.420641,50.085694],[14.420869,50.085551],[14.420793,50.085508],[14.42065,50.085387],[14.420495,50.085255],[14.420447,50.085214],[14.420411,50.085184],[14.420364,50.085143],[14.42035,50.085142],[14.420224,50.085004],[14.420149,50.084961],[14.420135,50.08496],[14.419869,50.084818],[14.419752,50.084772],[14.419714,50.08475],[14.419414,50.084569],[14.419309,50.084533],[14.419113,50.084461],[14.418994,50.084423],[14.418897,50.084415],[14.418826,50.084417],[14.418808,50.08437],[14.418754,50.084293],[14.418682,50.084169],[14.418626,50.0841],[14.418568,50.084041],[14.418451,50.08393],[14.418384,50.083979],[14.418292,50.08408],[14.418281,50.084133],[14.418206,50.084154],[14.41802,50.084164],[14.417834,50.084175],[14.417783,50.084152],[14.417707,50.084109],[14.417606,50.084055],[14.417501,50.084019],[14.417385,50.084036],[14.417116,50.084039],[14.416845,50.084051],[14.416708,50.083967],[14.41666,50.083926],[14.416595,50.083902],[14.416173,50.083828],[14.415602,50.083732],[14.414414,50.083546],[14.414197,50.083508],[14.413991,50.083481],[14.413868,50.083461],[14.413775,50.083434],[14.413289,50.083464],[14.409689,50.08368],[14.409895,50.084098],[14.409912,50.084154],[14.409952,50.08423],[14.409964,50.08424],[14.4106,50.085549],[14.41134,50.086441],[14.411386,50.08649],[14.411384,50.086499]]]}},{"type":"Feature","properties":{"cislo":1009,"kod":30547,"mestskaCast":"praha-1"},"geometry":{"type":"Polygon","coordinates":[[[14.417045,50.093047],[14.417046,50.093044],[14.417854,50.091864],[14.418558,50.090747],[14.418599,50.090687],[14.41939,50.089432],[14.419805,50.088743],[14.420063,50.088393],[14.420108,50.088316],[14.420413,50.08788],[14.420456,50.087811],[14.420657,50.087529],[14.419037,50.087849],[14.417919,50.088131],[14.417635,50.088205],[14.416517,50.088488],[14.416341,50.088517],[14.416593,50.087868],[14.41687,50.08723],[14.415283,50.087198],[14.415196,50.087209],[14.415121,50.087229],[14.415074,50.087252],[14.414922,50.086976],[14.414833,50.086796],[14.414693,50.086593],[14.414613,50.08644],[14.414511,50.086322],[14.414501,50.086303],[14.414491,50.086284],[14.414461,50.086227],[14.414395,50.086076],[14.413933,50.086126],[14.412575,50.086341],[14.411384,50.086499],[14.411406,50.086528],[14.411542,50.086685],[14.412216,50.088215],[14.412802,50.089366],[14.413635,50.090746],[14.41489,50.092001],[14.416797,50.092978],[14.416944,50.093018],[14.416983,50.093031],[14.417045,50.093047]]]}},{"type":"Feature","properties":{"cislo":1010,"kod":30549,"mestskaCast":"praha-1"},"geometry":{"type":"Polygon","coordinates":[[[14.422461,50.094001],[14.424626,50.094151],[14.42495,50.094173],[14.42495,50.094173],[14.42495,50.094172],[14.425042,50.092555],[14.425065,50.092512],[14.425104,50.092461],[14.425145,50.092401],[14.4252,50.092342],[14.425239,50.092291],[14.425249,50.092247],[14.425231,50.0922],[14.425197,50.09216],[14.424894,50.091925],[14.424864,50.091605],[14.424825,50.091592],[14.424731,50.091566],[14.424682,50.091534],[14.424664,50.091487],[14.424661,50.091432],[14.424761,50.091296],[14.424852,50.091132],[14.424169,50.090962],[14.423106,50.090523],[14.422771,50.090575],[14.422416,50.090653],[14.422236,50.090964],[14.422188,50.091123],[14.422165,50.091229],[14.4219,50.091215],[14.42067,50.091097],[14.420381,50.091062],[14.419443,50.090898],[14.418558,50.090747],[14.417854,50.091864],[14.417046,50.093044],[14.417045,50.093047],[14.417115,50.093062],[14.417153,50.093072],[14.418641,50.093457],[14.420601,50.093801],[14.422397,50.093997],[14.422461,50.094001]]]}},{"type":"Feature","properties":{"cislo":1011,"kod":30551,"mestskaCast":"praha-1"},"geometry":{"type":"Polygon","coordinates":[[[14.422771,50.090575],[14.423106,50.090523],[14.424169,50.090962],[14.424852,50.091132],[14.424761,50.091296],[14.424661,50.091432],[14.424664,50.091487],[14.424682,50.091534],[14.424731,50.091566],[14.424825,50.091592],[14.424864,50.091605],[14.424894,50.091925],[14.425197,50.09216],[14.425231,50.0922],[14.425249,50.092247],[14.425239,50.092291],[14.4252,50.092342],[14.425145,50.092401],[14.425104,50.092461],[14.425065,50.092512],[14.425042,50.092555],[14.42495,50.094172],[14.42495,50.094173],[14.42495,50.094173],[14.42677,50.094292],[14.426772,50.094292],[14.42697,50.093434],[14.427005,50.093337],[14.427009,50.093319],[14.427036,50.093258],[14.427051,50.093187],[14.427069,50.09317],[14.42708,50.093117],[14.42714,50.092968],[14.427235,50.092722],[14.427245,50.092677],[14.427272,50.092616],[14.427312,50.092493],[14.427489,50.091864],[14.42761,50.09143],[14.427772,50.090736],[14.427897,50.090221],[14.428375,50.089038],[14.42839,50.088903],[14.42847,50.087604],[14.428221,50.087318],[14.428009,50.087055],[14.427601,50.087182],[14.427382,50.087217],[14.426785,50.087237],[14.426436,50.087224],[14.426248,50.087244],[14.425969,50.087228],[14.425954,50.087299],[14.425923,50.087378],[14.425865,50.087518],[14.42574,50.08777],[14.425713,50.087832],[14.425487,50.088229],[14.425123,50.088151],[14.424534,50.088136],[14.424474,50.088611],[14.424299,50.088904],[14.42392,50.089225],[14.425466,50.089716],[14.425876,50.089843],[14.425853,50.090476],[14.425779,50.09056],[14.424962,50.090288],[14.42414,50.090043],[14.422631,50.089446],[14.422428,50.089537],[14.422661,50.090166],[14.422771,50.090575]]]}},{"type":"Feature","properties":{"cislo":1012,"kod":30553,"mestskaCast":"praha-1"},"geometry":{"type":"Polygon","coordinates":[[[14.41939,50.089432],[14.419521,50.08948],[14.420189,50.08972],[14.420843,50.090023],[14.420855,50.090033],[14.421287,50.09019],[14.422416,50.090653],[14.422771,50.090575],[14.422661,50.090166],[14.422428,50.089537],[14.422631,50.089446],[14.42414,50.090043],[14.424962,50.090288],[14.425779,50.09056],[14.425853,50.090476],[14.425876,50.089843],[14.425466,50.089716],[14.42392,50.089225],[14.424299,50.088904],[14.424474,50.088611],[14.424534,50.088136],[14.425123,50.088151],[14.425487,50.088229],[14.425713,50.087832],[14.42574,50.08777],[14.425865,50.087518],[14.425923,50.087378],[14.425954,50.087299],[14.425969,50.087228],[14.425738,50.087189],[14.425461,50.087165],[14.425125,50.087153],[14.424799,50.087161],[14.424544,50.087165],[14.424235,50.087156],[14.423953,50.087158],[14.423741,50.087158],[14.423485,50.087171],[14.423194,50.087209],[14.423064,50.087225],[14.422813,50.087275],[14.422598,50.087293],[14.422359,50.08729],[14.42208,50.087274],[14.421999,50.087258],[14.420657,50.087529],[14.420456,50.087811],[14.420413,50.08788],[14.420108,50.088316],[14.420063,50.088393],[14.419805,50.088743],[14.41939,50.089432]]]}},{"type":"Feature","properties":{"cislo":1013,"kod":30555,"mestskaCast":"praha-1"},"geometry":{"type":"Polygon","coordinates":[[[14.422416,50.090653],[14.421287,50.09019],[14.420855,50.090033],[14.420843,50.090023],[14.420189,50.08972],[14.419521,50.08948],[14.41939,50.089432],[14.418599,50.090687],[14.418558,50.090747],[14.419443,50.090898],[14.420381,50.091062],[14.42067,50.091097],[14.4219,50.091215],[14.422165,50.091229],[14.422188,50.091123],[14.422236,50.090964],[14.422416,50.090653]]]}},{"type":"Feature","properties":{"cislo":1014,"kod":30557,"mestskaCast":"praha-1"},"geometry":{"type":"Polygon","coordinates":[[[14.431074,50.09417],[14.431877,50.094022],[14.433897,50.094272],[14.435557,50.094213],[14.436614,50.094295],[14.436548,50.094026],[14.436547,50.09402],[14.43655,50.094003],[14.436563,50.093935],[14.436605,50.09371],[14.436622,50.093623],[14.436689,50.093266],[14.436708,50.093163],[14.436796,50.0927],[14.436831,50.092512],[14.436836,50.092486],[14.436866,50.092324],[14.436659,50.091895],[14.436401,50.091881],[14.436277,50.09187],[14.43614,50.091849],[14.435934,50.091821],[14.435758,50.091788],[14.435349,50.091724],[14.434921,50.091677],[14.434686,50.091656],[14.434563,50.091637],[14.434415,50.091605],[14.434159,50.091546],[14.433866,50.091466],[14.433652,50.091411],[14.433436,50.091364],[14.433098,50.091298],[14.432807,50.091273],[14.432502,50.091246],[14.432324,50.091221],[14.431976,50.091135],[14.431752,50.091524],[14.43135,50.091425],[14.431029,50.091342],[14.430637,50.091262],[14.430488,50.091231],[14.430191,50.091168],[14.429991,50.091114],[14.429789,50.091069],[14.429425,50.090992],[14.429033,50.090912],[14.428736,50.090849],[14.428227,50.090786],[14.427857,50.090735],[14.427772,50.090736],[14.42761,50.09143],[14.427489,50.091864],[14.427312,50.092493],[14.427272,50.092616],[14.427245,50.092677],[14.427235,50.092722],[14.42714,50.092968],[14.42708,50.093117],[14.427069,50.09317],[14.427051,50.093187],[14.427036,50.093258],[14.427009,50.093319],[14.427005,50.093337],[14.42697,50.093434],[14.426772,50.094292],[14.426805,50.094295],[14.426808,50.094295],[14.426853,50.094299],[14.427089,50.094319],[14.427137,50.094323],[14.427141,50.094323],[14.429273,50.094501],[14.431074,50.09417]]]}},{"type":"Feature","properties":{"cislo":1015,"kod":30559,"mestskaCast":"praha-1"},"geometry":{"type":"Polygon","coordinates":[[[14.436659,50.091895],[14.436397,50.09135],[14.436813,50.090719],[14.43687,50.090632],[14.436974,50.090447],[14.436996,50.090417],[14.437005,50.090404],[14.437048,50.090344],[14.43706,50.090326],[14.437131,50.090228],[14.437266,50.090036],[14.43736,50.089902],[14.437371,50.089886],[14.437338,50.089367],[14.437569,50.089418],[14.437588,50.089422],[14.437747,50.089456],[14.437776,50.089463],[14.437935,50.089497],[14.437938,50.089274],[14.437936,50.089054],[14.437933,50.088814],[14.437942,50.088538],[14.437971,50.088274],[14.437977,50.088111],[14.437846,50.088001],[14.437843,50.087995],[14.437824,50.087844],[14.437812,50.087677],[14.437764,50.087359],[14.437677,50.087029],[14.437574,50.086745],[14.437457,50.086504],[14.437357,50.086537],[14.437332,50.086546],[14.437232,50.086579],[14.437215,50.086584],[14.437196,50.086591],[14.437192,50.086587],[14.437192,50.086587],[14.435501,50.087182],[14.434728,50.086242],[14.43187,50.086017],[14.432301,50.087235],[14.428892,50.087214],[14.428809,50.087207],[14.428536,50.087165],[14.428009,50.087055],[14.428221,50.087318],[14.42847,50.087604],[14.42839,50.088903],[14.428375,50.089038],[14.427897,50.090221],[14.427772,50.090736],[14.427857,50.090735],[14.428227,50.090786],[14.428736,50.090849],[14.429033,50.090912],[14.429425,50.090992],[14.429789,50.091069],[14.429991,50.091114],[14.430191,50.091168],[14.430488,50.091231],[14.430637,50.091262],[14.431029,50.091342],[14.43135,50.091425],[14.431752,50.091524],[14.431976,50.091135],[14.432324,50.091221],[14.432502,50.091246],[14.432807,50.091273],[14.433098,50.091298],[14.433436,50.091364],[14.433652,50.091411],[14.433866,50.091466],[14.434159,50.091546],[14.434415,50.091605],[14.434563,50.091637],[14.434686,50.091656],[14.434921,50.091677],[14.435349,50.091724],[14.435758,50.091788],[14.435934,50.091821],[14.43614,50.091849],[14.436277,50.09187],[14.436401,50.091881],[14.436659,50.091895]]]}},{"type":"Feature","properties":{"cislo":1016,"kod":30561,"mestskaCast":"praha-1"},"geometry":{"type":"Polygon","coordinates":[[[14.428009,50.087055],[14.428536,50.087165],[14.428809,50.087207],[14.428892,50.087214],[14.432301,50.087235],[14.43187,50.086017],[14.434728,50.086242],[14.435501,50.087182],[14.437192,50.086587],[14.437192,50.086587],[14.437122,50.086504],[14.436626,50.085911],[14.43647,50.085721],[14.436466,50.085712],[14.436287,50.085372],[14.436269,50.085336],[14.436245,50.085291],[14.436213,50.08523],[14.436018,50.084857],[14.435965,50.084757],[14.435686,50.084223],[14.435413,50.083863],[14.434524,50.082691],[14.434324,50.082421],[14.434073,50.082158],[14.433884,50.081955],[14.433835,50.081901],[14.433275,50.081304],[14.432774,50.081011],[14.432508,50.080854],[14.432443,50.080894],[14.431717,50.08132],[14.430667,50.081944],[14.431734,50.082692],[14.430846,50.083285],[14.430241,50.08374],[14.429198,50.084528],[14.428956,50.084343],[14.428119,50.08377],[14.426919,50.082983],[14.426438,50.082659],[14.426178,50.082491],[14.424472,50.083674],[14.423594,50.084286],[14.42362,50.084297],[14.42383,50.084434],[14.425119,50.085265],[14.425256,50.08535],[14.428009,50.087055]]]}},{"type":"Feature","properties":{"cislo":1017,"kod":30563,"mestskaCast":"praha-1"},"geometry":{"type":"Polygon","coordinates":[[[14.432774,50.081011],[14.433309,50.08062],[14.433335,50.080606],[14.433365,50.080603],[14.433476,50.080623],[14.433506,50.080629],[14.433541,50.080618],[14.433633,50.080583],[14.433537,50.080384],[14.432811,50.0792],[14.432761,50.079118],[14.431554,50.07844],[14.431517,50.078418],[14.431289,50.07828],[14.430709,50.077847],[14.430521,50.077615],[14.430513,50.077555],[14.430457,50.07718],[14.430444,50.077088],[14.430444,50.077088],[14.429222,50.077148],[14.427632,50.07721],[14.426636,50.077247],[14.426705,50.077319],[14.426728,50.077411],[14.42674,50.077485],[14.426766,50.07756],[14.426851,50.077758],[14.426901,50.077853],[14.426903,50.077908],[14.426917,50.077909],[14.426916,50.077982],[14.427074,50.077969],[14.427159,50.077967],[14.42721,50.078189],[14.42723,50.078427],[14.42692,50.07849],[14.426849,50.078493],[14.427145,50.079155],[14.427303,50.079468],[14.427523,50.07976],[14.428436,50.080503],[14.428684,50.080661],[14.426178,50.082491],[14.426438,50.082659],[14.426919,50.082983],[14.428119,50.08377],[14.428956,50.084343],[14.429198,50.084528],[14.430241,50.08374],[14.430846,50.083285],[14.431734,50.082692],[14.430667,50.081944],[14.431717,50.08132],[14.432443,50.080894],[14.432508,50.080854],[14.432774,50.081011]]]}},{"type":"Feature","properties":{"cislo":1018,"kod":30565,"mestskaCast":"praha-1"},"geometry":{"type":"Polygon","coordinates":[[[14.423594,50.084286],[14.424472,50.083674],[14.426178,50.082491],[14.428684,50.080661],[14.428436,50.080503],[14.427523,50.07976],[14.427303,50.079468],[14.427145,50.079155],[14.426849,50.078493],[14.42692,50.07849],[14.42723,50.078427],[14.42721,50.078189],[14.427159,50.077967],[14.427074,50.077969],[14.426916,50.077982],[14.426917,50.077909],[14.426903,50.077908],[14.426901,50.077853],[14.426851,50.077758],[14.426766,50.07756],[14.42674,50.077485],[14.426728,50.077411],[14.426705,50.077319],[14.426636,50.077247],[14.426333,50.077257],[14.424721,50.077326],[14.424721,50.077326],[14.425007,50.07794],[14.425205,50.078466],[14.42542,50.078911],[14.425696,50.079335],[14.425726,50.079392],[14.425868,50.07965],[14.42592,50.079736],[14.425546,50.079839],[14.423933,50.080522],[14.424179,50.080689],[14.422449,50.081262],[14.422433,50.081469],[14.422423,50.081714],[14.422413,50.081958],[14.422406,50.082121],[14.422389,50.082201],[14.422372,50.082281],[14.422295,50.082574],[14.42222,50.08273],[14.422138,50.08285],[14.42192,50.083076],[14.422029,50.083158],[14.423125,50.083972],[14.423371,50.084139],[14.423594,50.084286]]]}},{"type":"Feature","properties":{"cislo":1019,"kod":30567,"mestskaCast":"praha-1"},"geometry":{"type":"Polygon","coordinates":[[[14.423933,50.080522],[14.425546,50.079839],[14.42592,50.079736],[14.425868,50.07965],[14.425726,50.079392],[14.425696,50.079335],[14.42542,50.078911],[14.425205,50.078466],[14.425007,50.07794],[14.424721,50.077326],[14.424721,50.077326],[14.423892,50.077361],[14.422554,50.077438],[14.421268,50.077499],[14.42146,50.07817],[14.421713,50.078638],[14.421769,50.078723],[14.42201,50.079085],[14.422529,50.079436],[14.42258,50.079395],[14.422582,50.079386],[14.422619,50.079344],[14.422709,50.079189],[14.422713,50.079171],[14.422734,50.079136],[14.42276,50.079084],[14.422804,50.079006],[14.42281,50.07898],[14.422838,50.078982],[14.422852,50.078983],[14.42285,50.078992],[14.422848,50.079001],[14.422834,50.079],[14.422832,50.079009],[14.422943,50.079019],[14.422998,50.079024],[14.423206,50.079042],[14.423208,50.079097],[14.423161,50.079183],[14.423138,50.079227],[14.423132,50.079253],[14.423086,50.07934],[14.42306,50.079392],[14.423043,50.079409],[14.423039,50.079427],[14.422943,50.079545],[14.422925,50.079562],[14.422835,50.079654],[14.423082,50.079821],[14.423455,50.080117],[14.423754,50.08037],[14.423933,50.080522]]]}},{"type":"Feature","properties":{"cislo":1020,"kod":30569,"mestskaCast":"praha-1"},"geometry":{"type":"Polygon","coordinates":[[[14.42192,50.083076],[14.422138,50.08285],[14.42222,50.08273],[14.422295,50.082574],[14.422372,50.082281],[14.422389,50.082201],[14.422406,50.082121],[14.422413,50.081958],[14.422423,50.081714],[14.422433,50.081469],[14.422449,50.081262],[14.424179,50.080689],[14.423933,50.080522],[14.423754,50.08037],[14.423455,50.080117],[14.423082,50.079821],[14.422835,50.079654],[14.422925,50.079562],[14.422943,50.079545],[14.423039,50.079427],[14.423043,50.079409],[14.42306,50.079392],[14.423086,50.07934],[14.423132,50.079253],[14.423138,50.079227],[14.423161,50.079183],[14.423208,50.079097],[14.423206,50.079042],[14.422998,50.079024],[14.422943,50.079019],[14.422832,50.079009],[14.422834,50.079],[14.422848,50.079001],[14.42285,50.078992],[14.422852,50.078983],[14.422838,50.078982],[14.42281,50.07898],[14.422804,50.079006],[14.42276,50.079084],[14.422734,50.079136],[14.422713,50.079171],[14.422709,50.079189],[14.422619,50.079344],[14.422582,50.079386],[14.42258,50.079395],[14.422529,50.079436],[14.42201,50.079085],[14.420989,50.079128],[14.419612,50.079161],[14.419646,50.079662],[14.419749,50.07997],[14.419832,50.080241],[14.419826,50.080467],[14.419811,50.080538],[14.419799,50.080728],[14.419747,50.080905],[14.419656,50.081133],[14.41929,50.082053],[14.419171,50.082342],[14.420215,50.082607],[14.42054,50.082672],[14.421725,50.082931],[14.42192,50.083076]]]}},{"type":"Feature","properties":{"cislo":1021,"kod":30571,"mestskaCast":"praha-1"},"geometry":{"type":"Polygon","coordinates":[[[14.419171,50.082342],[14.41929,50.082053],[14.419656,50.081133],[14.419747,50.080905],[14.419799,50.080728],[14.419811,50.080538],[14.419826,50.080467],[14.419832,50.080241],[14.419749,50.07997],[14.419646,50.079662],[14.419612,50.079161],[14.419607,50.079161],[14.419525,50.07837],[14.417956,50.077869],[14.417701,50.07781],[14.416404,50.077543],[14.416391,50.07754],[14.415129,50.077437],[14.41439,50.07739],[14.414099,50.07632],[14.413872,50.075801],[14.411512,50.075592],[14.411513,50.075585],[14.411512,50.075592],[14.411496,50.075676],[14.411415,50.076122],[14.411406,50.076174],[14.411217,50.077208],[14.410891,50.078675],[14.410886,50.078676],[14.410887,50.078677],[14.411339,50.079198],[14.411344,50.079244],[14.411392,50.079874],[14.411401,50.080029],[14.411735,50.081239],[14.412438,50.081247],[14.412859,50.081257],[14.412887,50.081259],[14.412901,50.08126],[14.412914,50.081262],[14.413018,50.081307],[14.413091,50.081032],[14.41327,50.080721],[14.413516,50.080362],[14.413657,50.080166],[14.413832,50.079873],[14.413887,50.07975],[14.414091,50.079787],[14.414247,50.079782],[14.415068,50.079501],[14.415173,50.079474],[14.415196,50.079104],[14.415293,50.079113],[14.415461,50.079118],[14.41553,50.079124],[14.415544,50.079126],[14.415704,50.079167],[14.415903,50.079094],[14.41682,50.079357],[14.418,50.079643],[14.418419,50.079725],[14.418233,50.080335],[14.418012,50.080706],[14.418397,50.080822],[14.417705,50.081877],[14.417661,50.081954],[14.419171,50.082342]]]}}]}
