{"type":"FeatureCollection","features":[{"type":"Feature","properties":{"cislo":49001,"kod":26635,"mestskaCast":"praha-suchdol"},"geometry":{"type":"Polygon","coordinates":[[[14.357639,50.140596],[14.357714,50.140611],[14.357823,50.14063],[14.357976,50.140644],[14.358154,50.140669],[14.358267,50.14067],[14.358338,50.140667],[14.358524,50.140656],[14.358686,50.140625],[14.358714,50.140628],[14.358895,50.140571],[14.35903,50.140538],[14.359075,50.140524],[14.359227,50.140474],[14.359484,50.140397],[14.359665,50.14034],[14.359954,50.140248],[14.360149,50.140193],[14.360574,50.140058],[14.360771,50.139994],[14.361726,50.139689],[14.362226,50.139533],[14.363225,50.139223],[14.363726,50.139059],[14.364528,50.138812],[14.365134,50.138621],[14.365241,50.138585],[14.366074,50.138323],[14.366528,50.138182],[14.366907,50.138062],[14.367225,50.137963],[14.367604,50.137842],[14.367635,50.137827],[14.367759,50.137974],[14.367819,50.138025],[14.368093,50.137931],[14.367917,50.137698],[14.368106,50.137606],[14.368296,50.137514],[14.368595,50.137368],[14.368848,50.137245],[14.369086,50.137121],[14.369278,50.13702],[14.36929,50.13703],[14.369548,50.136881],[14.369772,50.136755],[14.370056,50.136617],[14.370184,50.136547],[14.370581,50.136346],[14.370817,50.136231],[14.371198,50.136038],[14.371531,50.135868],[14.371959,50.135652],[14.372339,50.135459],[14.372688,50.135281],[14.373037,50.135103],[14.373398,50.134935],[14.373608,50.134809],[14.373656,50.134786],[14.373879,50.13467],[14.374261,50.134468],[14.374547,50.13432],[14.374938,50.134274],[14.375168,50.134385],[14.375787,50.134068],[14.376369,50.133793],[14.376084,50.13354],[14.37597,50.133433],[14.375461,50.133022],[14.37537,50.132923],[14.37498,50.132897],[14.374964,50.133041],[14.374305,50.133146],[14.374314,50.133301],[14.374109,50.133401],[14.374363,50.133596],[14.374235,50.133666],[14.374069,50.133525],[14.37385,50.133623],[14.373583,50.133418],[14.373788,50.133318],[14.373664,50.133171],[14.373707,50.133039],[14.373221,50.132996],[14.372846,50.133035],[14.372526,50.133342],[14.371524,50.133208],[14.371623,50.132881],[14.370823,50.132791],[14.370871,50.132632],[14.370303,50.132582],[14.370223,50.132629],[14.369459,50.132562],[14.368449,50.132472],[14.368509,50.132132],[14.367975,50.132058],[14.367523,50.131998],[14.36705,50.131948],[14.366761,50.131859],[14.366428,50.131765],[14.366116,50.131711],[14.365856,50.131678],[14.365587,50.131654],[14.364983,50.131519],[14.364983,50.131515],[14.364983,50.131515],[14.364115,50.13144],[14.363318,50.131372],[14.362918,50.131308],[14.362457,50.131231],[14.362181,50.131211],[14.360906,50.131121],[14.360427,50.131088],[14.359919,50.131052],[14.3599,50.131122],[14.3597,50.131111],[14.35928,50.131088],[14.358454,50.13116],[14.357767,50.13122],[14.357433,50.13125],[14.357167,50.131273],[14.357087,50.131278],[14.356875,50.131404],[14.356871,50.131525],[14.356856,50.131939],[14.356846,50.132224],[14.356717,50.133493],[14.356669,50.133762],[14.356523,50.134582],[14.356317,50.135736],[14.356159,50.136619],[14.356156,50.136634],[14.355943,50.136602],[14.355863,50.136661],[14.355579,50.13657],[14.355404,50.136514],[14.354643,50.136315],[14.354538,50.136287],[14.354421,50.136256],[14.354373,50.136459],[14.354357,50.136529],[14.354329,50.13665],[14.354305,50.136752],[14.354279,50.136863],[14.354254,50.136974],[14.354228,50.137083],[14.354202,50.137196],[14.354178,50.137298],[14.354141,50.137459],[14.354125,50.137526],[14.354551,50.137689],[14.354593,50.137709],[14.35473,50.137775],[14.354794,50.137806],[14.354961,50.137886],[14.355349,50.138662],[14.356004,50.138989],[14.35642,50.139081],[14.35693,50.139194],[14.357149,50.139243],[14.357345,50.139286],[14.357371,50.139292],[14.357397,50.139297],[14.357432,50.139288],[14.357478,50.139452],[14.357529,50.139635],[14.357531,50.139642],[14.35756,50.139747],[14.357598,50.139882],[14.357616,50.139947],[14.357674,50.140156],[14.357744,50.140408],[14.357789,50.140571],[14.35776,50.140567],[14.357639,50.140596]]]}},{"type":"Feature","properties":{"cislo":49002,"kod":26637,"mestskaCast":"praha-suchdol"},"geometry":{"type":"Polygon","coordinates":[[[14.356047,50.140629],[14.356091,50.141172],[14.356325,50.141127],[14.356562,50.141081],[14.356618,50.141394],[14.357759,50.142274],[14.357887,50.142428],[14.35816,50.142758],[14.35872,50.143435],[14.359312,50.143702],[14.360065,50.14404],[14.360179,50.144167],[14.360886,50.144959],[14.360957,50.145037],[14.361166,50.145414],[14.361487,50.145989],[14.361941,50.146426],[14.362128,50.146606],[14.363064,50.146941],[14.363412,50.147066],[14.363649,50.147151],[14.363928,50.14725],[14.36397,50.147265],[14.364948,50.147615],[14.364956,50.147619],[14.365255,50.147744],[14.36539,50.1478],[14.365447,50.147824],[14.365663,50.148005],[14.365703,50.14803],[14.365705,50.148032],[14.366118,50.147801],[14.366163,50.147776],[14.366247,50.147729],[14.366471,50.147604],[14.3668,50.147463],[14.367385,50.147383],[14.367777,50.147357],[14.367948,50.147354],[14.368122,50.147366],[14.368295,50.147386],[14.368355,50.147394],[14.368422,50.147403],[14.368975,50.147472],[14.369261,50.147514],[14.370165,50.147647],[14.370716,50.147728],[14.371198,50.147848],[14.371468,50.147935],[14.371582,50.147973],[14.371759,50.147984],[14.371885,50.147966],[14.372077,50.1479],[14.372412,50.147705],[14.372425,50.147677],[14.372383,50.147493],[14.37242,50.147488],[14.372445,50.147484],[14.3725,50.147477],[14.373006,50.147407],[14.373679,50.147273],[14.373724,50.147273],[14.37384,50.147275],[14.374624,50.147285],[14.375039,50.14729],[14.375509,50.147048],[14.375748,50.146955],[14.375762,50.146956],[14.375923,50.146974],[14.376031,50.146986],[14.377252,50.146865],[14.378055,50.146593],[14.37844,50.146492],[14.37937,50.146401],[14.380306,50.146383],[14.380895,50.146515],[14.381435,50.146856],[14.381559,50.146893],[14.381764,50.146954],[14.381799,50.146909],[14.381801,50.146878],[14.383374,50.146953],[14.383961,50.147024],[14.384879,50.146926],[14.384916,50.146906],[14.384999,50.146814],[14.385097,50.146705],[14.385345,50.146432],[14.385733,50.146004],[14.385797,50.145946],[14.385939,50.146017],[14.386202,50.146409],[14.386269,50.146387],[14.386532,50.146298],[14.386769,50.146238],[14.387078,50.146106],[14.38765,50.145811],[14.387701,50.145784],[14.387391,50.14548],[14.387392,50.145479],[14.387308,50.145447],[14.387263,50.145397],[14.387211,50.145311],[14.387182,50.145245],[14.387162,50.145143],[14.387153,50.144988],[14.387158,50.144898],[14.387531,50.144804],[14.387359,50.144489],[14.387489,50.144474],[14.387279,50.144137],[14.387176,50.143892],[14.38702,50.143833],[14.386483,50.14344],[14.386282,50.143386],[14.386015,50.143317],[14.385964,50.143158],[14.385833,50.14311],[14.385645,50.142867],[14.385533,50.142929],[14.385308,50.142791],[14.3849,50.142719],[14.384774,50.142717],[14.384761,50.14238],[14.38489,50.142373],[14.385426,50.142375],[14.385614,50.142419],[14.386294,50.14228],[14.386409,50.142272],[14.386703,50.142216],[14.387016,50.142208],[14.386865,50.141922],[14.386847,50.141875],[14.386983,50.141833],[14.387153,50.141766],[14.387279,50.141705],[14.387006,50.141463],[14.386945,50.141485],[14.386598,50.141653],[14.386181,50.141689],[14.386087,50.141862],[14.385809,50.14191],[14.385764,50.141788],[14.385476,50.141817],[14.385222,50.141813],[14.384924,50.141822],[14.38491,50.142148],[14.384714,50.14214],[14.38439,50.141939],[14.384573,50.14181],[14.384383,50.141711],[14.384513,50.141632],[14.384274,50.141429],[14.383973,50.141384],[14.383778,50.141303],[14.383572,50.141212],[14.383363,50.14113],[14.383038,50.141002],[14.382248,50.140668],[14.381952,50.140533],[14.381625,50.140413],[14.381274,50.140273],[14.381002,50.140158],[14.380714,50.140051],[14.380387,50.139931],[14.380099,50.139824],[14.380074,50.139813],[14.379852,50.140056],[14.379513,50.139926],[14.379415,50.140054],[14.379324,50.140145],[14.379178,50.140232],[14.379052,50.140294],[14.378809,50.140308],[14.378599,50.140299],[14.378324,50.140265],[14.377803,50.140192],[14.378414,50.13952],[14.379368,50.139877],[14.379625,50.139664],[14.379722,50.139545],[14.379782,50.13946],[14.379687,50.139379],[14.379649,50.139357],[14.37953,50.13932],[14.379465,50.139296],[14.379716,50.138982],[14.379557,50.138932],[14.379674,50.138779],[14.379765,50.138687],[14.379887,50.13858],[14.379704,50.138509],[14.379329,50.138349],[14.37907,50.138371],[14.378742,50.138451],[14.378381,50.138292],[14.378073,50.138609],[14.377682,50.138457],[14.374832,50.137259],[14.374098,50.137984],[14.373439,50.137698],[14.3734,50.137749],[14.373323,50.137842],[14.37325,50.137918],[14.373235,50.137925],[14.373233,50.137934],[14.373103,50.138077],[14.372968,50.138246],[14.372864,50.138401],[14.372855,50.138572],[14.372867,50.138582],[14.372389,50.138576],[14.371953,50.138565],[14.371518,50.138553],[14.371443,50.138574],[14.371411,50.138589],[14.371152,50.138811],[14.370859,50.139057],[14.370676,50.13925],[14.37066,50.139258],[14.370339,50.139175],[14.37026,50.139149],[14.369956,50.13905],[14.369459,50.138869],[14.369104,50.138747],[14.368723,50.138613],[14.368501,50.13853],[14.368399,50.138476],[14.3683,50.138412],[14.368177,50.138329],[14.368165,50.138319],[14.367974,50.138157],[14.367819,50.138025],[14.367759,50.137974],[14.367635,50.137827],[14.367604,50.137842],[14.367225,50.137963],[14.366907,50.138062],[14.366528,50.138182],[14.366074,50.138323],[14.365241,50.138585],[14.365134,50.138621],[14.364528,50.138812],[14.363726,50.139059],[14.363225,50.139223],[14.362226,50.139533],[14.361726,50.139689],[14.360771,50.139994],[14.360574,50.140058],[14.360149,50.140193],[14.359954,50.140248],[14.359665,50.14034],[14.359484,50.140397],[14.359227,50.140474],[14.359075,50.140524],[14.35903,50.140538],[14.358895,50.140571],[14.358714,50.140628],[14.358686,50.140625],[14.358524,50.140656],[14.358338,50.140667],[14.358267,50.14067],[14.358154,50.140669],[14.357976,50.140644],[14.357823,50.14063],[14.357714,50.140611],[14.357639,50.140596],[14.357509,50.140628],[14.356047,50.140629]]]}},{"type":"Feature","properties":{"cislo":49003,"kod":26639,"mestskaCast":"praha-suchdol"},"geometry":{"type":"Polygon","coordinates":[[[14.387392,50.145479],[14.387426,50.145433],[14.387731,50.145344],[14.388273,50.145236],[14.388825,50.145029],[14.389327,50.1447],[14.390969,50.14402],[14.391116,50.14396],[14.391141,50.143594],[14.3912,50.14345],[14.391678,50.142894],[14.391891,50.142647],[14.391993,50.142429],[14.392196,50.141998],[14.392051,50.141784],[14.393068,50.14134],[14.393671,50.141251],[14.393681,50.14125],[14.394641,50.141416],[14.394903,50.141429],[14.395278,50.141806],[14.395713,50.142051],[14.395658,50.142331],[14.396196,50.142366],[14.396242,50.142351],[14.396327,50.142323],[14.396354,50.142314],[14.396392,50.142329],[14.3967,50.142445],[14.396913,50.142872],[14.39705,50.143147],[14.397049,50.143161],[14.397036,50.143522],[14.397178,50.143512],[14.398092,50.143448],[14.398007,50.143056],[14.397776,50.142595],[14.397431,50.141905],[14.397411,50.141871],[14.396793,50.140796],[14.39627,50.140215],[14.395556,50.139573],[14.394806,50.138944],[14.393783,50.138276],[14.392863,50.138431],[14.392788,50.138444],[14.392764,50.138457],[14.392683,50.1385],[14.392122,50.138664],[14.392045,50.138546],[14.391543,50.138394],[14.390686,50.137741],[14.390615,50.137044],[14.390681,50.136954],[14.390114,50.136978],[14.389877,50.136881],[14.389709,50.136775],[14.389684,50.136759],[14.389551,50.136562],[14.389347,50.13639],[14.389371,50.136146],[14.389367,50.136034],[14.389221,50.135885],[14.389166,50.135748],[14.389093,50.135657],[14.388983,50.135568],[14.388612,50.135415],[14.388575,50.13542],[14.388387,50.135037],[14.388538,50.134796],[14.388667,50.13455],[14.388659,50.134531],[14.388676,50.134411],[14.388678,50.134392],[14.388684,50.134329],[14.388847,50.134238],[14.388983,50.134236],[14.38906,50.134226],[14.389078,50.134222],[14.389099,50.134216],[14.389136,50.134043],[14.389186,50.13401],[14.389367,50.133876],[14.389454,50.133773],[14.389469,50.133691],[14.389523,50.13363],[14.389606,50.133535],[14.389663,50.133401],[14.38979,50.133434],[14.390007,50.133225],[14.390125,50.133113],[14.390163,50.133012],[14.390245,50.132798],[14.390598,50.131851],[14.3906,50.131845],[14.390689,50.131865],[14.390694,50.131857],[14.390886,50.131541],[14.390935,50.131458],[14.390975,50.131381],[14.391123,50.131126],[14.391136,50.1311],[14.391139,50.131083],[14.391259,50.130887],[14.391423,50.130733],[14.391487,50.130681],[14.391771,50.130227],[14.39197,50.130003],[14.391961,50.129992],[14.391921,50.129945],[14.391954,50.129886],[14.392006,50.129885],[14.39217,50.129883],[14.39244,50.130175],[14.392491,50.13023],[14.392933,50.130164],[14.392919,50.130076],[14.392886,50.129973],[14.392941,50.129962],[14.392967,50.129958],[14.392961,50.129953],[14.3927,50.129692],[14.392494,50.129572],[14.392165,50.129439],[14.391974,50.129407],[14.39212,50.129309],[14.392176,50.129214],[14.392181,50.129026],[14.392229,50.12891],[14.392332,50.128897],[14.392394,50.128909],[14.392608,50.128956],[14.392858,50.128987],[14.392876,50.128878],[14.392699,50.12872],[14.392687,50.128686],[14.393161,50.128701],[14.393382,50.128765],[14.393783,50.128898],[14.394072,50.128991],[14.394212,50.129036],[14.394554,50.129146],[14.394677,50.129214],[14.394972,50.128969],[14.395114,50.128583],[14.395096,50.128414],[14.39507,50.128399],[14.395076,50.128375],[14.395092,50.128376],[14.395082,50.128286],[14.395283,50.128304],[14.395338,50.128179],[14.395224,50.127958],[14.39504,50.127603],[14.394962,50.127514],[14.394948,50.127499],[14.394871,50.127511],[14.394789,50.127507],[14.394784,50.127475],[14.394824,50.12748],[14.394777,50.127434],[14.394526,50.127192],[14.394695,50.127023],[14.394702,50.126979],[14.394763,50.126353],[14.395064,50.125832],[14.395005,50.125677],[14.395099,50.125631],[14.395184,50.125624],[14.395924,50.125544],[14.396392,50.125023],[14.396437,50.12472],[14.396429,50.124706],[14.396341,50.12471],[14.396053,50.124275],[14.396002,50.124199],[14.395908,50.124159],[14.395803,50.124024],[14.395777,50.124001],[14.395645,50.123897],[14.395011,50.123724],[14.39475,50.12374],[14.393896,50.123209],[14.393718,50.122915],[14.393873,50.122668],[14.393874,50.122667],[14.39375,50.122589],[14.393689,50.122546],[14.393694,50.122554],[14.393627,50.122525],[14.393557,50.122593],[14.393516,50.122603],[14.393424,50.122555],[14.393437,50.122543],[14.39343,50.122542],[14.393409,50.122538],[14.39337,50.122587],[14.393367,50.122591],[14.393353,50.12261],[14.393332,50.122639],[14.393303,50.122689],[14.393298,50.122698],[14.393279,50.122734],[14.393265,50.122762],[14.393243,50.122799],[14.393239,50.122806],[14.393235,50.122811],[14.393225,50.122823],[14.393224,50.122824],[14.393205,50.122835],[14.39317,50.122852],[14.393162,50.122857],[14.393084,50.122897],[14.39306,50.122914],[14.393024,50.122941],[14.393006,50.122956],[14.392971,50.122991],[14.392936,50.123028],[14.39293,50.123033],[14.39292,50.123044],[14.3929,50.123067],[14.392899,50.123068],[14.392894,50.123074],[14.392862,50.123111],[14.392861,50.123113],[14.392854,50.12312],[14.392831,50.123144],[14.392824,50.123151],[14.392817,50.123158],[14.392815,50.123161],[14.392788,50.123192],[14.392776,50.123204],[14.392748,50.123235],[14.392734,50.123251],[14.392731,50.123255],[14.392715,50.123268],[14.392696,50.123284],[14.392662,50.123313],[14.392645,50.123328],[14.392569,50.12335],[14.392563,50.123352],[14.392556,50.123354],[14.392516,50.12336],[14.392501,50.123367],[14.392484,50.123376],[14.392472,50.123388],[14.392355,50.123508],[14.392351,50.123512],[14.392349,50.123515],[14.392214,50.123638],[14.392026,50.12368],[14.391693,50.123856],[14.391441,50.123959],[14.39142,50.123968],[14.391145,50.124075],[14.390428,50.124119],[14.390323,50.124125],[14.390056,50.124139],[14.39005,50.12414],[14.389872,50.124141],[14.389735,50.124192],[14.389567,50.124254],[14.389218,50.124384],[14.389137,50.124458],[14.38867,50.124541],[14.388715,50.124577],[14.388887,50.124744],[14.389051,50.124841],[14.389168,50.124925],[14.389339,50.125064],[14.389337,50.125067],[14.389238,50.125164],[14.389533,50.125287],[14.389674,50.125333],[14.389869,50.125621],[14.389807,50.126058],[14.38975,50.126166],[14.389592,50.126366],[14.389082,50.127016],[14.389004,50.127115],[14.388897,50.127234],[14.388733,50.127362],[14.388448,50.127529],[14.388406,50.127554],[14.388423,50.127586],[14.387517,50.127684],[14.387513,50.127684],[14.387497,50.127686],[14.387123,50.127758],[14.385388,50.128296],[14.385797,50.128948],[14.385768,50.128954],[14.385586,50.129011],[14.385316,50.129087],[14.385089,50.129157],[14.384874,50.129238],[14.384623,50.129352],[14.384377,50.129448],[14.384083,50.129567],[14.383819,50.12968],[14.383539,50.1298],[14.383275,50.129913],[14.383091,50.129978],[14.382874,50.130068],[14.38261,50.130181],[14.382346,50.130293],[14.382235,50.130347],[14.382512,50.130571],[14.381938,50.130874],[14.382965,50.131683],[14.383491,50.131403],[14.38357,50.131364],[14.383737,50.131506],[14.383863,50.131708],[14.38315,50.132071],[14.383341,50.132233],[14.383304,50.132666],[14.383224,50.13363],[14.383065,50.133716],[14.383548,50.134094],[14.383738,50.134129],[14.383729,50.134237],[14.383604,50.134426],[14.382967,50.134233],[14.383082,50.134489],[14.383467,50.134604],[14.38319,50.13497],[14.383073,50.135123],[14.382478,50.134934],[14.382493,50.135126],[14.382221,50.135274],[14.382677,50.135651],[14.38252,50.135855],[14.381874,50.135643],[14.38173,50.135721],[14.381652,50.13615],[14.381644,50.136385],[14.381405,50.136509],[14.381706,50.136754],[14.381508,50.137017],[14.380849,50.136732],[14.380714,50.136901],[14.37991,50.136567],[14.379576,50.136873],[14.379326,50.137114],[14.379338,50.137124],[14.378855,50.137599],[14.37901,50.137667],[14.378381,50.138292],[14.378742,50.138451],[14.37907,50.138371],[14.379329,50.138349],[14.379704,50.138509],[14.379887,50.13858],[14.379765,50.138687],[14.379674,50.138779],[14.379557,50.138932],[14.379716,50.138982],[14.379465,50.139296],[14.37953,50.13932],[14.379649,50.139357],[14.379687,50.139379],[14.379782,50.13946],[14.379722,50.139545],[14.379625,50.139664],[14.379368,50.139877],[14.378414,50.13952],[14.377803,50.140192],[14.378324,50.140265],[14.378599,50.140299],[14.378809,50.140308],[14.379052,50.140294],[14.379178,50.140232],[14.379324,50.140145],[14.379415,50.140054],[14.379513,50.139926],[14.379852,50.140056],[14.380074,50.139813],[14.380099,50.139824],[14.380387,50.139931],[14.380714,50.140051],[14.381002,50.140158],[14.381274,50.140273],[14.381625,50.140413],[14.381952,50.140533],[14.382248,50.140668],[14.383038,50.141002],[14.383363,50.14113],[14.383572,50.141212],[14.383778,50.141303],[14.383973,50.141384],[14.384274,50.141429],[14.384513,50.141632],[14.384383,50.141711],[14.384573,50.14181],[14.38439,50.141939],[14.384714,50.14214],[14.38491,50.142148],[14.384924,50.141822],[14.385222,50.141813],[14.385476,50.141817],[14.385764,50.141788],[14.385809,50.14191],[14.386087,50.141862],[14.386181,50.141689],[14.386598,50.141653],[14.386945,50.141485],[14.387006,50.141463],[14.387279,50.141705],[14.387153,50.141766],[14.386983,50.141833],[14.386847,50.141875],[14.386865,50.141922],[14.387016,50.142208],[14.386703,50.142216],[14.386409,50.142272],[14.386294,50.14228],[14.385614,50.142419],[14.385426,50.142375],[14.38489,50.142373],[14.384761,50.14238],[14.384774,50.142717],[14.3849,50.142719],[14.385308,50.142791],[14.385533,50.142929],[14.385645,50.142867],[14.385833,50.14311],[14.385964,50.143158],[14.386015,50.143317],[14.386282,50.143386],[14.386483,50.14344],[14.38702,50.143833],[14.387176,50.143892],[14.387279,50.144137],[14.387489,50.144474],[14.387359,50.144489],[14.387531,50.144804],[14.387158,50.144898],[14.387153,50.144988],[14.387162,50.145143],[14.387182,50.145245],[14.387211,50.145311],[14.387263,50.145397],[14.387308,50.145447],[14.387392,50.145479]]]}},{"type":"Feature","properties":{"cislo":49004,"kod":26641,"mestskaCast":"praha-suchdol"},"geometry":{"type":"Polygon","coordinates":[[[14.367819,50.138025],[14.367974,50.138157],[14.368165,50.138319],[14.368177,50.138329],[14.3683,50.138412],[14.368399,50.138476],[14.368501,50.13853],[14.368723,50.138613],[14.369104,50.138747],[14.369459,50.138869],[14.369956,50.13905],[14.37026,50.139149],[14.370339,50.139175],[14.37066,50.139258],[14.370676,50.13925],[14.370859,50.139057],[14.371152,50.138811],[14.371411,50.138589],[14.371443,50.138574],[14.371518,50.138553],[14.371953,50.138565],[14.372389,50.138576],[14.372867,50.138582],[14.372855,50.138572],[14.372864,50.138401],[14.372968,50.138246],[14.373103,50.138077],[14.373233,50.137934],[14.373235,50.137925],[14.37325,50.137918],[14.373323,50.137842],[14.3734,50.137749],[14.373439,50.137698],[14.374098,50.137984],[14.374832,50.137259],[14.377682,50.138457],[14.378073,50.138609],[14.378381,50.138292],[14.37901,50.137667],[14.378855,50.137599],[14.379338,50.137124],[14.379326,50.137114],[14.379576,50.136873],[14.37991,50.136567],[14.380714,50.136901],[14.380849,50.136732],[14.381508,50.137017],[14.381706,50.136754],[14.381405,50.136509],[14.381644,50.136385],[14.381652,50.13615],[14.38173,50.135721],[14.381874,50.135643],[14.38252,50.135855],[14.382677,50.135651],[14.382221,50.135274],[14.382493,50.135126],[14.382478,50.134934],[14.383073,50.135123],[14.38319,50.13497],[14.383467,50.134604],[14.383082,50.134489],[14.382967,50.134233],[14.383604,50.134426],[14.383729,50.134237],[14.383738,50.134129],[14.383548,50.134094],[14.383065,50.133716],[14.383224,50.13363],[14.383304,50.132666],[14.383341,50.132233],[14.38315,50.132071],[14.383863,50.131708],[14.383737,50.131506],[14.38357,50.131364],[14.383491,50.131403],[14.382965,50.131683],[14.381938,50.130874],[14.38146,50.131132],[14.380521,50.13162],[14.380456,50.13166],[14.380166,50.131434],[14.379723,50.131658],[14.380037,50.131904],[14.379653,50.132115],[14.379438,50.132195],[14.378833,50.132514],[14.378758,50.132534],[14.378602,50.132403],[14.378175,50.132619],[14.378539,50.132896],[14.378302,50.133011],[14.377954,50.132726],[14.377787,50.132648],[14.376372,50.133384],[14.376084,50.13354],[14.376369,50.133793],[14.375787,50.134068],[14.375168,50.134385],[14.374938,50.134274],[14.374547,50.13432],[14.374261,50.134468],[14.373879,50.13467],[14.373656,50.134786],[14.373608,50.134809],[14.373398,50.134935],[14.373037,50.135103],[14.372688,50.135281],[14.372339,50.135459],[14.371959,50.135652],[14.371531,50.135868],[14.371198,50.136038],[14.370817,50.136231],[14.370581,50.136346],[14.370184,50.136547],[14.370056,50.136617],[14.369772,50.136755],[14.369548,50.136881],[14.36929,50.13703],[14.369278,50.13702],[14.369086,50.137121],[14.368848,50.137245],[14.368595,50.137368],[14.368296,50.137514],[14.368106,50.137606],[14.367917,50.137698],[14.368093,50.137931],[14.367819,50.138025]]]}},{"type":"Feature","properties":{"cislo":49005,"kod":26643,"mestskaCast":"praha-suchdol"},"geometry":{"type":"Polygon","coordinates":[[[14.364983,50.131515],[14.364983,50.131519],[14.365587,50.131654],[14.365856,50.131678],[14.366116,50.131711],[14.366428,50.131765],[14.366761,50.131859],[14.36705,50.131948],[14.367523,50.131998],[14.367975,50.132058],[14.368509,50.132132],[14.368449,50.132472],[14.369459,50.132562],[14.370223,50.132629],[14.370303,50.132582],[14.370871,50.132632],[14.370823,50.132791],[14.371623,50.132881],[14.371524,50.133208],[14.372526,50.133342],[14.372846,50.133035],[14.373221,50.132996],[14.373707,50.133039],[14.373664,50.133171],[14.373788,50.133318],[14.373583,50.133418],[14.37385,50.133623],[14.374069,50.133525],[14.374235,50.133666],[14.374363,50.133596],[14.374109,50.133401],[14.374314,50.133301],[14.374305,50.133146],[14.374964,50.133041],[14.37498,50.132897],[14.37537,50.132923],[14.375461,50.133022],[14.37597,50.133433],[14.376084,50.13354],[14.376372,50.133384],[14.377787,50.132648],[14.377954,50.132726],[14.378302,50.133011],[14.378539,50.132896],[14.378175,50.132619],[14.378602,50.132403],[14.378758,50.132534],[14.378833,50.132514],[14.379438,50.132195],[14.379653,50.132115],[14.380037,50.131904],[14.379723,50.131658],[14.380166,50.131434],[14.380456,50.13166],[14.380521,50.13162],[14.38146,50.131132],[14.381938,50.130874],[14.382512,50.130571],[14.382235,50.130347],[14.382346,50.130293],[14.38261,50.130181],[14.382874,50.130068],[14.383091,50.129978],[14.383275,50.129913],[14.383539,50.1298],[14.383819,50.12968],[14.384083,50.129567],[14.384377,50.129448],[14.384623,50.129352],[14.384874,50.129238],[14.385089,50.129157],[14.385316,50.129087],[14.385586,50.129011],[14.385768,50.128954],[14.385797,50.128948],[14.385388,50.128296],[14.385308,50.12832],[14.384628,50.128557],[14.38462,50.128559],[14.383293,50.12902],[14.38323,50.12905],[14.383197,50.129065],[14.383133,50.129095],[14.383093,50.129114],[14.383055,50.129132],[14.383021,50.129148],[14.382989,50.129163],[14.382954,50.12918],[14.382915,50.129198],[14.382882,50.129214],[14.382879,50.129215],[14.382643,50.129327],[14.38264,50.129328],[14.382475,50.129406],[14.382167,50.129606],[14.382137,50.129625],[14.382106,50.129646],[14.382064,50.129671],[14.382038,50.12969],[14.382005,50.129712],[14.381999,50.129715],[14.381969,50.129735],[14.381858,50.129807],[14.381768,50.129862],[14.381767,50.129866],[14.381744,50.129881],[14.381727,50.129868],[14.381598,50.129769],[14.381372,50.129595],[14.381276,50.129522],[14.38124,50.129494],[14.38117,50.12944],[14.381144,50.12942],[14.381129,50.129409],[14.381125,50.129406],[14.380118,50.128628],[14.380089,50.128606],[14.379894,50.128455],[14.379766,50.128357],[14.379736,50.128334],[14.379717,50.128319],[14.379708,50.128312],[14.379565,50.128202],[14.379314,50.127871],[14.379287,50.127834],[14.379259,50.127793],[14.379048,50.127517],[14.378731,50.127106],[14.378528,50.126839],[14.378481,50.126767],[14.378455,50.126733],[14.378453,50.12673],[14.378441,50.126713],[14.378438,50.126709],[14.37842,50.126685],[14.378419,50.126685],[14.378409,50.126672],[14.378406,50.126667],[14.378294,50.126519],[14.378127,50.126616],[14.3781,50.12663],[14.378068,50.126646],[14.378026,50.126668],[14.377796,50.126401],[14.377488,50.126191],[14.376985,50.125952],[14.376711,50.125861],[14.376474,50.125825],[14.376382,50.125811],[14.376285,50.125822],[14.375971,50.125856],[14.375934,50.125861],[14.375913,50.125872],[14.375606,50.126046],[14.375435,50.126389],[14.375513,50.126725],[14.375324,50.126752],[14.375129,50.126747],[14.374585,50.126788],[14.373746,50.126879],[14.37248,50.126949],[14.371719,50.126962],[14.371714,50.126962],[14.371666,50.126963],[14.371656,50.127043],[14.371643,50.12713],[14.37164,50.127146],[14.371711,50.127615],[14.37172,50.127675],[14.37174,50.127807],[14.369692,50.127961],[14.369722,50.128327],[14.369748,50.128629],[14.369776,50.128958],[14.369057,50.129043],[14.368533,50.129054],[14.367938,50.129031],[14.367211,50.128908],[14.367075,50.129286],[14.366991,50.129433],[14.366871,50.130086],[14.366779,50.130589],[14.366713,50.130949],[14.366753,50.131314],[14.366766,50.131445],[14.366774,50.131523],[14.366183,50.131558],[14.365598,50.131567],[14.364983,50.131515]]]}}]}
