{"type":"FeatureCollection","features":[{"type":"Feature","properties":{"cislo":3001,"kod":28915,"mestskaCast":"praha-3"},"geometry":{"type":"Polygon","coordinates":[[[14.439888,50.086054],[14.44003,50.085985],[14.440249,50.08575],[14.440427,50.085711],[14.440618,50.085674],[14.440782,50.085634],[14.440798,50.085626],[14.440994,50.085634],[14.441092,50.085634],[14.44109,50.085643],[14.441107,50.085699],[14.441539,50.085855],[14.441624,50.085853],[14.441735,50.085863],[14.44183,50.085881],[14.441916,50.08587],[14.441881,50.085704],[14.441996,50.085696],[14.443193,50.085638],[14.443183,50.085555],[14.443327,50.085541],[14.44332,50.085504],[14.443407,50.085494],[14.443405,50.085502],[14.443461,50.085507],[14.443575,50.085499],[14.443581,50.085473],[14.443769,50.085453],[14.443778,50.085408],[14.443794,50.085401],[14.44391,50.085384],[14.444027,50.085367],[14.444197,50.085364],[14.444689,50.085371],[14.444776,50.08536],[14.44496,50.085358],[14.445116,50.085354],[14.445301,50.085343],[14.445339,50.085365],[14.44544,50.085355],[14.445527,50.085345],[14.44557,50.08534],[14.445582,50.08535],[14.445906,50.085351],[14.446003,50.08536],[14.446129,50.085362],[14.446145,50.085291],[14.446272,50.085157],[14.446456,50.085155],[14.44647,50.085156],[14.446586,50.085139],[14.446591,50.084849],[14.446827,50.084008],[14.446829,50.083999],[14.446736,50.083972],[14.446574,50.08394],[14.446548,50.083929],[14.446635,50.083655],[14.446649,50.083656],[14.446813,50.08368],[14.446923,50.08369],[14.446995,50.083487],[14.44711,50.083279],[14.447113,50.083262],[14.447015,50.083262],[14.446866,50.083231],[14.44684,50.083219],[14.446773,50.083204],[14.44682,50.083118],[14.447001,50.082798],[14.447066,50.082822],[14.447229,50.082854],[14.447336,50.082882],[14.447431,50.0827],[14.447068,50.082613],[14.447096,50.082552],[14.44716,50.082449],[14.447162,50.08244],[14.447228,50.082328],[14.446931,50.082265],[14.446961,50.082123],[14.445989,50.081592],[14.445994,50.081566],[14.446037,50.081497],[14.446084,50.08141],[14.445572,50.081185],[14.445383,50.081215],[14.444837,50.0813],[14.444101,50.081484],[14.443909,50.081491],[14.443395,50.08151],[14.442644,50.081574],[14.442037,50.081651],[14.441178,50.081778],[14.440832,50.081811],[14.440687,50.081824],[14.440486,50.081842],[14.440328,50.081858],[14.439635,50.081996],[14.439534,50.082016],[14.439533,50.082017],[14.4399,50.083218],[14.440752,50.08508],[14.44077,50.085116],[14.440788,50.085158],[14.440742,50.085181],[14.440651,50.085223],[14.439953,50.085556],[14.43965,50.085701],[14.439259,50.085888],[14.439259,50.085888],[14.439259,50.085888],[14.439635,50.086186],[14.439792,50.086109],[14.439825,50.086085],[14.439888,50.086054]]]}},{"type":"Feature","properties":{"cislo":3002,"kod":28917,"mestskaCast":"praha-3"},"geometry":{"type":"Polygon","coordinates":[[[14.448348,50.086003],[14.448439,50.085974],[14.448472,50.08595],[14.448513,50.08589],[14.44852,50.085791],[14.44849,50.085734],[14.448417,50.085682],[14.447773,50.085525],[14.447638,50.085432],[14.447602,50.085401],[14.447571,50.085417],[14.447559,50.085406],[14.447576,50.08539],[14.447551,50.085379],[14.447539,50.085368],[14.447143,50.085107],[14.447008,50.085013],[14.446907,50.085022],[14.446869,50.085137],[14.446855,50.085136],[14.446673,50.085129],[14.446586,50.085139],[14.44647,50.085156],[14.446456,50.085155],[14.446272,50.085157],[14.446145,50.085291],[14.446129,50.085362],[14.446003,50.08536],[14.445906,50.085351],[14.445582,50.08535],[14.44557,50.08534],[14.445527,50.085345],[14.44544,50.085355],[14.445339,50.085365],[14.445301,50.085343],[14.445116,50.085354],[14.44496,50.085358],[14.444776,50.08536],[14.444689,50.085371],[14.444197,50.085364],[14.444027,50.085367],[14.44391,50.085384],[14.443794,50.085401],[14.443778,50.085408],[14.443769,50.085453],[14.443581,50.085473],[14.443575,50.085499],[14.443461,50.085507],[14.443405,50.085502],[14.443407,50.085494],[14.44332,50.085504],[14.443327,50.085541],[14.443183,50.085555],[14.443193,50.085638],[14.441996,50.085696],[14.441881,50.085704],[14.441916,50.08587],[14.44183,50.085881],[14.441735,50.085863],[14.441624,50.085853],[14.441539,50.085855],[14.441107,50.085699],[14.44109,50.085643],[14.441092,50.085634],[14.440994,50.085634],[14.440798,50.085626],[14.440782,50.085634],[14.440618,50.085674],[14.440427,50.085711],[14.440249,50.08575],[14.44003,50.085985],[14.439888,50.086054],[14.440531,50.086347],[14.440853,50.086357],[14.440966,50.086358],[14.441079,50.086359],[14.44146,50.086356],[14.441644,50.086354],[14.441768,50.086365],[14.441765,50.086183],[14.442095,50.086222],[14.442082,50.086284],[14.442084,50.086339],[14.442085,50.086402],[14.442091,50.086439],[14.442174,50.086646],[14.442391,50.08662],[14.442591,50.08661],[14.442873,50.086608],[14.443067,50.086625],[14.443277,50.086635],[14.443484,50.086653],[14.443704,50.086681],[14.443934,50.086729],[14.444084,50.086751],[14.444352,50.086684],[14.444638,50.086601],[14.444654,50.086593],[14.444859,50.086557],[14.445045,50.086546],[14.445051,50.086562],[14.445137,50.086545],[14.445151,50.086569],[14.445317,50.086536],[14.445305,50.086514],[14.445698,50.086458],[14.44568,50.086411],[14.445668,50.086401],[14.44564,50.086335],[14.445623,50.086279],[14.446009,50.086259],[14.446177,50.086265],[14.44637,50.086218],[14.446412,50.086285],[14.446458,50.086398],[14.44647,50.086408],[14.446499,50.086474],[14.446785,50.086454],[14.446828,50.086449],[14.446872,50.086444],[14.44689,50.086427],[14.447061,50.086415],[14.447011,50.08632],[14.447558,50.086205],[14.447982,50.086197],[14.44825,50.086066],[14.448348,50.086003]]]}},{"type":"Feature","properties":{"cislo":3003,"kod":28919,"mestskaCast":"praha-3"},"geometry":{"type":"Polygon","coordinates":[[[14.452109,50.09032],[14.452304,50.090361],[14.452307,50.090362],[14.452493,50.090378],[14.452553,50.09028],[14.45262,50.090293],[14.452738,50.090316],[14.452992,50.090365],[14.45321,50.090408],[14.453203,50.09042],[14.453246,50.090428],[14.45325,50.09042],[14.453246,50.090419],[14.453479,50.089859],[14.453023,50.088884],[14.452693,50.088383],[14.452547,50.088143],[14.452416,50.087895],[14.452383,50.087784],[14.452375,50.087756],[14.452379,50.087738],[14.452392,50.087676],[14.452416,50.087632],[14.452437,50.087598],[14.452635,50.087597],[14.452644,50.087553],[14.452669,50.087437],[14.452646,50.08728],[14.452733,50.08707],[14.45268,50.087057],[14.452583,50.087048],[14.452569,50.087047],[14.452488,50.087031],[14.45242,50.087015],[14.452379,50.087012],[14.452311,50.086997],[14.452244,50.086982],[14.452177,50.086967],[14.452039,50.087018],[14.45194,50.087018],[14.451827,50.087018],[14.451478,50.087068],[14.451184,50.087124],[14.450941,50.087075],[14.450985,50.086998],[14.451034,50.086902],[14.451057,50.086859],[14.451125,50.086738],[14.451133,50.086702],[14.45117,50.08666],[14.451036,50.08663],[14.450974,50.086588],[14.450879,50.086571],[14.450865,50.08657],[14.450786,50.086544],[14.450623,50.086512],[14.45034,50.086451],[14.450109,50.086412],[14.44996,50.086381],[14.449958,50.08639],[14.449883,50.086546],[14.449653,50.086499],[14.449674,50.086465],[14.449459,50.086418],[14.449224,50.086261],[14.449176,50.086221],[14.449174,50.08623],[14.448924,50.08628],[14.448772,50.086267],[14.448677,50.086249],[14.448589,50.086196],[14.448348,50.086003],[14.44825,50.086066],[14.447982,50.086197],[14.447558,50.086205],[14.447011,50.08632],[14.447061,50.086415],[14.44689,50.086427],[14.446872,50.086444],[14.446828,50.086449],[14.446785,50.086454],[14.446499,50.086474],[14.44647,50.086408],[14.446458,50.086398],[14.446412,50.086285],[14.44637,50.086218],[14.446177,50.086265],[14.446009,50.086259],[14.445623,50.086279],[14.44564,50.086335],[14.445668,50.086401],[14.44568,50.086411],[14.445698,50.086458],[14.445305,50.086514],[14.445317,50.086536],[14.445151,50.086569],[14.445137,50.086545],[14.445051,50.086562],[14.445045,50.086546],[14.444859,50.086557],[14.444654,50.086593],[14.444638,50.086601],[14.444352,50.086684],[14.444084,50.086751],[14.443934,50.086729],[14.443704,50.086681],[14.443484,50.086653],[14.443277,50.086635],[14.443067,50.086625],[14.442873,50.086608],[14.442591,50.08661],[14.442391,50.08662],[14.442174,50.086646],[14.442091,50.086439],[14.442085,50.086402],[14.442084,50.086339],[14.442082,50.086284],[14.442095,50.086222],[14.441765,50.086183],[14.441768,50.086365],[14.441644,50.086354],[14.44146,50.086356],[14.441079,50.086359],[14.440966,50.086358],[14.440853,50.086357],[14.440531,50.086347],[14.439888,50.086054],[14.439825,50.086085],[14.439792,50.086109],[14.439635,50.086186],[14.439259,50.085888],[14.439259,50.085888],[14.439259,50.085888],[14.439255,50.08589],[14.43907,50.085954],[14.438345,50.086205],[14.438057,50.086305],[14.438085,50.086358],[14.438212,50.086599],[14.438351,50.086673],[14.438542,50.08677],[14.438705,50.086843],[14.438826,50.086894],[14.438876,50.086911],[14.438983,50.086947],[14.439103,50.086988],[14.439254,50.087032],[14.439502,50.087094],[14.439685,50.087138],[14.439821,50.087164],[14.440155,50.087215],[14.440911,50.087321],[14.441686,50.087423],[14.441713,50.087427],[14.441844,50.087441],[14.442423,50.087418],[14.442975,50.087396],[14.443097,50.087427],[14.443138,50.087423],[14.443235,50.087412],[14.443139,50.088212],[14.443139,50.088215],[14.443132,50.088271],[14.443118,50.088388],[14.443118,50.088389],[14.443115,50.088417],[14.443112,50.088437],[14.443112,50.08844],[14.443175,50.088612],[14.443253,50.088829],[14.443429,50.088851],[14.44349,50.088863],[14.443691,50.088905],[14.443943,50.088957],[14.444206,50.089012],[14.444408,50.089054],[14.444669,50.089108],[14.444759,50.089127],[14.444964,50.089171],[14.445156,50.089212],[14.445354,50.089253],[14.445527,50.089289],[14.445566,50.089297],[14.445567,50.089297],[14.445724,50.089329],[14.445725,50.08933],[14.445726,50.08933],[14.446065,50.0894],[14.446553,50.089501],[14.446801,50.089553],[14.447318,50.08966],[14.447705,50.08974],[14.447922,50.089785],[14.447982,50.089798],[14.448392,50.089883],[14.448479,50.089721],[14.448516,50.089651],[14.44855,50.089589],[14.448777,50.089612],[14.448992,50.089634],[14.449242,50.089659],[14.44936,50.08967],[14.449558,50.089705],[14.449551,50.089719],[14.449577,50.089724],[14.449585,50.08971],[14.449716,50.089736],[14.449913,50.089777],[14.450087,50.089813],[14.45014,50.089821],[14.45018,50.089829],[14.450334,50.089861],[14.450439,50.089883],[14.45043,50.089901],[14.45047,50.08991],[14.450471,50.08991],[14.450482,50.089892],[14.450882,50.089973],[14.450872,50.089991],[14.450914,50.090001],[14.450925,50.08998],[14.451137,50.090018],[14.451132,50.090032],[14.451465,50.090098],[14.451449,50.09013],[14.451509,50.090144],[14.451615,50.090168],[14.451623,50.09017],[14.451639,50.09014],[14.451802,50.090173],[14.451964,50.090206],[14.451922,50.090279],[14.452032,50.090304],[14.452109,50.09032]]]}},{"type":"Feature","properties":{"cislo":3004,"kod":28921,"mestskaCast":"praha-3"},"geometry":{"type":"Polygon","coordinates":[[[14.453281,50.084369],[14.453054,50.084376],[14.45284,50.084384],[14.452638,50.084339],[14.452482,50.084344],[14.452454,50.084341],[14.45234,50.084349],[14.452199,50.084546],[14.45209,50.084727],[14.452035,50.084722],[14.451934,50.084731],[14.451628,50.084713],[14.451397,50.084738],[14.451366,50.084617],[14.451173,50.084664],[14.451087,50.084538],[14.450937,50.084579],[14.450862,50.0846],[14.450712,50.084378],[14.45038,50.084412],[14.450406,50.084487],[14.450439,50.084599],[14.450483,50.08475],[14.450254,50.084777],[14.450278,50.084893],[14.449829,50.084944],[14.449805,50.084861],[14.449661,50.084875],[14.449549,50.084802],[14.449506,50.084807],[14.449373,50.084768],[14.449342,50.084783],[14.449273,50.084777],[14.449159,50.084849],[14.448806,50.084782],[14.448676,50.084861],[14.448545,50.084949],[14.44869,50.084998],[14.448659,50.085141],[14.448538,50.085112],[14.448497,50.085108],[14.448269,50.085052],[14.448228,50.085048],[14.447751,50.08497],[14.447607,50.085048],[14.447542,50.085087],[14.447111,50.084795],[14.446866,50.084819],[14.446877,50.084902],[14.446909,50.085013],[14.446907,50.085022],[14.447008,50.085013],[14.447143,50.085107],[14.447539,50.085368],[14.447551,50.085379],[14.447576,50.08539],[14.447559,50.085406],[14.447571,50.085417],[14.447602,50.085401],[14.447638,50.085432],[14.447773,50.085525],[14.448417,50.085682],[14.44849,50.085734],[14.44852,50.085791],[14.448513,50.08589],[14.448472,50.08595],[14.448439,50.085974],[14.448348,50.086003],[14.448589,50.086196],[14.448677,50.086249],[14.448772,50.086267],[14.448924,50.08628],[14.449174,50.08623],[14.449176,50.086221],[14.449224,50.086261],[14.449459,50.086418],[14.449674,50.086465],[14.449653,50.086499],[14.449883,50.086546],[14.449958,50.08639],[14.44996,50.086381],[14.450109,50.086412],[14.45034,50.086451],[14.450623,50.086512],[14.450786,50.086544],[14.450865,50.08657],[14.450879,50.086571],[14.450974,50.086588],[14.451036,50.08663],[14.45117,50.08666],[14.451133,50.086702],[14.451125,50.086738],[14.451246,50.086767],[14.451401,50.086898],[14.451471,50.086968],[14.451837,50.086773],[14.452235,50.086563],[14.45203,50.086264],[14.452119,50.086245],[14.452255,50.086202],[14.452304,50.08617],[14.45243,50.086109],[14.452462,50.086093],[14.452533,50.086154],[14.452641,50.086245],[14.452738,50.086318],[14.452864,50.086256],[14.452841,50.085837],[14.452926,50.085835],[14.453082,50.085831],[14.453139,50.085827],[14.453157,50.08561],[14.453157,50.085547],[14.45334,50.085545],[14.453398,50.085541],[14.453496,50.085277],[14.453535,50.085226],[14.453537,50.085154],[14.453404,50.084852],[14.453423,50.084626],[14.453373,50.084531],[14.453353,50.084493],[14.453301,50.084407],[14.453281,50.084369]]]}},{"type":"Feature","properties":{"cislo":3005,"kod":28923,"mestskaCast":"praha-3"},"geometry":{"type":"Polygon","coordinates":[[[14.447113,50.083262],[14.44711,50.083279],[14.446995,50.083487],[14.446923,50.08369],[14.446813,50.08368],[14.446649,50.083656],[14.446635,50.083655],[14.446548,50.083929],[14.446574,50.08394],[14.446736,50.083972],[14.446829,50.083999],[14.446827,50.084008],[14.446591,50.084849],[14.446586,50.085139],[14.446673,50.085129],[14.446855,50.085136],[14.446869,50.085137],[14.446907,50.085022],[14.446909,50.085013],[14.446877,50.084902],[14.446866,50.084819],[14.447111,50.084795],[14.447542,50.085087],[14.447607,50.085048],[14.447751,50.08497],[14.448228,50.085048],[14.448269,50.085052],[14.448497,50.085108],[14.448538,50.085112],[14.448659,50.085141],[14.44869,50.084998],[14.448545,50.084949],[14.448676,50.084861],[14.448806,50.084782],[14.449159,50.084849],[14.449273,50.084777],[14.449342,50.084783],[14.449373,50.084768],[14.449506,50.084807],[14.449549,50.084802],[14.449661,50.084875],[14.449805,50.084861],[14.449829,50.084944],[14.450278,50.084893],[14.450254,50.084777],[14.450483,50.08475],[14.450439,50.084599],[14.450406,50.084487],[14.45038,50.084412],[14.450712,50.084378],[14.450862,50.0846],[14.450937,50.084579],[14.451087,50.084538],[14.451173,50.084664],[14.451366,50.084617],[14.451397,50.084738],[14.451628,50.084713],[14.451934,50.084731],[14.452035,50.084722],[14.45209,50.084727],[14.452199,50.084546],[14.45234,50.084349],[14.452454,50.084341],[14.452482,50.084344],[14.452638,50.084339],[14.45284,50.084384],[14.453054,50.084376],[14.453281,50.084369],[14.453326,50.084355],[14.453458,50.084266],[14.453462,50.084249],[14.453427,50.084146],[14.453435,50.08411],[14.453489,50.083988],[14.453188,50.083744],[14.453096,50.083781],[14.453031,50.08382],[14.452968,50.083851],[14.452749,50.083886],[14.452171,50.083953],[14.451967,50.083981],[14.451894,50.083992],[14.451762,50.084017],[14.451365,50.084091],[14.451134,50.084116],[14.451122,50.084042],[14.45079,50.083877],[14.450766,50.083793],[14.450722,50.083671],[14.45051,50.08367],[14.450267,50.083685],[14.449949,50.083721],[14.449838,50.083847],[14.449662,50.083813],[14.449551,50.083804],[14.449373,50.083779],[14.449359,50.083778],[14.449195,50.083754],[14.44901,50.083692],[14.448846,50.083669],[14.448832,50.083668],[14.448668,50.083644],[14.44849,50.083619],[14.448409,50.083603],[14.448459,50.083498],[14.44851,50.083394],[14.448161,50.083309],[14.44814,50.083343],[14.448086,50.083465],[14.448045,50.083525],[14.447696,50.08344],[14.447541,50.083308],[14.447499,50.083305],[14.44748,50.08333],[14.447454,50.083319],[14.4474,50.083305],[14.447226,50.083263],[14.447113,50.083262]]]}},{"type":"Feature","properties":{"cislo":3006,"kod":28925,"mestskaCast":"praha-3"},"geometry":{"type":"Polygon","coordinates":[[[14.447113,50.083262],[14.447226,50.083263],[14.4474,50.083305],[14.447454,50.083319],[14.44748,50.08333],[14.447499,50.083305],[14.447541,50.083308],[14.447696,50.08344],[14.448045,50.083525],[14.448086,50.083465],[14.44814,50.083343],[14.448161,50.083309],[14.44851,50.083394],[14.448459,50.083498],[14.448409,50.083603],[14.44849,50.083619],[14.448668,50.083644],[14.448832,50.083668],[14.448846,50.083669],[14.44901,50.083692],[14.449195,50.083754],[14.449359,50.083778],[14.449373,50.083779],[14.449518,50.083628],[14.449529,50.083575],[14.449541,50.083385],[14.449545,50.083367],[14.449609,50.083264],[14.449635,50.083212],[14.449405,50.083165],[14.449312,50.083138],[14.449281,50.082954],[14.449409,50.082947],[14.449597,50.082927],[14.449506,50.082493],[14.449305,50.082511],[14.449204,50.082521],[14.449158,50.082208],[14.448195,50.08196],[14.448256,50.081874],[14.44832,50.081771],[14.448324,50.081753],[14.448343,50.081728],[14.448363,50.081702],[14.448135,50.081646],[14.448094,50.081706],[14.448028,50.081818],[14.447967,50.081903],[14.447888,50.081878],[14.447474,50.081769],[14.447072,50.08167],[14.447119,50.081583],[14.447203,50.081454],[14.447207,50.081437],[14.446191,50.081174],[14.446035,50.081179],[14.445952,50.081171],[14.445572,50.081185],[14.446084,50.08141],[14.446037,50.081497],[14.445994,50.081566],[14.445989,50.081592],[14.446961,50.082123],[14.446931,50.082265],[14.447228,50.082328],[14.447162,50.08244],[14.44716,50.082449],[14.447096,50.082552],[14.447068,50.082613],[14.447431,50.0827],[14.447336,50.082882],[14.447229,50.082854],[14.447066,50.082822],[14.447001,50.082798],[14.44682,50.083118],[14.446773,50.083204],[14.44684,50.083219],[14.446866,50.083231],[14.447015,50.083262],[14.447113,50.083262]]]}},{"type":"Feature","properties":{"cislo":3007,"kod":28927,"mestskaCast":"praha-3"},"geometry":{"type":"Polygon","coordinates":[[[14.449373,50.083779],[14.449551,50.083804],[14.449662,50.083813],[14.449838,50.083847],[14.449949,50.083721],[14.450267,50.083685],[14.45051,50.08367],[14.450722,50.083671],[14.450766,50.083793],[14.45079,50.083877],[14.451122,50.084042],[14.451134,50.084116],[14.451365,50.084091],[14.451762,50.084017],[14.451894,50.083992],[14.451967,50.083981],[14.451785,50.08391],[14.451682,50.083865],[14.451656,50.083853],[14.451527,50.083797],[14.45145,50.083762],[14.451571,50.083655],[14.451781,50.083265],[14.451932,50.083288],[14.452094,50.08332],[14.45212,50.083332],[14.452161,50.083335],[14.452192,50.083256],[14.452394,50.082838],[14.452468,50.082691],[14.452236,50.082652],[14.452116,50.082623],[14.452232,50.082407],[14.452331,50.082143],[14.452177,50.082139],[14.451959,50.082101],[14.451905,50.082087],[14.451836,50.082081],[14.451849,50.081955],[14.451821,50.081953],[14.451617,50.081917],[14.451384,50.081887],[14.451147,50.081875],[14.450909,50.081863],[14.450702,50.081845],[14.450492,50.081836],[14.450283,50.081826],[14.450117,50.081812],[14.450018,50.081812],[14.449838,50.081796],[14.4498,50.081974],[14.449691,50.081956],[14.449679,50.081945],[14.449503,50.081912],[14.449158,50.082208],[14.449204,50.082521],[14.449305,50.082511],[14.449506,50.082493],[14.449597,50.082927],[14.449409,50.082947],[14.449281,50.082954],[14.449312,50.083138],[14.449405,50.083165],[14.449635,50.083212],[14.449609,50.083264],[14.449545,50.083367],[14.449541,50.083385],[14.449529,50.083575],[14.449518,50.083628],[14.449373,50.083779]]]}},{"type":"Feature","properties":{"cislo":3008,"kod":28929,"mestskaCast":"praha-3"},"geometry":{"type":"Polygon","coordinates":[[[14.445572,50.081185],[14.445952,50.081171],[14.446035,50.081179],[14.446191,50.081174],[14.447207,50.081437],[14.447203,50.081454],[14.447119,50.081583],[14.447072,50.08167],[14.447474,50.081769],[14.447888,50.081878],[14.447967,50.081903],[14.448028,50.081818],[14.448094,50.081706],[14.448135,50.081646],[14.448363,50.081702],[14.448408,50.081624],[14.448427,50.081599],[14.449055,50.081763],[14.449129,50.081615],[14.449543,50.081525],[14.449689,50.081238],[14.449568,50.08121],[14.449392,50.081176],[14.449257,50.081146],[14.44938,50.080966],[14.449398,50.080949],[14.449476,50.080847],[14.449595,50.080686],[14.449679,50.080557],[14.449755,50.080464],[14.449741,50.080463],[14.449716,50.080451],[14.450105,50.07995],[14.44992,50.079888],[14.44975,50.079828],[14.449902,50.079642],[14.449653,50.079556],[14.449488,50.079732],[14.44924,50.079638],[14.449084,50.079579],[14.449058,50.079567],[14.448329,50.079349],[14.448133,50.079277],[14.448002,50.079229],[14.447999,50.079228],[14.447521,50.079802],[14.447381,50.07997],[14.445572,50.081185]]]}},{"type":"Feature","properties":{"cislo":3009,"kod":28931,"mestskaCast":"praha-3"},"geometry":{"type":"Polygon","coordinates":[[[14.449158,50.082208],[14.449503,50.081912],[14.449679,50.081945],[14.449691,50.081956],[14.4498,50.081974],[14.449838,50.081796],[14.450018,50.081812],[14.450117,50.081812],[14.450283,50.081826],[14.450492,50.081836],[14.450702,50.081845],[14.450909,50.081863],[14.451147,50.081875],[14.451384,50.081887],[14.451617,50.081917],[14.451821,50.081953],[14.451849,50.081955],[14.451836,50.082081],[14.451905,50.082087],[14.451959,50.082101],[14.452177,50.082139],[14.452331,50.082143],[14.452459,50.082136],[14.452663,50.082173],[14.452691,50.082175],[14.452898,50.082193],[14.453009,50.082203],[14.453171,50.082172],[14.453185,50.082173],[14.453373,50.082217],[14.453577,50.082253],[14.453752,50.08216],[14.454916,50.082253],[14.455163,50.081694],[14.454143,50.08125],[14.454129,50.081249],[14.4529,50.080732],[14.451827,50.080275],[14.450962,50.079899],[14.450724,50.079823],[14.449985,50.079586],[14.448322,50.079048],[14.448192,50.079001],[14.448188,50.079],[14.447999,50.079228],[14.448002,50.079229],[14.448133,50.079277],[14.448329,50.079349],[14.449058,50.079567],[14.449084,50.079579],[14.44924,50.079638],[14.449488,50.079732],[14.449653,50.079556],[14.449902,50.079642],[14.44975,50.079828],[14.44992,50.079888],[14.450105,50.07995],[14.449716,50.080451],[14.449741,50.080463],[14.449755,50.080464],[14.449679,50.080557],[14.449595,50.080686],[14.449476,50.080847],[14.449398,50.080949],[14.44938,50.080966],[14.449257,50.081146],[14.449392,50.081176],[14.449568,50.08121],[14.449689,50.081238],[14.449543,50.081525],[14.449129,50.081615],[14.449055,50.081763],[14.448427,50.081599],[14.448408,50.081624],[14.448363,50.081702],[14.448343,50.081728],[14.448324,50.081753],[14.44832,50.081771],[14.448256,50.081874],[14.448195,50.08196],[14.449158,50.082208]]]}},{"type":"Feature","properties":{"cislo":3010,"kod":28933,"mestskaCast":"praha-3"},"geometry":{"type":"Polygon","coordinates":[[[14.452331,50.082143],[14.452232,50.082407],[14.452116,50.082623],[14.452236,50.082652],[14.452468,50.082691],[14.452394,50.082838],[14.452192,50.083256],[14.452161,50.083335],[14.45212,50.083332],[14.452094,50.08332],[14.451932,50.083288],[14.451781,50.083265],[14.451571,50.083655],[14.45145,50.083762],[14.451527,50.083797],[14.451656,50.083853],[14.451682,50.083865],[14.451785,50.08391],[14.451967,50.083981],[14.452171,50.083953],[14.452749,50.083886],[14.452968,50.083851],[14.453031,50.08382],[14.453096,50.083781],[14.453188,50.083744],[14.453251,50.083713],[14.453393,50.083644],[14.453443,50.083476],[14.453476,50.083451],[14.453886,50.083115],[14.454039,50.083192],[14.454363,50.082931],[14.454301,50.082889],[14.454405,50.082798],[14.454502,50.082807],[14.454532,50.0828],[14.454912,50.082671],[14.455218,50.082625],[14.455656,50.082555],[14.45599,50.082512],[14.456027,50.082469],[14.456117,50.082378],[14.45615,50.08229],[14.456177,50.082229],[14.456178,50.082156],[14.45528,50.081741],[14.455163,50.081694],[14.454916,50.082253],[14.453752,50.08216],[14.453577,50.082253],[14.453373,50.082217],[14.453185,50.082173],[14.453171,50.082172],[14.453009,50.082203],[14.452898,50.082193],[14.452691,50.082175],[14.452663,50.082173],[14.452459,50.082136],[14.452331,50.082143]]]}},{"type":"Feature","properties":{"cislo":3011,"kod":28935,"mestskaCast":"praha-3"},"geometry":{"type":"Polygon","coordinates":[[[14.453396,50.090447],[14.453423,50.090452],[14.453435,50.090454],[14.453487,50.090465],[14.453955,50.090559],[14.454183,50.090605],[14.454657,50.090702],[14.455149,50.090803],[14.455368,50.090848],[14.455298,50.089529],[14.455226,50.08788],[14.455228,50.087808],[14.455236,50.087636],[14.455245,50.087328],[14.455271,50.08714],[14.455437,50.087155],[14.455576,50.087167],[14.455647,50.087164],[14.455699,50.086788],[14.45571,50.086734],[14.455366,50.086631],[14.455466,50.085959],[14.455896,50.086061],[14.455935,50.08601],[14.456031,50.085891],[14.456359,50.085475],[14.455923,50.085337],[14.455594,50.085226],[14.455612,50.08501],[14.455614,50.084938],[14.455591,50.084845],[14.45511,50.084322],[14.455423,50.084113],[14.455359,50.08408],[14.45525,50.083998],[14.455238,50.083988],[14.455084,50.083784],[14.455048,50.083753],[14.455028,50.083715],[14.455002,50.083704],[14.454875,50.083638],[14.45477,50.083602],[14.454566,50.083765],[14.454751,50.083954],[14.454629,50.083998],[14.454519,50.084052],[14.454503,50.084059],[14.454308,50.084115],[14.454229,50.084153],[14.453978,50.08414],[14.453866,50.084203],[14.453789,50.084232],[14.453608,50.084089],[14.453508,50.084098],[14.453435,50.08411],[14.453427,50.084146],[14.453462,50.084249],[14.453458,50.084266],[14.453326,50.084355],[14.453281,50.084369],[14.453301,50.084407],[14.453353,50.084493],[14.453373,50.084531],[14.453423,50.084626],[14.453404,50.084852],[14.453537,50.085154],[14.453535,50.085226],[14.453496,50.085277],[14.453398,50.085541],[14.45334,50.085545],[14.453157,50.085547],[14.453157,50.08561],[14.453139,50.085827],[14.453082,50.085831],[14.452926,50.085835],[14.452841,50.085837],[14.452864,50.086256],[14.452738,50.086318],[14.452641,50.086245],[14.452533,50.086154],[14.452462,50.086093],[14.45243,50.086109],[14.452304,50.08617],[14.452255,50.086202],[14.452119,50.086245],[14.45203,50.086264],[14.452235,50.086563],[14.451837,50.086773],[14.451471,50.086968],[14.451401,50.086898],[14.451246,50.086767],[14.451125,50.086738],[14.451057,50.086859],[14.451034,50.086902],[14.450985,50.086998],[14.450941,50.087075],[14.451184,50.087124],[14.451478,50.087068],[14.451827,50.087018],[14.45194,50.087018],[14.452039,50.087018],[14.452177,50.086967],[14.452244,50.086982],[14.452311,50.086997],[14.452379,50.087012],[14.45242,50.087015],[14.452488,50.087031],[14.452569,50.087047],[14.452583,50.087048],[14.45268,50.087057],[14.452733,50.08707],[14.452646,50.08728],[14.452669,50.087437],[14.452644,50.087553],[14.452635,50.087597],[14.452437,50.087598],[14.452416,50.087632],[14.452392,50.087676],[14.452379,50.087738],[14.452375,50.087756],[14.452383,50.087784],[14.452416,50.087895],[14.452547,50.088143],[14.452693,50.088383],[14.453023,50.088884],[14.453479,50.089859],[14.453246,50.090419],[14.45325,50.09042],[14.453252,50.090417],[14.453291,50.090425],[14.453341,50.090435],[14.453361,50.090439],[14.453396,50.090447]]]}},{"type":"Feature","properties":{"cislo":3012,"kod":28937,"mestskaCast":"praha-3"},"geometry":{"type":"Polygon","coordinates":[[[14.461505,50.092042],[14.46183,50.09208],[14.46195,50.092101],[14.463171,50.09232],[14.46349,50.092377],[14.463817,50.092371],[14.46455,50.092543],[14.464686,50.092575],[14.46498,50.092607],[14.465202,50.092629],[14.465224,50.092631],[14.465569,50.092662],[14.465813,50.092684],[14.46621,50.092789],[14.466678,50.092914],[14.466844,50.092958],[14.466918,50.092978],[14.466961,50.092991],[14.467331,50.093159],[14.467743,50.093345],[14.467845,50.093246],[14.468122,50.093225],[14.468451,50.0932],[14.468813,50.09315],[14.469021,50.093085],[14.469108,50.093021],[14.469113,50.093021],[14.469378,50.092568],[14.468968,50.092305],[14.468626,50.091857],[14.468212,50.091285],[14.467852,50.090591],[14.468086,50.090022],[14.468138,50.089908],[14.467948,50.089873],[14.467881,50.089858],[14.467665,50.089812],[14.467444,50.089856],[14.467363,50.08984],[14.467254,50.089821],[14.467185,50.089815],[14.467103,50.089799],[14.466998,50.089762],[14.466784,50.089707],[14.466467,50.089743],[14.466251,50.089696],[14.466197,50.089683],[14.465348,50.089499],[14.465322,50.089488],[14.465134,50.089444],[14.464999,50.089414],[14.464863,50.089656],[14.4645,50.089569],[14.464547,50.089483],[14.464613,50.089371],[14.464633,50.089345],[14.46466,50.089284],[14.464472,50.08924],[14.464268,50.089204],[14.46404,50.089148],[14.46381,50.0891],[14.463715,50.089083],[14.463702,50.089082],[14.463539,50.089049],[14.463282,50.088999],[14.46312,50.088967],[14.463106,50.088965],[14.463064,50.088962],[14.462902,50.088929],[14.462739,50.088897],[14.462577,50.088864],[14.462415,50.088832],[14.462252,50.088799],[14.46209,50.088767],[14.462065,50.088819],[14.462009,50.08895],[14.46198,50.08902],[14.461534,50.088927],[14.461087,50.088842],[14.461114,50.088781],[14.46117,50.08865],[14.461195,50.088597],[14.460977,50.08856],[14.460815,50.088528],[14.460653,50.088495],[14.460477,50.088461],[14.460314,50.088429],[14.460309,50.088456],[14.460202,50.088428],[14.460043,50.088378],[14.459938,50.088341],[14.459727,50.088604],[14.458707,50.08836],[14.457675,50.088105],[14.456563,50.087762],[14.456425,50.08795],[14.456325,50.088086],[14.456141,50.088024],[14.456183,50.087956],[14.45624,50.087888],[14.45632,50.087777],[14.456332,50.087588],[14.456412,50.087477],[14.456452,50.087426],[14.456228,50.087351],[14.455909,50.08726],[14.455647,50.087164],[14.455576,50.087167],[14.455437,50.087155],[14.455271,50.08714],[14.455245,50.087328],[14.455236,50.087636],[14.455228,50.087808],[14.455226,50.08788],[14.455298,50.089529],[14.455368,50.090848],[14.455373,50.090849],[14.455325,50.090957],[14.455403,50.090974],[14.455421,50.090936],[14.455921,50.091029],[14.45607,50.091074],[14.456105,50.09109],[14.456346,50.091145],[14.456395,50.091154],[14.456457,50.091146],[14.456578,50.091171],[14.45653,50.091254],[14.456769,50.091304],[14.456833,50.091311],[14.45687,50.091316],[14.456899,50.091319],[14.4569,50.091315],[14.456902,50.091311],[14.456905,50.091308],[14.456908,50.091305],[14.456913,50.091302],[14.456918,50.0913],[14.456924,50.091299],[14.456929,50.091298],[14.456935,50.091298],[14.456941,50.091298],[14.456947,50.091299],[14.456953,50.091301],[14.456957,50.091303],[14.456962,50.091306],[14.456965,50.09131],[14.456967,50.091313],[14.456969,50.091317],[14.456969,50.091321],[14.456968,50.091325],[14.456967,50.091328],[14.457133,50.091367],[14.457422,50.091431],[14.457629,50.091472],[14.458007,50.091547],[14.458027,50.091507],[14.458477,50.091596],[14.459009,50.091688],[14.459053,50.091696],[14.459149,50.091713],[14.4595,50.091775],[14.460769,50.091947],[14.460821,50.091895],[14.461382,50.092028],[14.461505,50.092042]]]}},{"type":"Feature","properties":{"cislo":3013,"kod":28939,"mestskaCast":"praha-3"},"geometry":{"type":"Polygon","coordinates":[[[14.455647,50.087164],[14.455909,50.08726],[14.456228,50.087351],[14.456452,50.087426],[14.456412,50.087477],[14.456332,50.087588],[14.45632,50.087777],[14.45624,50.087888],[14.456183,50.087956],[14.456141,50.088024],[14.456325,50.088086],[14.456425,50.08795],[14.456563,50.087762],[14.457675,50.088105],[14.458707,50.08836],[14.459727,50.088604],[14.459938,50.088341],[14.46013,50.088104],[14.459652,50.087962],[14.459714,50.087868],[14.459812,50.08774],[14.460062,50.087427],[14.459575,50.087266],[14.459521,50.087252],[14.459428,50.087225],[14.459349,50.0872],[14.459271,50.087166],[14.459202,50.087097],[14.459132,50.087027],[14.459086,50.086977],[14.458995,50.086942],[14.458926,50.086936],[14.458801,50.086925],[14.458716,50.086927],[14.458619,50.086918],[14.458498,50.086889],[14.458419,50.086864],[14.458312,50.086837],[14.458154,50.086786],[14.458064,50.086742],[14.45803,50.086703],[14.458042,50.086649],[14.458073,50.08657],[14.458145,50.086495],[14.45816,50.086424],[14.45813,50.086367],[14.458094,50.086336],[14.458015,50.086311],[14.457896,50.086274],[14.457793,50.086228],[14.457753,50.086216],[14.457514,50.086149],[14.457359,50.086344],[14.457441,50.086488],[14.457483,50.086555],[14.457048,50.087143],[14.456162,50.086865],[14.45661,50.086287],[14.455896,50.086061],[14.455466,50.085959],[14.455366,50.086631],[14.45571,50.086734],[14.455699,50.086788],[14.455647,50.087164]]]}},{"type":"Feature","properties":{"cislo":3014,"kod":28941,"mestskaCast":"praha-3"},"geometry":{"type":"Polygon","coordinates":[[[14.459575,50.087266],[14.459555,50.087228],[14.45955,50.087182],[14.459572,50.087147],[14.459632,50.087062],[14.459732,50.086926],[14.459808,50.086832],[14.460456,50.087035],[14.460496,50.087047],[14.460668,50.087099],[14.460936,50.087168],[14.461003,50.087183],[14.461122,50.087221],[14.461098,50.087264],[14.461546,50.087349],[14.461681,50.087043],[14.461975,50.086312],[14.462025,50.086157],[14.461962,50.086124],[14.461819,50.086066],[14.461591,50.08601],[14.460882,50.085829],[14.460059,50.085657],[14.459249,50.085485],[14.458645,50.085341],[14.458165,50.085208],[14.457612,50.085023],[14.457343,50.0849],[14.456862,50.084639],[14.456699,50.084543],[14.456489,50.08447],[14.455591,50.084845],[14.455614,50.084938],[14.455612,50.08501],[14.455594,50.085226],[14.455923,50.085337],[14.456359,50.085475],[14.456031,50.085891],[14.455935,50.08601],[14.455896,50.086061],[14.45661,50.086287],[14.456162,50.086865],[14.457048,50.087143],[14.457483,50.086555],[14.457441,50.086488],[14.457359,50.086344],[14.457514,50.086149],[14.457753,50.086216],[14.457793,50.086228],[14.457896,50.086274],[14.458015,50.086311],[14.458094,50.086336],[14.45813,50.086367],[14.45816,50.086424],[14.458145,50.086495],[14.458073,50.08657],[14.458042,50.086649],[14.45803,50.086703],[14.458064,50.086742],[14.458154,50.086786],[14.458312,50.086837],[14.458419,50.086864],[14.458498,50.086889],[14.458619,50.086918],[14.458716,50.086927],[14.458801,50.086925],[14.458926,50.086936],[14.458995,50.086942],[14.459086,50.086977],[14.459132,50.087027],[14.459202,50.087097],[14.459271,50.087166],[14.459349,50.0872],[14.459428,50.087225],[14.459521,50.087252],[14.459575,50.087266]]]}},{"type":"Feature","properties":{"cislo":3015,"kod":28943,"mestskaCast":"praha-3"},"geometry":{"type":"Polygon","coordinates":[[[14.461975,50.086312],[14.46248,50.086399],[14.462534,50.08646],[14.462927,50.086028],[14.462988,50.085942],[14.463228,50.085147],[14.463526,50.083748],[14.463595,50.083554],[14.46368,50.083353],[14.46375,50.08316],[14.461967,50.082921],[14.459591,50.082621],[14.459303,50.08245],[14.459186,50.082403],[14.458986,50.082349],[14.458905,50.082333],[14.458891,50.082332],[14.45878,50.082322],[14.458741,50.08231],[14.458616,50.082299],[14.458523,50.082272],[14.458416,50.082245],[14.458297,50.082207],[14.45818,50.08216],[14.458039,50.082093],[14.457912,50.082028],[14.456768,50.081836],[14.455896,50.081695],[14.455728,50.08169],[14.455573,50.081685],[14.455348,50.081683],[14.455163,50.081694],[14.45528,50.081741],[14.456178,50.082156],[14.456177,50.082229],[14.45615,50.08229],[14.456117,50.082378],[14.456027,50.082469],[14.45599,50.082512],[14.455656,50.082555],[14.455218,50.082625],[14.454912,50.082671],[14.454532,50.0828],[14.454502,50.082807],[14.454405,50.082798],[14.454301,50.082889],[14.454363,50.082931],[14.454039,50.083192],[14.453886,50.083115],[14.453476,50.083451],[14.453443,50.083476],[14.453393,50.083644],[14.453251,50.083713],[14.453188,50.083744],[14.453489,50.083988],[14.453435,50.08411],[14.453508,50.084098],[14.453608,50.084089],[14.453789,50.084232],[14.453866,50.084203],[14.453978,50.08414],[14.454229,50.084153],[14.454308,50.084115],[14.454503,50.084059],[14.454519,50.084052],[14.454629,50.083998],[14.454751,50.083954],[14.454566,50.083765],[14.45477,50.083602],[14.454875,50.083638],[14.455002,50.083704],[14.455028,50.083715],[14.455048,50.083753],[14.455084,50.083784],[14.455238,50.083988],[14.45525,50.083998],[14.455359,50.08408],[14.455423,50.084113],[14.45511,50.084322],[14.455591,50.084845],[14.456489,50.08447],[14.456699,50.084543],[14.456862,50.084639],[14.457343,50.0849],[14.457612,50.085023],[14.458165,50.085208],[14.458645,50.085341],[14.459249,50.085485],[14.460059,50.085657],[14.460882,50.085829],[14.461591,50.08601],[14.461819,50.086066],[14.461962,50.086124],[14.462025,50.086157],[14.461975,50.086312]]]}},{"type":"Feature","properties":{"cislo":3016,"kod":28945,"mestskaCast":"praha-3"},"geometry":{"type":"Polygon","coordinates":[[[14.469172,50.087903],[14.469595,50.087042],[14.469785,50.086677],[14.470164,50.085758],[14.470746,50.084348],[14.470777,50.084269],[14.470696,50.084253],[14.470067,50.084161],[14.468264,50.083884],[14.467253,50.083732],[14.46694,50.083677],[14.465646,50.083463],[14.464185,50.083234],[14.46375,50.08316],[14.46368,50.083353],[14.463595,50.083554],[14.463526,50.083748],[14.463228,50.085147],[14.462988,50.085942],[14.462927,50.086028],[14.462534,50.08646],[14.462473,50.086545],[14.463267,50.086776],[14.463131,50.087006],[14.463768,50.087182],[14.464124,50.087295],[14.464182,50.087291],[14.464245,50.08726],[14.46434,50.087078],[14.46448,50.086818],[14.46485,50.086932],[14.46502,50.087065],[14.465392,50.087171],[14.465675,50.087232],[14.466178,50.087321],[14.466259,50.087338],[14.468336,50.08772],[14.468793,50.087824],[14.46909,50.087887],[14.469172,50.087903]]]}},{"type":"Feature","properties":{"cislo":3017,"kod":28947,"mestskaCast":"praha-3"},"geometry":{"type":"Polygon","coordinates":[[[14.461195,50.088597],[14.46122,50.088545],[14.461277,50.088414],[14.461321,50.088336],[14.461769,50.088421],[14.462434,50.088543],[14.462867,50.088627],[14.462912,50.088549],[14.462974,50.088391],[14.463299,50.088456],[14.463352,50.08847],[14.463515,50.088502],[14.463651,50.088524],[14.463545,50.088759],[14.463925,50.088829],[14.463969,50.088751],[14.46402,50.088647],[14.464063,50.088578],[14.464074,50.088524],[14.464304,50.088572],[14.46448,50.088606],[14.464535,50.088611],[14.464751,50.088657],[14.464927,50.08869],[14.465018,50.088662],[14.465099,50.088479],[14.465177,50.088313],[14.465231,50.088191],[14.46534,50.08801],[14.465366,50.087958],[14.46542,50.087835],[14.465465,50.087758],[14.465898,50.087841],[14.466178,50.087321],[14.465675,50.087232],[14.465392,50.087171],[14.46502,50.087065],[14.46485,50.086932],[14.46448,50.086818],[14.46434,50.087078],[14.464245,50.08726],[14.464182,50.087291],[14.464124,50.087295],[14.463768,50.087182],[14.463131,50.087006],[14.463267,50.086776],[14.462473,50.086545],[14.462534,50.08646],[14.46248,50.086399],[14.461975,50.086312],[14.461681,50.087043],[14.461546,50.087349],[14.461098,50.087264],[14.461122,50.087221],[14.461003,50.087183],[14.460936,50.087168],[14.460668,50.087099],[14.460496,50.087047],[14.460456,50.087035],[14.459808,50.086832],[14.459732,50.086926],[14.459632,50.087062],[14.459572,50.087147],[14.45955,50.087182],[14.459555,50.087228],[14.459575,50.087266],[14.460062,50.087427],[14.459812,50.08774],[14.459714,50.087868],[14.459652,50.087962],[14.46013,50.088104],[14.459938,50.088341],[14.460043,50.088378],[14.460202,50.088428],[14.460309,50.088456],[14.460314,50.088429],[14.460477,50.088461],[14.460653,50.088495],[14.460815,50.088528],[14.460977,50.08856],[14.461195,50.088597]]]}},{"type":"Feature","properties":{"cislo":3018,"kod":28949,"mestskaCast":"praha-3"},"geometry":{"type":"Polygon","coordinates":[[[14.466197,50.089683],[14.466238,50.089623],[14.466281,50.089554],[14.466302,50.08952],[14.466357,50.089397],[14.466462,50.089234],[14.466516,50.089112],[14.466608,50.088947],[14.466675,50.088962],[14.466875,50.089016],[14.467024,50.089048],[14.467164,50.088788],[14.467298,50.088555],[14.467165,50.088516],[14.466949,50.088469],[14.466896,50.088456],[14.46697,50.088308],[14.466768,50.088263],[14.466399,50.088203],[14.466073,50.088147],[14.465899,50.088105],[14.465764,50.088074],[14.465898,50.087841],[14.465465,50.087758],[14.46542,50.087835],[14.465366,50.087958],[14.46534,50.08801],[14.465231,50.088191],[14.465177,50.088313],[14.465099,50.088479],[14.465018,50.088662],[14.464927,50.08869],[14.464751,50.088657],[14.464535,50.088611],[14.46448,50.088606],[14.464304,50.088572],[14.464074,50.088524],[14.464063,50.088578],[14.46402,50.088647],[14.463969,50.088751],[14.463925,50.088829],[14.463545,50.088759],[14.463651,50.088524],[14.463515,50.088502],[14.463352,50.08847],[14.463299,50.088456],[14.462974,50.088391],[14.462912,50.088549],[14.462867,50.088627],[14.462434,50.088543],[14.461769,50.088421],[14.461321,50.088336],[14.461277,50.088414],[14.46122,50.088545],[14.461195,50.088597],[14.46117,50.08865],[14.461114,50.088781],[14.461087,50.088842],[14.461534,50.088927],[14.46198,50.08902],[14.462009,50.08895],[14.462065,50.088819],[14.46209,50.088767],[14.462252,50.088799],[14.462415,50.088832],[14.462577,50.088864],[14.462739,50.088897],[14.462902,50.088929],[14.463064,50.088962],[14.463106,50.088965],[14.46312,50.088967],[14.463282,50.088999],[14.463539,50.089049],[14.463702,50.089082],[14.463715,50.089083],[14.46381,50.0891],[14.46404,50.089148],[14.464268,50.089204],[14.464472,50.08924],[14.46466,50.089284],[14.464633,50.089345],[14.464613,50.089371],[14.464547,50.089483],[14.4645,50.089569],[14.464863,50.089656],[14.464999,50.089414],[14.465134,50.089444],[14.465322,50.089488],[14.465348,50.089499],[14.466197,50.089683]]]}},{"type":"Feature","properties":{"cislo":3019,"kod":28951,"mestskaCast":"praha-3"},"geometry":{"type":"Polygon","coordinates":[[[14.468138,50.089908],[14.468434,50.089381],[14.468808,50.088615],[14.469172,50.087903],[14.46909,50.087887],[14.468793,50.087824],[14.468336,50.08772],[14.466259,50.087338],[14.466178,50.087321],[14.465898,50.087841],[14.465764,50.088074],[14.465899,50.088105],[14.466073,50.088147],[14.466399,50.088203],[14.466768,50.088263],[14.46697,50.088308],[14.466896,50.088456],[14.466949,50.088469],[14.467165,50.088516],[14.467298,50.088555],[14.467164,50.088788],[14.467024,50.089048],[14.466875,50.089016],[14.466675,50.088962],[14.466608,50.088947],[14.466516,50.089112],[14.466462,50.089234],[14.466357,50.089397],[14.466302,50.08952],[14.466281,50.089554],[14.466238,50.089623],[14.466197,50.089683],[14.466251,50.089696],[14.466467,50.089743],[14.466784,50.089707],[14.466998,50.089762],[14.467103,50.089799],[14.467185,50.089815],[14.467254,50.089821],[14.467363,50.08984],[14.467444,50.089856],[14.467665,50.089812],[14.467881,50.089858],[14.467948,50.089873],[14.468138,50.089908]]]}},{"type":"Feature","properties":{"cislo":3020,"kod":28953,"mestskaCast":"praha-3"},"geometry":{"type":"Polygon","coordinates":[[[14.454129,50.081249],[14.454464,50.080471],[14.454501,50.080365],[14.454607,50.08013],[14.454662,50.080007],[14.454525,50.079986],[14.454363,50.079954],[14.454228,50.079924],[14.454224,50.079942],[14.454178,50.080028],[14.454124,50.080151],[14.453975,50.080119],[14.454022,50.079998],[14.453994,50.079988],[14.454077,50.07974],[14.453872,50.079707],[14.453807,50.079914],[14.45374,50.079899],[14.453671,50.079893],[14.453657,50.079892],[14.453469,50.079848],[14.45332,50.079816],[14.453447,50.079555],[14.453065,50.079494],[14.453032,50.079582],[14.452993,50.079697],[14.452991,50.079706],[14.452908,50.079698],[14.452867,50.079695],[14.452799,50.07968],[14.452582,50.079642],[14.452572,50.079687],[14.451763,50.079579],[14.451546,50.079542],[14.451409,50.079521],[14.451521,50.079258],[14.451785,50.078619],[14.452022,50.077968],[14.452285,50.077329],[14.450277,50.077224],[14.449035,50.07716],[14.44899,50.077156],[14.44899,50.077156],[14.44899,50.077156],[14.448654,50.077925],[14.448502,50.078275],[14.448188,50.078998],[14.448188,50.079],[14.448192,50.079001],[14.448322,50.079048],[14.449985,50.079586],[14.450724,50.079823],[14.450962,50.079899],[14.451827,50.080275],[14.4529,50.080732],[14.454129,50.081249]]]}},{"type":"Feature","properties":{"cislo":3021,"kod":28955,"mestskaCast":"praha-3"},"geometry":{"type":"Polygon","coordinates":[[[14.453447,50.079555],[14.453777,50.078868],[14.454205,50.078179],[14.454645,50.077438],[14.453641,50.077385],[14.452285,50.077329],[14.452022,50.077968],[14.451785,50.078619],[14.451521,50.079258],[14.451409,50.079521],[14.451546,50.079542],[14.451763,50.079579],[14.452572,50.079687],[14.452582,50.079642],[14.452799,50.07968],[14.452867,50.079695],[14.452908,50.079698],[14.452991,50.079706],[14.452993,50.079697],[14.453032,50.079582],[14.453065,50.079494],[14.453447,50.079555]]]}},{"type":"Feature","properties":{"cislo":3022,"kod":28957,"mestskaCast":"praha-3"},"geometry":{"type":"Polygon","coordinates":[[[14.454662,50.080007],[14.454807,50.079657],[14.45489,50.079465],[14.454956,50.079289],[14.454975,50.079264],[14.455066,50.079036],[14.45508,50.079037],[14.455203,50.079057],[14.455217,50.079058],[14.455355,50.07907],[14.455395,50.079083],[14.455533,50.079095],[14.455561,50.079098],[14.455711,50.07912],[14.455725,50.079121],[14.455917,50.079147],[14.455972,50.079152],[14.456081,50.079171],[14.456123,50.079174],[14.456137,50.079176],[14.456245,50.079194],[14.456328,50.079202],[14.456384,50.079207],[14.456417,50.079119],[14.456455,50.079004],[14.456509,50.078882],[14.456529,50.078856],[14.456562,50.078768],[14.456626,50.078602],[14.456651,50.078549],[14.456767,50.078269],[14.456776,50.078225],[14.456803,50.078164],[14.456834,50.078085],[14.456887,50.077971],[14.456978,50.077743],[14.457034,50.077612],[14.456522,50.077567],[14.456148,50.077534],[14.455733,50.077497],[14.455286,50.077476],[14.454645,50.077438],[14.454205,50.078179],[14.453777,50.078868],[14.453447,50.079555],[14.45332,50.079816],[14.453469,50.079848],[14.453657,50.079892],[14.453671,50.079893],[14.45374,50.079899],[14.453807,50.079914],[14.453872,50.079707],[14.454077,50.07974],[14.453994,50.079988],[14.454022,50.079998],[14.453975,50.080119],[14.454124,50.080151],[14.454178,50.080028],[14.454224,50.079942],[14.454228,50.079924],[14.454363,50.079954],[14.454525,50.079986],[14.454662,50.080007]]]}},{"type":"Feature","properties":{"cislo":3023,"kod":28959,"mestskaCast":"praha-3"},"geometry":{"type":"Polygon","coordinates":[[[14.456529,50.078856],[14.456652,50.078876],[14.456883,50.078915],[14.456923,50.078927],[14.457004,50.078744],[14.457295,50.07877],[14.457502,50.078788],[14.457643,50.078791],[14.457807,50.078815],[14.458103,50.078814],[14.458309,50.078841],[14.458762,50.078899],[14.45898,50.078936],[14.459571,50.079007],[14.460109,50.079063],[14.460511,50.079099],[14.460607,50.078781],[14.460178,50.078743],[14.460181,50.078661],[14.460204,50.078554],[14.460212,50.078446],[14.460251,50.078332],[14.460289,50.078217],[14.460336,50.078067],[14.460371,50.078034],[14.460382,50.077917],[14.460394,50.077791],[14.4604,50.077764],[14.460301,50.077764],[14.459756,50.077743],[14.458416,50.07768],[14.45804,50.077656],[14.45769,50.077643],[14.457216,50.077619],[14.457091,50.077608],[14.457034,50.077612],[14.456978,50.077743],[14.456887,50.077971],[14.456834,50.078085],[14.456803,50.078164],[14.456776,50.078225],[14.456767,50.078269],[14.456651,50.078549],[14.456626,50.078602],[14.456562,50.078768],[14.456529,50.078856]]]}},{"type":"Feature","properties":{"cislo":3024,"kod":28961,"mestskaCast":"praha-3"},"geometry":{"type":"Polygon","coordinates":[[[14.454956,50.079289],[14.45497,50.07929],[14.455091,50.079319],[14.455255,50.079343],[14.455431,50.079377],[14.455394,50.079482],[14.45536,50.079579],[14.455536,50.079613],[14.455646,50.079622],[14.45585,50.079659],[14.455829,50.079693],[14.455757,50.079895],[14.456072,50.079941],[14.455952,50.080239],[14.455816,50.080218],[14.455651,50.080195],[14.455638,50.080193],[14.455556,50.080177],[14.455498,50.080317],[14.455471,50.080378],[14.455464,50.080414],[14.455413,50.080518],[14.455386,50.08058],[14.455782,50.080642],[14.455867,50.080441],[14.456003,50.080462],[14.456098,50.080479],[14.456358,50.08052],[14.456362,50.080502],[14.456392,50.080423],[14.456404,50.08037],[14.456452,50.080274],[14.456692,50.079615],[14.457311,50.079688],[14.457461,50.07971],[14.457753,50.079663],[14.457971,50.079701],[14.45843,50.079732],[14.458457,50.079734],[14.458647,50.079769],[14.458922,50.079803],[14.459128,50.07983],[14.459249,50.079859],[14.459256,50.079823],[14.459282,50.079771],[14.459316,50.079674],[14.459353,50.079568],[14.460318,50.079672],[14.460511,50.079099],[14.460109,50.079063],[14.459571,50.079007],[14.45898,50.078936],[14.458762,50.078899],[14.458309,50.078841],[14.458103,50.078814],[14.457807,50.078815],[14.457643,50.078791],[14.457502,50.078788],[14.457295,50.07877],[14.457004,50.078744],[14.456923,50.078927],[14.456883,50.078915],[14.456652,50.078876],[14.456529,50.078856],[14.456509,50.078882],[14.456455,50.079004],[14.456417,50.079119],[14.456384,50.079207],[14.456328,50.079202],[14.456245,50.079194],[14.456137,50.079176],[14.456123,50.079174],[14.456081,50.079171],[14.455972,50.079152],[14.455917,50.079147],[14.455725,50.079121],[14.455711,50.07912],[14.455561,50.079098],[14.455533,50.079095],[14.455395,50.079083],[14.455355,50.07907],[14.455217,50.079058],[14.455203,50.079057],[14.45508,50.079037],[14.455066,50.079036],[14.454975,50.079264],[14.454956,50.079289]]]}},{"type":"Feature","properties":{"cislo":3025,"kod":28963,"mestskaCast":"praha-3"},"geometry":{"type":"Polygon","coordinates":[[[14.470777,50.084269],[14.47174,50.081867],[14.468848,50.081604],[14.463812,50.081278],[14.459874,50.08103],[14.459614,50.080989],[14.459395,50.080961],[14.458861,50.080886],[14.458853,50.080922],[14.458793,50.081071],[14.458766,50.081132],[14.457879,50.08099],[14.457893,50.080928],[14.457943,50.080823],[14.457955,50.08077],[14.457792,50.080738],[14.457614,50.080713],[14.457589,50.080765],[14.457587,50.080774],[14.457552,50.080871],[14.457523,50.080941],[14.457153,50.08089],[14.456718,50.080815],[14.456758,50.080692],[14.456787,50.080622],[14.456815,50.08056],[14.456844,50.08049],[14.456867,50.080447],[14.456635,50.080409],[14.456404,50.08037],[14.456392,50.080423],[14.456362,50.080502],[14.456358,50.08052],[14.456098,50.080479],[14.456003,50.080462],[14.455867,50.080441],[14.455782,50.080642],[14.455386,50.08058],[14.455413,50.080518],[14.455464,50.080414],[14.455471,50.080378],[14.455498,50.080317],[14.455556,50.080177],[14.455638,50.080193],[14.455651,50.080195],[14.455816,50.080218],[14.455952,50.080239],[14.456072,50.079941],[14.455757,50.079895],[14.455829,50.079693],[14.45585,50.079659],[14.455646,50.079622],[14.455536,50.079613],[14.45536,50.079579],[14.455394,50.079482],[14.455431,50.079377],[14.455255,50.079343],[14.455091,50.079319],[14.45497,50.07929],[14.454956,50.079289],[14.45489,50.079465],[14.454807,50.079657],[14.454662,50.080007],[14.454607,50.08013],[14.454501,50.080365],[14.454464,50.080471],[14.454129,50.081249],[14.454143,50.08125],[14.455163,50.081694],[14.455348,50.081683],[14.455573,50.081685],[14.455728,50.08169],[14.455896,50.081695],[14.456768,50.081836],[14.457912,50.082028],[14.458039,50.082093],[14.45818,50.08216],[14.458297,50.082207],[14.458416,50.082245],[14.458523,50.082272],[14.458616,50.082299],[14.458741,50.08231],[14.45878,50.082322],[14.458891,50.082332],[14.458905,50.082333],[14.458986,50.082349],[14.459186,50.082403],[14.459303,50.08245],[14.459591,50.082621],[14.461967,50.082921],[14.46375,50.08316],[14.464185,50.083234],[14.465646,50.083463],[14.46694,50.083677],[14.467253,50.083732],[14.468264,50.083884],[14.470067,50.084161],[14.470696,50.084253],[14.470777,50.084269]]]}},{"type":"Feature","properties":{"cislo":3026,"kod":28965,"mestskaCast":"praha-3"},"geometry":{"type":"Polygon","coordinates":[[[14.47174,50.081867],[14.472425,50.080104],[14.473086,50.078456],[14.47309,50.078438],[14.472724,50.078433],[14.472641,50.078426],[14.472627,50.078424],[14.472068,50.078402],[14.471985,50.078395],[14.471342,50.078366],[14.471273,50.07836],[14.470741,50.07834],[14.470393,50.078318],[14.47035,50.078324],[14.47003,50.078305],[14.468913,50.078251],[14.468911,50.07826],[14.468842,50.078254],[14.467045,50.07815],[14.465192,50.078041],[14.464579,50.078006],[14.463883,50.077962],[14.463106,50.077903],[14.462565,50.077864],[14.461954,50.077819],[14.46138,50.077796],[14.4604,50.077764],[14.460394,50.077791],[14.460382,50.077917],[14.460371,50.078034],[14.460336,50.078067],[14.460289,50.078217],[14.460251,50.078332],[14.460212,50.078446],[14.460204,50.078554],[14.460181,50.078661],[14.460178,50.078743],[14.460607,50.078781],[14.460511,50.079099],[14.460318,50.079672],[14.459353,50.079568],[14.459316,50.079674],[14.459282,50.079771],[14.459256,50.079823],[14.459249,50.079859],[14.459128,50.07983],[14.458922,50.079803],[14.458647,50.079769],[14.458457,50.079734],[14.45843,50.079732],[14.457971,50.079701],[14.457753,50.079663],[14.457461,50.07971],[14.457311,50.079688],[14.456692,50.079615],[14.456452,50.080274],[14.456404,50.08037],[14.456635,50.080409],[14.456867,50.080447],[14.456844,50.08049],[14.456815,50.08056],[14.456787,50.080622],[14.456758,50.080692],[14.456718,50.080815],[14.457153,50.08089],[14.457523,50.080941],[14.457552,50.080871],[14.457587,50.080774],[14.457589,50.080765],[14.457614,50.080713],[14.457792,50.080738],[14.457955,50.08077],[14.457943,50.080823],[14.457893,50.080928],[14.457879,50.08099],[14.458766,50.081132],[14.458793,50.081071],[14.458853,50.080922],[14.458861,50.080886],[14.459395,50.080961],[14.459614,50.080989],[14.459874,50.08103],[14.463812,50.081278],[14.468848,50.081604],[14.47174,50.081867]]]}},{"type":"Feature","properties":{"cislo":3027,"kod":28967,"mestskaCast":"praha-3"},"geometry":{"type":"Polygon","coordinates":[[[14.44899,50.077156],[14.44899,50.077156],[14.449035,50.07716],[14.450277,50.077224],[14.452285,50.077329],[14.452592,50.076285],[14.452824,50.075398],[14.452825,50.075391],[14.452825,50.075391],[14.452797,50.075391],[14.450412,50.075381],[14.449064,50.075357],[14.448998,50.077139],[14.44899,50.077156]]]}},{"type":"Feature","properties":{"cislo":3028,"kod":28969,"mestskaCast":"praha-3"},"geometry":{"type":"Polygon","coordinates":[[[14.452285,50.077329],[14.453641,50.077385],[14.454645,50.077438],[14.455286,50.077476],[14.455291,50.077386],[14.455309,50.077233],[14.455332,50.077126],[14.455401,50.077132],[14.45544,50.077018],[14.455623,50.076689],[14.455639,50.076545],[14.455715,50.076389],[14.455728,50.076263],[14.455956,50.07572],[14.456093,50.075741],[14.456283,50.075776],[14.456433,50.075799],[14.456592,50.07545],[14.456592,50.075445],[14.455778,50.075437],[14.454519,50.075427],[14.454272,50.075419],[14.454154,50.075415],[14.452825,50.075391],[14.452825,50.075391],[14.452824,50.075398],[14.452592,50.076285],[14.452285,50.077329]]]}},{"type":"Feature","properties":{"cislo":3029,"kod":28971,"mestskaCast":"praha-3"},"geometry":{"type":"Polygon","coordinates":[[[14.455286,50.077476],[14.455733,50.077497],[14.456148,50.077534],[14.456522,50.077567],[14.457034,50.077612],[14.457061,50.077551],[14.457257,50.077096],[14.457365,50.077115],[14.457597,50.077154],[14.457823,50.07682],[14.45784,50.076676],[14.457855,50.076605],[14.458219,50.076619],[14.458264,50.076341],[14.457605,50.076256],[14.457928,50.075468],[14.457928,50.075468],[14.457757,50.07546],[14.456663,50.075446],[14.456592,50.075445],[14.456592,50.07545],[14.456433,50.075799],[14.456283,50.075776],[14.456093,50.075741],[14.455956,50.07572],[14.455728,50.076263],[14.455715,50.076389],[14.455639,50.076545],[14.455623,50.076689],[14.45544,50.077018],[14.455401,50.077132],[14.455332,50.077126],[14.455309,50.077233],[14.455291,50.077386],[14.455286,50.077476]]]}},{"type":"Feature","properties":{"cislo":3030,"kod":28973,"mestskaCast":"praha-3"},"geometry":{"type":"Polygon","coordinates":[[[14.458416,50.07768],[14.458458,50.077611],[14.458563,50.077321],[14.458685,50.07734],[14.458861,50.077374],[14.458984,50.077394],[14.459134,50.077353],[14.459229,50.07737],[14.459379,50.077393],[14.459407,50.077395],[14.459569,50.077428],[14.459733,50.077451],[14.460002,50.076722],[14.460482,50.075588],[14.458038,50.075473],[14.457928,50.075468],[14.457928,50.075468],[14.457605,50.076256],[14.458264,50.076341],[14.458219,50.076619],[14.457855,50.076605],[14.45784,50.076676],[14.457823,50.07682],[14.457597,50.077154],[14.457365,50.077115],[14.457257,50.077096],[14.457061,50.077551],[14.457034,50.077612],[14.457091,50.077608],[14.457216,50.077619],[14.45769,50.077643],[14.45804,50.077656],[14.458416,50.07768]]]}},{"type":"Feature","properties":{"cislo":3031,"kod":28975,"mestskaCast":"praha-3"},"geometry":{"type":"Polygon","coordinates":[[[14.460482,50.075588],[14.460002,50.076722],[14.459733,50.077451],[14.459569,50.077428],[14.459407,50.077395],[14.459379,50.077393],[14.459229,50.07737],[14.459134,50.077353],[14.458984,50.077394],[14.458861,50.077374],[14.458685,50.07734],[14.458563,50.077321],[14.458458,50.077611],[14.458416,50.07768],[14.459756,50.077743],[14.460301,50.077764],[14.4604,50.077764],[14.46138,50.077796],[14.461954,50.077819],[14.462565,50.077864],[14.463106,50.077903],[14.463883,50.077962],[14.463898,50.077827],[14.463907,50.077719],[14.464009,50.077238],[14.46394,50.077232],[14.463719,50.077213],[14.463594,50.077202],[14.463635,50.076942],[14.463915,50.07576],[14.463916,50.075754],[14.463916,50.075754],[14.461699,50.075646],[14.460482,50.075588]]]}},{"type":"Feature","properties":{"cislo":3032,"kod":28977,"mestskaCast":"praha-3"},"geometry":{"type":"Polygon","coordinates":[[[14.463883,50.077962],[14.464579,50.078006],[14.465192,50.078041],[14.465211,50.077889],[14.465229,50.077736],[14.465282,50.077287],[14.465284,50.077215],[14.465303,50.077126],[14.465392,50.07697],[14.465409,50.076826],[14.465532,50.076048],[14.465557,50.075932],[14.465564,50.075832],[14.465564,50.075832],[14.465564,50.075832],[14.465182,50.07581],[14.463969,50.075757],[14.463916,50.075754],[14.463916,50.075754],[14.463915,50.07576],[14.463635,50.076942],[14.463594,50.077202],[14.463719,50.077213],[14.46394,50.077232],[14.464009,50.077238],[14.463907,50.077719],[14.463898,50.077827],[14.463883,50.077962]]]}},{"type":"Feature","properties":{"cislo":3033,"kod":28979,"mestskaCast":"praha-3"},"geometry":{"type":"Polygon","coordinates":[[[14.465192,50.078041],[14.467045,50.07815],[14.468842,50.078254],[14.468911,50.07826],[14.468913,50.078251],[14.468935,50.078081],[14.46896,50.077829],[14.468864,50.077821],[14.468557,50.077803],[14.468168,50.077777],[14.468188,50.077616],[14.468199,50.077562],[14.468214,50.077428],[14.468259,50.077214],[14.468276,50.07707],[14.468414,50.07622],[14.468806,50.076236],[14.468875,50.076243],[14.469175,50.076018],[14.466327,50.075875],[14.465564,50.075832],[14.465564,50.075832],[14.465564,50.075832],[14.465557,50.075932],[14.465532,50.076048],[14.465409,50.076826],[14.465392,50.07697],[14.465303,50.077126],[14.465284,50.077215],[14.465282,50.077287],[14.465229,50.077736],[14.465211,50.077889],[14.465192,50.078041]]]}},{"type":"Feature","properties":{"cislo":3034,"kod":28981,"mestskaCast":"praha-3"},"geometry":{"type":"Polygon","coordinates":[[[14.468913,50.078251],[14.47003,50.078305],[14.47035,50.078324],[14.470393,50.078318],[14.470741,50.07834],[14.471273,50.07836],[14.471342,50.078366],[14.471985,50.078395],[14.472068,50.078402],[14.472627,50.078424],[14.472641,50.078426],[14.472724,50.078433],[14.47309,50.078438],[14.473148,50.078098],[14.473181,50.077874],[14.473168,50.077737],[14.47313,50.077652],[14.473036,50.077562],[14.471569,50.07697],[14.471478,50.076935],[14.471426,50.076912],[14.471075,50.076772],[14.471061,50.076771],[14.469774,50.076258],[14.469175,50.076018],[14.469175,50.076018],[14.468875,50.076243],[14.468806,50.076236],[14.468414,50.07622],[14.468276,50.07707],[14.468259,50.077214],[14.468214,50.077428],[14.468199,50.077562],[14.468188,50.077616],[14.468168,50.077777],[14.468557,50.077803],[14.468864,50.077821],[14.46896,50.077829],[14.468935,50.078081],[14.468913,50.078251]]]}},{"type":"Feature","properties":{"cislo":3035,"kod":28983,"mestskaCast":"praha-3"},"geometry":{"type":"Polygon","coordinates":[[[14.47309,50.078438],[14.473159,50.078444],[14.47439,50.078289],[14.475634,50.078145],[14.47575,50.078128],[14.476455,50.078058],[14.476455,50.078058],[14.476455,50.078058],[14.477419,50.077964],[14.477761,50.077933],[14.478603,50.077856],[14.478729,50.077845],[14.47873,50.077845],[14.47835,50.076272],[14.476903,50.076407],[14.47552,50.07634],[14.473381,50.076231],[14.472106,50.076168],[14.470069,50.076062],[14.470053,50.076062],[14.469175,50.076018],[14.469175,50.076018],[14.469774,50.076258],[14.471061,50.076771],[14.471075,50.076772],[14.471426,50.076912],[14.471478,50.076935],[14.471569,50.07697],[14.473036,50.077562],[14.47313,50.077652],[14.473168,50.077737],[14.473181,50.077874],[14.473148,50.078098],[14.47309,50.078438]]]}},{"type":"Feature","properties":{"cislo":3036,"kod":28985,"mestskaCast":"praha-3"},"geometry":{"type":"Polygon","coordinates":[[[14.473922,50.089574],[14.473945,50.08953],[14.473973,50.089533],[14.474029,50.089402],[14.474058,50.089332],[14.47365,50.089259],[14.473759,50.089015],[14.473766,50.088979],[14.474257,50.089059],[14.47429,50.088971],[14.474396,50.088672],[14.474789,50.088416],[14.474608,50.088336],[14.474345,50.08825],[14.473967,50.088171],[14.473956,50.088088],[14.473943,50.088015],[14.473917,50.08794],[14.473887,50.087883],[14.473869,50.087836],[14.473862,50.087799],[14.473876,50.087737],[14.473893,50.087656],[14.473953,50.087507],[14.473981,50.087374],[14.474076,50.087391],[14.474187,50.087401],[14.474284,50.087409],[14.474365,50.087426],[14.474432,50.087441],[14.474513,50.087457],[14.474579,50.087481],[14.474644,50.087505],[14.474696,50.087527],[14.474746,50.087559],[14.474767,50.087525],[14.474787,50.087499],[14.474822,50.087466],[14.474867,50.087452],[14.474914,50.087429],[14.475005,50.0874],[14.475113,50.087355],[14.476405,50.087714],[14.477166,50.087917],[14.479056,50.088447],[14.479772,50.088664],[14.480256,50.087581],[14.480365,50.0874],[14.480714,50.087349],[14.481715,50.08722],[14.482301,50.085592],[14.482339,50.085478],[14.482356,50.085398],[14.482334,50.085305],[14.482305,50.085239],[14.482269,50.085209],[14.482215,50.085131],[14.482022,50.084978],[14.481875,50.084874],[14.481812,50.084842],[14.481763,50.084674],[14.48179,50.084477],[14.481832,50.084281],[14.481905,50.084006],[14.481981,50.083713],[14.481988,50.083677],[14.482084,50.083425],[14.482078,50.083424],[14.482208,50.083098],[14.482273,50.083014],[14.482628,50.08225],[14.480455,50.081852],[14.480493,50.081796],[14.480588,50.081713],[14.480594,50.081709],[14.48074,50.081581],[14.480757,50.081566],[14.480847,50.081487],[14.481003,50.081439],[14.481173,50.081386],[14.481653,50.081237],[14.482113,50.081002],[14.482432,50.080616],[14.482527,50.080502],[14.482559,50.080463],[14.481823,50.080405],[14.479467,50.079948],[14.477568,50.079622],[14.477105,50.079542],[14.476307,50.079391],[14.476415,50.078062],[14.476455,50.078058],[14.476455,50.078058],[14.476455,50.078058],[14.47575,50.078128],[14.475634,50.078145],[14.47439,50.078289],[14.473159,50.078444],[14.47309,50.078438],[14.473086,50.078456],[14.472425,50.080104],[14.47174,50.081867],[14.470777,50.084269],[14.470746,50.084348],[14.470164,50.085758],[14.469785,50.086677],[14.469595,50.087042],[14.469172,50.087903],[14.469728,50.088006],[14.470014,50.087986],[14.471721,50.088318],[14.472467,50.088456],[14.472482,50.088585],[14.472447,50.088818],[14.472387,50.08903],[14.472208,50.089078],[14.471974,50.089184],[14.471943,50.089263],[14.471834,50.089245],[14.471699,50.089414],[14.471671,50.089611],[14.47164,50.08969],[14.471582,50.089831],[14.471536,50.089917],[14.471957,50.089991],[14.472089,50.089703],[14.472226,50.089724],[14.472402,50.089757],[14.472457,50.089762],[14.472542,50.089561],[14.472587,50.089483],[14.472627,50.08936],[14.473271,50.089453],[14.4735,50.0895],[14.473732,50.089539],[14.473922,50.089574]]]}},{"type":"Feature","properties":{"cislo":3037,"kod":28987,"mestskaCast":"praha-3"},"geometry":{"type":"Polygon","coordinates":[[[14.471536,50.089917],[14.471582,50.089831],[14.47164,50.08969],[14.471671,50.089611],[14.471699,50.089414],[14.471834,50.089245],[14.471943,50.089263],[14.471974,50.089184],[14.472208,50.089078],[14.472387,50.08903],[14.472447,50.088818],[14.472482,50.088585],[14.472467,50.088456],[14.471721,50.088318],[14.470014,50.087986],[14.469728,50.088006],[14.469172,50.087903],[14.468808,50.088615],[14.468434,50.089381],[14.468138,50.089908],[14.468086,50.090022],[14.468697,50.09013],[14.468969,50.090181],[14.4692,50.09022],[14.470337,50.090447],[14.470482,50.090097],[14.470509,50.090035],[14.470532,50.089992],[14.470641,50.090011],[14.470655,50.090012],[14.470845,50.090047],[14.470968,50.090067],[14.471074,50.089831],[14.471536,50.089917]]]}},{"type":"Feature","properties":{"cislo":3038,"kod":28989,"mestskaCast":"praha-3"},"geometry":{"type":"Polygon","coordinates":[[[14.475188,50.09607],[14.475246,50.096093],[14.475247,50.096094],[14.475261,50.096103],[14.475282,50.096119],[14.47531,50.096139],[14.475352,50.09617],[14.475377,50.096189],[14.47539,50.096198],[14.475404,50.096208],[14.475405,50.096209],[14.475479,50.096263],[14.475495,50.096275],[14.475549,50.096314],[14.475585,50.096209],[14.475659,50.095997],[14.4757,50.095802],[14.475708,50.095766],[14.475724,50.095622],[14.475761,50.095516],[14.475769,50.095481],[14.475808,50.09543],[14.475859,50.095389],[14.475976,50.095299],[14.476347,50.095015],[14.476628,50.094758],[14.476815,50.094538],[14.477028,50.094203],[14.47674,50.093833],[14.476925,50.093296],[14.476843,50.09328],[14.476366,50.093201],[14.476285,50.093185],[14.476176,50.093103],[14.476039,50.093018],[14.476152,50.092683],[14.47622,50.092499],[14.476398,50.092523],[14.476411,50.092461],[14.476397,50.09246],[14.476413,50.092452],[14.47642,50.092416],[14.476422,50.092408],[14.476472,50.09224],[14.475653,50.092113],[14.475285,50.092053],[14.475215,50.092047],[14.475144,50.09205],[14.475008,50.092029],[14.475056,50.091933],[14.475087,50.091854],[14.475083,50.091809],[14.475086,50.091727],[14.475082,50.091681],[14.475041,50.091542],[14.474593,50.091457],[14.47462,50.091396],[14.474653,50.091308],[14.474655,50.091299],[14.474641,50.091298],[14.474665,50.091255],[14.474421,50.091206],[14.474419,50.091215],[14.474378,50.091211],[14.474148,50.091164],[14.47409,50.091304],[14.474063,50.091365],[14.473532,50.091273],[14.473641,50.091028],[14.473532,50.09101],[14.473328,50.090973],[14.473273,50.090969],[14.472879,50.090898],[14.472675,50.090861],[14.472454,50.090769],[14.472239,50.090723],[14.472128,50.090713],[14.471829,50.09066],[14.471815,50.090659],[14.471796,50.090684],[14.47174,50.090679],[14.471223,50.090588],[14.471198,50.090641],[14.471142,50.090772],[14.471113,50.090842],[14.470664,50.090766],[14.47023,50.090682],[14.470259,50.090612],[14.47031,50.090508],[14.470337,50.090447],[14.4692,50.09022],[14.468969,50.090181],[14.468697,50.09013],[14.468086,50.090022],[14.467852,50.090591],[14.468212,50.091285],[14.468626,50.091857],[14.468968,50.092305],[14.469378,50.092568],[14.469113,50.093021],[14.469155,50.093023],[14.469722,50.093116],[14.47104,50.093591],[14.472144,50.094115],[14.473158,50.094739],[14.475129,50.096047],[14.475188,50.09607]]]}},{"type":"Feature","properties":{"cislo":3039,"kod":28991,"mestskaCast":"praha-3"},"geometry":{"type":"Polygon","coordinates":[[[14.473273,50.090969],[14.473464,50.090532],[14.473486,50.090497],[14.473491,50.090471],[14.473544,50.090357],[14.473691,50.090198],[14.473747,50.090067],[14.473719,50.090064],[14.473802,50.089872],[14.473862,50.089723],[14.473922,50.089574],[14.473732,50.089539],[14.4735,50.0895],[14.473271,50.089453],[14.472627,50.08936],[14.472587,50.089483],[14.472542,50.089561],[14.472457,50.089762],[14.472402,50.089757],[14.472226,50.089724],[14.472089,50.089703],[14.471957,50.089991],[14.471536,50.089917],[14.471074,50.089831],[14.470968,50.090067],[14.470845,50.090047],[14.470655,50.090012],[14.470641,50.090011],[14.470532,50.089992],[14.470509,50.090035],[14.470482,50.090097],[14.470337,50.090447],[14.47031,50.090508],[14.470259,50.090612],[14.47023,50.090682],[14.470664,50.090766],[14.471113,50.090842],[14.471142,50.090772],[14.471198,50.090641],[14.471223,50.090588],[14.47174,50.090679],[14.471796,50.090684],[14.471815,50.090659],[14.471829,50.09066],[14.472128,50.090713],[14.472239,50.090723],[14.472454,50.090769],[14.472675,50.090861],[14.472879,50.090898],[14.473273,50.090969]]]}},{"type":"Feature","properties":{"cislo":3040,"kod":28993,"mestskaCast":"praha-3"},"geometry":{"type":"Polygon","coordinates":[[[14.475125,50.091277],[14.47537,50.090591],[14.475729,50.089633],[14.476028,50.089687],[14.476059,50.089608],[14.476082,50.089564],[14.476115,50.089476],[14.476177,50.089319],[14.476233,50.089187],[14.47604,50.089098],[14.47585,50.088999],[14.475594,50.088877],[14.475764,50.088738],[14.475849,50.088673],[14.475605,50.088624],[14.475255,50.088548],[14.474936,50.088456],[14.474789,50.088416],[14.474396,50.088672],[14.47429,50.088971],[14.474257,50.089059],[14.473766,50.088979],[14.473759,50.089015],[14.47365,50.089259],[14.474058,50.089332],[14.474029,50.089402],[14.473973,50.089533],[14.473945,50.08953],[14.473922,50.089574],[14.473862,50.089723],[14.473802,50.089872],[14.473719,50.090064],[14.473747,50.090067],[14.473691,50.090198],[14.473544,50.090357],[14.473491,50.090471],[14.473486,50.090497],[14.473464,50.090532],[14.473273,50.090969],[14.473328,50.090973],[14.473532,50.09101],[14.473641,50.091028],[14.473532,50.091273],[14.474063,50.091365],[14.47409,50.091304],[14.474148,50.091164],[14.474378,50.091211],[14.474419,50.091215],[14.474421,50.091206],[14.474665,50.091255],[14.474641,50.091298],[14.474655,50.091299],[14.474653,50.091308],[14.47462,50.091396],[14.474593,50.091457],[14.475041,50.091542],[14.475125,50.091277]]]}},{"type":"Feature","properties":{"cislo":3041,"kod":28995,"mestskaCast":"praha-3"},"geometry":{"type":"Polygon","coordinates":[[[14.479859,50.091703],[14.480017,50.091227],[14.481537,50.091442],[14.481789,50.09072],[14.48288,50.090898],[14.483058,50.090922],[14.483431,50.090429],[14.483586,50.090161],[14.483778,50.090124],[14.48386,50.090067],[14.48168,50.08944],[14.479772,50.088664],[14.479056,50.088447],[14.477166,50.087917],[14.476405,50.087714],[14.475113,50.087355],[14.475005,50.0874],[14.474914,50.087429],[14.474867,50.087452],[14.474822,50.087466],[14.474787,50.087499],[14.474767,50.087525],[14.474746,50.087559],[14.474696,50.087527],[14.474644,50.087505],[14.474579,50.087481],[14.474513,50.087457],[14.474432,50.087441],[14.474365,50.087426],[14.474284,50.087409],[14.474187,50.087401],[14.474076,50.087391],[14.473981,50.087374],[14.473953,50.087507],[14.473893,50.087656],[14.473876,50.087737],[14.473862,50.087799],[14.473869,50.087836],[14.473887,50.087883],[14.473917,50.08794],[14.473943,50.088015],[14.473956,50.088088],[14.473967,50.088171],[14.474345,50.08825],[14.474608,50.088336],[14.474789,50.088416],[14.474936,50.088456],[14.475255,50.088548],[14.475605,50.088624],[14.475849,50.088673],[14.475764,50.088738],[14.475594,50.088877],[14.47585,50.088999],[14.47604,50.089098],[14.476233,50.089187],[14.476177,50.089319],[14.476115,50.089476],[14.476082,50.089564],[14.476059,50.089608],[14.476028,50.089687],[14.475729,50.089633],[14.47537,50.090591],[14.475125,50.091277],[14.475638,50.091322],[14.475875,50.091334],[14.476173,50.091324],[14.476559,50.091367],[14.476725,50.091382],[14.476639,50.091719],[14.477067,50.091766],[14.4771,50.091678],[14.477126,50.091553],[14.477137,50.091499],[14.478253,50.091625],[14.478173,50.091872],[14.478835,50.091939],[14.478862,50.091815],[14.478912,50.091647],[14.478921,50.091602],[14.479568,50.091677],[14.479707,50.091689],[14.479859,50.091703]]]}},{"type":"Feature","properties":{"cislo":3042,"kod":28997,"mestskaCast":"praha-3"},"geometry":{"type":"Polygon","coordinates":[[[14.475549,50.096314],[14.475647,50.096386],[14.475934,50.096582],[14.476221,50.096429],[14.476885,50.096856],[14.477426,50.097199],[14.477473,50.097164],[14.477525,50.097195],[14.478141,50.097565],[14.478485,50.097706],[14.478655,50.097375],[14.47875,50.097201],[14.478791,50.097126],[14.478791,50.097126],[14.478834,50.097049],[14.478861,50.09701],[14.479012,50.096788],[14.479159,50.096571],[14.479161,50.096572],[14.479161,50.096572],[14.479163,50.096569],[14.479388,50.096308],[14.479468,50.096197],[14.479781,50.095716],[14.479955,50.095495],[14.48001,50.095437],[14.480392,50.095035],[14.480482,50.094943],[14.480527,50.094929],[14.480592,50.094889],[14.480716,50.094836],[14.480811,50.09479],[14.479941,50.094432],[14.480287,50.093937],[14.480332,50.093859],[14.480441,50.093678],[14.480458,50.093661],[14.480475,50.093581],[14.480485,50.093536],[14.48049,50.09351],[14.480557,50.093461],[14.480646,50.093242],[14.480866,50.093271],[14.480949,50.093278],[14.481041,50.092977],[14.480572,50.092927],[14.480585,50.092865],[14.480662,50.092572],[14.4808,50.092584],[14.480832,50.092569],[14.481063,50.092607],[14.481174,50.092617],[14.481282,50.092309],[14.48132,50.092194],[14.481424,50.09184],[14.481285,50.091828],[14.481024,50.091796],[14.48083,50.091779],[14.480664,50.091765],[14.479859,50.091703],[14.479707,50.091689],[14.479568,50.091677],[14.478921,50.091602],[14.478912,50.091647],[14.478862,50.091815],[14.478835,50.091939],[14.478173,50.091872],[14.478253,50.091625],[14.477137,50.091499],[14.477126,50.091553],[14.4771,50.091678],[14.477067,50.091766],[14.476639,50.091719],[14.476725,50.091382],[14.476559,50.091367],[14.476173,50.091324],[14.475875,50.091334],[14.475638,50.091322],[14.475125,50.091277],[14.475041,50.091542],[14.475082,50.091681],[14.475086,50.091727],[14.475083,50.091809],[14.475087,50.091854],[14.475056,50.091933],[14.475008,50.092029],[14.475144,50.09205],[14.475215,50.092047],[14.475285,50.092053],[14.475653,50.092113],[14.476472,50.09224],[14.476422,50.092408],[14.47642,50.092416],[14.476413,50.092452],[14.476397,50.09246],[14.476411,50.092461],[14.476398,50.092523],[14.47622,50.092499],[14.476152,50.092683],[14.476039,50.093018],[14.476176,50.093103],[14.476285,50.093185],[14.476366,50.093201],[14.476843,50.09328],[14.476925,50.093296],[14.47674,50.093833],[14.477028,50.094203],[14.476815,50.094538],[14.476628,50.094758],[14.476347,50.095015],[14.475976,50.095299],[14.475859,50.095389],[14.475808,50.09543],[14.475769,50.095481],[14.475761,50.095516],[14.475724,50.095622],[14.475708,50.095766],[14.4757,50.095802],[14.475659,50.095997],[14.475585,50.096209],[14.475549,50.096314]]]}},{"type":"Feature","properties":{"cislo":3043,"kod":28999,"mestskaCast":"praha-3"},"geometry":{"type":"Polygon","coordinates":[[[14.486176,50.092513],[14.486184,50.092405],[14.486198,50.092206],[14.486252,50.091757],[14.486255,50.091739],[14.485722,50.091729],[14.485368,50.091734],[14.484259,50.091709],[14.483145,50.091638],[14.482906,50.091635],[14.482907,50.091699],[14.482883,50.091942],[14.482715,50.091936],[14.482519,50.091928],[14.48245,50.091922],[14.482256,50.091905],[14.482213,50.09191],[14.482074,50.091898],[14.481978,50.091889],[14.481825,50.091876],[14.481784,50.091872],[14.481763,50.09197],[14.481717,50.09212],[14.481692,50.092236],[14.48132,50.092194],[14.481282,50.092309],[14.481174,50.092617],[14.481063,50.092607],[14.480832,50.092569],[14.4808,50.092584],[14.480662,50.092572],[14.480585,50.092865],[14.480572,50.092927],[14.481041,50.092977],[14.480949,50.093278],[14.480866,50.093271],[14.480646,50.093242],[14.480557,50.093461],[14.48049,50.09351],[14.480485,50.093536],[14.480475,50.093581],[14.480458,50.093661],[14.480441,50.093678],[14.480332,50.093859],[14.480287,50.093937],[14.479941,50.094432],[14.480811,50.09479],[14.480716,50.094836],[14.480592,50.094889],[14.480527,50.094929],[14.480482,50.094943],[14.480392,50.095035],[14.48001,50.095437],[14.479955,50.095495],[14.479781,50.095716],[14.479468,50.096197],[14.479388,50.096308],[14.479163,50.096569],[14.479161,50.096572],[14.479161,50.096572],[14.479643,50.096698],[14.479612,50.096776],[14.480264,50.09688],[14.48027,50.096863],[14.481018,50.097059],[14.482065,50.097333],[14.482071,50.097336],[14.482099,50.097346],[14.4821,50.097345],[14.482121,50.097317],[14.482228,50.097152],[14.48542,50.097699],[14.485426,50.0977],[14.485996,50.096744],[14.48654,50.095775],[14.486901,50.095871],[14.487567,50.096056],[14.488542,50.096314],[14.488702,50.096356],[14.489261,50.095452],[14.489294,50.095028],[14.489757,50.095042],[14.489766,50.094934],[14.489775,50.094826],[14.48977,50.09478],[14.489125,50.094433],[14.48834,50.09401],[14.487825,50.09371],[14.48712,50.093313],[14.486562,50.093018],[14.486153,50.093019],[14.486109,50.09296],[14.485999,50.092878],[14.485951,50.092838],[14.485983,50.092822],[14.486138,50.092754],[14.486176,50.092513]]]}},{"type":"Feature","properties":{"cislo":3044,"kod":29001,"mestskaCast":"praha-3"},"geometry":{"type":"Polygon","coordinates":[[[14.48132,50.092194],[14.481692,50.092236],[14.481717,50.09212],[14.481763,50.09197],[14.481784,50.091872],[14.481825,50.091876],[14.481978,50.091889],[14.482074,50.091898],[14.482213,50.09191],[14.482256,50.091905],[14.48245,50.091922],[14.482519,50.091928],[14.482715,50.091936],[14.482883,50.091942],[14.482907,50.091699],[14.482906,50.091635],[14.483145,50.091638],[14.484259,50.091709],[14.485368,50.091734],[14.485722,50.091729],[14.486255,50.091739],[14.486252,50.091757],[14.486198,50.092206],[14.486184,50.092405],[14.486176,50.092513],[14.486794,50.092522],[14.488237,50.092503],[14.4893,50.092479],[14.490049,50.092409],[14.49003,50.092362],[14.49,50.092241],[14.489947,50.092091],[14.489922,50.092007],[14.489752,50.091747],[14.489489,50.091788],[14.48946,50.091794],[14.489129,50.091357],[14.489125,50.091111],[14.489111,50.09111],[14.488898,50.091119],[14.48877,50.091125],[14.488319,50.091122],[14.487969,50.09111],[14.487803,50.091095],[14.487443,50.091063],[14.487002,50.091015],[14.486744,50.090965],[14.486609,50.090935],[14.486421,50.090892],[14.486154,50.090823],[14.485809,50.09072],[14.485621,50.090676],[14.485343,50.090588],[14.485109,50.090495],[14.484782,50.090375],[14.48456,50.090292],[14.484401,50.090242],[14.48386,50.090067],[14.483778,50.090124],[14.483586,50.090161],[14.483431,50.090429],[14.483058,50.090922],[14.48288,50.090898],[14.481789,50.09072],[14.481537,50.091442],[14.480017,50.091227],[14.479859,50.091703],[14.480664,50.091765],[14.48083,50.091779],[14.481024,50.091796],[14.481285,50.091828],[14.481424,50.09184],[14.48132,50.092194]]]}},{"type":"Feature","properties":{"cislo":3045,"kod":29003,"mestskaCast":"praha-3"},"geometry":{"type":"Polygon","coordinates":[[[14.48386,50.090067],[14.484401,50.090242],[14.48456,50.090292],[14.484782,50.090375],[14.485109,50.090495],[14.485343,50.090588],[14.485621,50.090676],[14.485809,50.09072],[14.486154,50.090823],[14.486421,50.090892],[14.486609,50.090935],[14.486744,50.090965],[14.487002,50.091015],[14.487443,50.091063],[14.487803,50.091095],[14.487969,50.09111],[14.488319,50.091122],[14.48877,50.091125],[14.488898,50.091119],[14.488884,50.091054],[14.48888,50.090936],[14.488882,50.090863],[14.488879,50.090745],[14.488879,50.090545],[14.488898,50.09032],[14.488929,50.090178],[14.489019,50.089886],[14.488787,50.089847],[14.488969,50.089455],[14.489214,50.088832],[14.488826,50.088671],[14.488946,50.088437],[14.489029,50.088244],[14.488083,50.088052],[14.488189,50.087817],[14.488261,50.087678],[14.488443,50.087285],[14.488257,50.087233],[14.487524,50.087032],[14.487589,50.086856],[14.485522,50.08691],[14.485168,50.088105],[14.484852,50.08873],[14.484762,50.088806],[14.484524,50.089276],[14.484352,50.089579],[14.48386,50.090067]]]}},{"type":"Feature","properties":{"cislo":3046,"kod":29005,"mestskaCast":"praha-3"},"geometry":{"type":"Polygon","coordinates":[[[14.489947,50.092091],[14.491031,50.091969],[14.49037,50.091293],[14.4902,50.091033],[14.490175,50.090886],[14.490158,50.090767],[14.490169,50.090513],[14.490208,50.090263],[14.490252,50.090122],[14.490512,50.090026],[14.491547,50.089736],[14.492044,50.089589],[14.492269,50.089527],[14.492292,50.089484],[14.492291,50.089421],[14.492265,50.089346],[14.492244,50.08918],[14.492274,50.089101],[14.492686,50.088294],[14.493438,50.088469],[14.493342,50.087725],[14.493344,50.087718],[14.492531,50.087536],[14.492383,50.087517],[14.492144,50.087457],[14.491667,50.087341],[14.491661,50.087341],[14.491341,50.087386],[14.491268,50.087398],[14.49114,50.087405],[14.490974,50.08739],[14.490792,50.087383],[14.490598,50.087366],[14.490461,50.087345],[14.490245,50.087299],[14.489978,50.08723],[14.489566,50.087112],[14.489271,50.087041],[14.489069,50.086996],[14.488714,50.086937],[14.488453,50.086905],[14.488162,50.08688],[14.487939,50.086869],[14.487757,50.086862],[14.487589,50.086856],[14.487524,50.087032],[14.488257,50.087233],[14.488443,50.087285],[14.488261,50.087678],[14.488189,50.087817],[14.488083,50.088052],[14.489029,50.088244],[14.488946,50.088437],[14.488826,50.088671],[14.489214,50.088832],[14.488969,50.089455],[14.488787,50.089847],[14.489019,50.089886],[14.488929,50.090178],[14.488898,50.09032],[14.488879,50.090545],[14.488879,50.090745],[14.488882,50.090863],[14.48888,50.090936],[14.488884,50.091054],[14.488898,50.091119],[14.489111,50.09111],[14.489125,50.091111],[14.489129,50.091357],[14.48946,50.091794],[14.489489,50.091788],[14.489752,50.091747],[14.489922,50.092007],[14.489947,50.092091]]]}},{"type":"Feature","properties":{"cislo":3047,"kod":29007,"mestskaCast":"praha-3"},"geometry":{"type":"Polygon","coordinates":[[[14.498287,50.091776],[14.498289,50.091774],[14.498383,50.091741],[14.500231,50.091097],[14.500982,50.090879],[14.502326,50.090635],[14.502169,50.090584],[14.501946,50.090513],[14.50194,50.090511],[14.501422,50.090345],[14.501444,50.090323],[14.501491,50.090224],[14.501529,50.090145],[14.501628,50.090041],[14.501636,50.090033],[14.501635,50.090005],[14.50203,50.089903],[14.502201,50.089861],[14.502201,50.089861],[14.502358,50.089823],[14.502456,50.089799],[14.502554,50.089786],[14.503319,50.089689],[14.503314,50.089661],[14.503276,50.089596],[14.502984,50.089587],[14.502764,50.089565],[14.502424,50.089532],[14.502373,50.089525],[14.501929,50.08946],[14.501456,50.089367],[14.500927,50.089253],[14.500635,50.08919],[14.49998,50.089049],[14.499457,50.088958],[14.498977,50.088855],[14.498366,50.088686],[14.498221,50.088647],[14.497434,50.088502],[14.497282,50.088526],[14.496959,50.088463],[14.496422,50.088359],[14.495362,50.088111],[14.494585,50.087958],[14.493608,50.087778],[14.493344,50.087718],[14.493342,50.087725],[14.493438,50.088469],[14.493467,50.088934],[14.493735,50.08893],[14.493793,50.088926],[14.49382,50.088929],[14.493854,50.089304],[14.493844,50.089348],[14.493825,50.089374],[14.493819,50.089401],[14.493829,50.08942],[14.494003,50.089462],[14.49412,50.089509],[14.494198,50.089543],[14.494261,50.089512],[14.494322,50.08949],[14.494409,50.08948],[14.494478,50.089486],[14.496973,50.090023],[14.497067,50.090113],[14.497063,50.09013],[14.497239,50.090164],[14.497901,50.090304],[14.498226,50.090369],[14.49826,50.090471],[14.498303,50.090602],[14.498316,50.090676],[14.498308,50.090712],[14.498289,50.090801],[14.498265,50.090916],[14.49822,50.090994],[14.498175,50.091072],[14.498062,50.091207],[14.498005,50.091275],[14.497834,50.091414],[14.497998,50.091574],[14.498098,50.091637],[14.498281,50.091771],[14.498287,50.091776],[14.498287,50.091776]]]}},{"type":"Feature","properties":{"cislo":3048,"kod":29009,"mestskaCast":"praha-3"},"geometry":{"type":"Polygon","coordinates":[[[14.4902,50.091033],[14.490412,50.090961],[14.491495,50.090648],[14.492336,50.090405],[14.492738,50.090304],[14.492926,50.090284],[14.493313,50.090254],[14.493596,50.090252],[14.493793,50.090251],[14.4941,50.090269],[14.494736,50.090398],[14.495462,50.090561],[14.496164,50.090714],[14.496568,50.090804],[14.496649,50.09082],[14.49673,50.090836],[14.497037,50.090918],[14.497256,50.091018],[14.497396,50.091085],[14.49758,50.091219],[14.497834,50.091414],[14.498005,50.091275],[14.498062,50.091207],[14.498175,50.091072],[14.49822,50.090994],[14.498265,50.090916],[14.498289,50.090801],[14.498308,50.090712],[14.498316,50.090676],[14.498303,50.090602],[14.49826,50.090471],[14.498226,50.090369],[14.497901,50.090304],[14.497239,50.090164],[14.497063,50.09013],[14.497067,50.090113],[14.496973,50.090023],[14.494478,50.089486],[14.494409,50.08948],[14.494322,50.08949],[14.494261,50.089512],[14.494198,50.089543],[14.49412,50.089509],[14.494003,50.089462],[14.493829,50.08942],[14.493819,50.089401],[14.493825,50.089374],[14.493844,50.089348],[14.493854,50.089304],[14.49382,50.088929],[14.493793,50.088926],[14.493735,50.08893],[14.493467,50.088934],[14.493438,50.088469],[14.492686,50.088294],[14.492274,50.089101],[14.492244,50.08918],[14.492265,50.089346],[14.492291,50.089421],[14.492292,50.089484],[14.492269,50.089527],[14.492044,50.089589],[14.491547,50.089736],[14.490512,50.090026],[14.490252,50.090122],[14.490208,50.090263],[14.490169,50.090513],[14.490158,50.090767],[14.490175,50.090886],[14.4902,50.091033]]]}},{"type":"Feature","properties":{"cislo":3049,"kod":29011,"mestskaCast":"praha-3"},"geometry":{"type":"Polygon","coordinates":[[[14.492193,50.092207],[14.492365,50.092195],[14.492681,50.092168],[14.49279,50.09265],[14.492974,50.092648],[14.494205,50.092565],[14.494333,50.092558],[14.494748,50.092531],[14.495836,50.092455],[14.495999,50.092487],[14.49609,50.092522],[14.496189,50.092585],[14.496275,50.092647],[14.496321,50.092697],[14.496347,50.092772],[14.496376,50.092838],[14.496362,50.0929],[14.496353,50.092945],[14.49631,50.093013],[14.49625,50.093099],[14.496195,50.093158],[14.496121,50.093242],[14.49606,50.093327],[14.496015,50.093405],[14.496,50.093476],[14.49584,50.093898],[14.495765,50.094118],[14.495684,50.094301],[14.495584,50.094438],[14.49545,50.094608],[14.495338,50.094734],[14.495997,50.094955],[14.496133,50.094976],[14.496137,50.094977],[14.496137,50.094977],[14.496168,50.09485],[14.496238,50.09457],[14.496268,50.09445],[14.496383,50.094256],[14.496447,50.094147],[14.496857,50.09346],[14.497056,50.093225],[14.497115,50.093155],[14.497385,50.092837],[14.498115,50.091979],[14.498287,50.091776],[14.498287,50.091776],[14.498281,50.091771],[14.498098,50.091637],[14.497998,50.091574],[14.497834,50.091414],[14.49758,50.091219],[14.497396,50.091085],[14.497256,50.091018],[14.497037,50.090918],[14.49673,50.090836],[14.496649,50.09082],[14.496568,50.090804],[14.496164,50.090714],[14.495462,50.090561],[14.494736,50.090398],[14.4941,50.090269],[14.493793,50.090251],[14.493596,50.090252],[14.493313,50.090254],[14.492926,50.090284],[14.492738,50.090304],[14.492336,50.090405],[14.491495,50.090648],[14.490412,50.090961],[14.4902,50.091033],[14.49037,50.091293],[14.491031,50.091969],[14.491286,50.092227],[14.491316,50.092284],[14.492193,50.092207]]]}},{"type":"Feature","properties":{"cislo":3050,"kod":29013,"mestskaCast":"praha-3"},"geometry":{"type":"Polygon","coordinates":[[[14.495959,50.095695],[14.495959,50.095694],[14.495976,50.095629],[14.496011,50.095485],[14.496137,50.094977],[14.496137,50.094977],[14.496133,50.094976],[14.495997,50.094955],[14.495338,50.094734],[14.49545,50.094608],[14.495584,50.094438],[14.495684,50.094301],[14.495765,50.094118],[14.49584,50.093898],[14.496,50.093476],[14.496015,50.093405],[14.49606,50.093327],[14.496121,50.093242],[14.496195,50.093158],[14.49625,50.093099],[14.49631,50.093013],[14.496353,50.092945],[14.496362,50.0929],[14.496376,50.092838],[14.496347,50.092772],[14.496321,50.092697],[14.496275,50.092647],[14.496189,50.092585],[14.49609,50.092522],[14.495999,50.092487],[14.495836,50.092455],[14.494748,50.092531],[14.494333,50.092558],[14.494205,50.092565],[14.492974,50.092648],[14.49279,50.09265],[14.492681,50.092168],[14.492365,50.092195],[14.492193,50.092207],[14.492238,50.092392],[14.492255,50.092448],[14.492211,50.092454],[14.492216,50.092499],[14.492247,50.09262],[14.492256,50.092775],[14.492295,50.092924],[14.492384,50.093567],[14.492386,50.093621],[14.492344,50.09369],[14.492245,50.093754],[14.49213,50.093835],[14.491944,50.093909],[14.491791,50.093968],[14.491655,50.094011],[14.49145,50.094047],[14.491199,50.094098],[14.491261,50.09414],[14.491522,50.094371],[14.491823,50.094615],[14.491894,50.094676],[14.492229,50.09496],[14.492337,50.095051],[14.492451,50.095179],[14.493804,50.095316],[14.495245,50.09557],[14.495695,50.095645],[14.495926,50.095684],[14.495952,50.095695],[14.495959,50.095695]]]}},{"type":"Feature","properties":{"cislo":3051,"kod":29015,"mestskaCast":"praha-3"},"geometry":{"type":"Polygon","coordinates":[[[14.488544,50.098229],[14.491489,50.098729],[14.49147,50.098629],[14.492195,50.098531],[14.492968,50.098187],[14.492979,50.098195],[14.493358,50.098486],[14.493751,50.098788],[14.493881,50.098887],[14.493883,50.098888],[14.494205,50.098555],[14.494893,50.097863],[14.495555,50.097181],[14.495731,50.096954],[14.495808,50.096814],[14.495866,50.096681],[14.495954,50.096388],[14.495954,50.096386],[14.495959,50.09576],[14.495959,50.095695],[14.495952,50.095695],[14.495926,50.095684],[14.495695,50.095645],[14.495245,50.09557],[14.493804,50.095316],[14.492451,50.095179],[14.492337,50.095051],[14.492229,50.09496],[14.491894,50.094676],[14.491823,50.094615],[14.491522,50.094371],[14.491261,50.09414],[14.491199,50.094098],[14.49145,50.094047],[14.491655,50.094011],[14.491791,50.093968],[14.491944,50.093909],[14.49213,50.093835],[14.492245,50.093754],[14.492344,50.09369],[14.492386,50.093621],[14.492384,50.093567],[14.492295,50.092924],[14.492256,50.092775],[14.492247,50.09262],[14.492216,50.092499],[14.492211,50.092454],[14.492255,50.092448],[14.492238,50.092392],[14.492193,50.092207],[14.491316,50.092284],[14.491286,50.092227],[14.491031,50.091969],[14.489947,50.092091],[14.49,50.092241],[14.49003,50.092362],[14.490049,50.092409],[14.4893,50.092479],[14.488237,50.092503],[14.486794,50.092522],[14.486176,50.092513],[14.486138,50.092754],[14.485983,50.092822],[14.485951,50.092838],[14.485999,50.092878],[14.486109,50.09296],[14.486153,50.093019],[14.486562,50.093018],[14.48712,50.093313],[14.487825,50.09371],[14.48834,50.09401],[14.489125,50.094433],[14.48977,50.09478],[14.489775,50.094826],[14.489766,50.094934],[14.489757,50.095042],[14.489294,50.095028],[14.489261,50.095452],[14.488702,50.096356],[14.488542,50.096314],[14.487567,50.096056],[14.486901,50.095871],[14.48654,50.095775],[14.485996,50.096744],[14.485426,50.0977],[14.48854,50.098229],[14.488544,50.098229]]]}},{"type":"Feature","properties":{"cislo":3052,"kod":103408,"mestskaCast":"praha-3"},"geometry":{"type":"Polygon","coordinates":[[[14.479772,50.088664],[14.48168,50.08944],[14.48386,50.090067],[14.484352,50.089579],[14.484524,50.089276],[14.484762,50.088806],[14.484852,50.08873],[14.485168,50.088105],[14.485522,50.08691],[14.487589,50.086856],[14.487757,50.086862],[14.487939,50.086869],[14.488162,50.08688],[14.488453,50.086905],[14.488714,50.086937],[14.489069,50.086996],[14.489271,50.087041],[14.489566,50.087112],[14.489978,50.08723],[14.490245,50.087299],[14.490461,50.087345],[14.490598,50.087366],[14.490792,50.087383],[14.490974,50.08739],[14.49114,50.087405],[14.491268,50.087398],[14.491341,50.087386],[14.491661,50.087341],[14.491667,50.087341],[14.491671,50.087336],[14.491724,50.087248],[14.491739,50.087222],[14.491754,50.087197],[14.491808,50.087109],[14.49181,50.087106],[14.491894,50.087066],[14.491922,50.087069],[14.491921,50.087051],[14.491918,50.086983],[14.491918,50.086983],[14.491917,50.086954],[14.491861,50.086959],[14.491847,50.086901],[14.491827,50.08688],[14.491768,50.086817],[14.491569,50.086771],[14.491564,50.086769],[14.491436,50.08674],[14.491342,50.086718],[14.491293,50.086707],[14.491268,50.086701],[14.49116,50.086676],[14.490053,50.086423],[14.49004,50.08642],[14.489993,50.086409],[14.489943,50.086396],[14.489524,50.08629],[14.489345,50.086245],[14.489193,50.086203],[14.488997,50.086148],[14.488816,50.086098],[14.4887,50.086066],[14.488646,50.086051],[14.48862,50.086044],[14.488593,50.086005],[14.488304,50.085916],[14.487997,50.08579],[14.487771,50.085651],[14.487453,50.085427],[14.487439,50.085426],[14.487426,50.085428],[14.487128,50.085072],[14.487063,50.084995],[14.486954,50.084864],[14.486821,50.084705],[14.486725,50.084593],[14.486415,50.084497],[14.486148,50.084415],[14.486105,50.084403],[14.485604,50.084284],[14.485501,50.08426],[14.485521,50.084237],[14.484831,50.084101],[14.484882,50.084],[14.484919,50.083917],[14.484701,50.083896],[14.484534,50.083879],[14.484483,50.083873],[14.484266,50.083831],[14.484219,50.083822],[14.48417,50.083813],[14.484124,50.083805],[14.484047,50.083785],[14.483939,50.083757],[14.483911,50.083814],[14.483811,50.083795],[14.483687,50.083771],[14.483581,50.083751],[14.483582,50.083747],[14.483513,50.083734],[14.483075,50.083641],[14.483021,50.083629],[14.482963,50.083617],[14.482845,50.083591],[14.482796,50.08358],[14.482627,50.083545],[14.482185,50.083448],[14.482179,50.083447],[14.482176,50.083446],[14.482084,50.083425],[14.481988,50.083677],[14.481981,50.083713],[14.481905,50.084006],[14.481832,50.084281],[14.48179,50.084477],[14.481763,50.084674],[14.481812,50.084842],[14.481875,50.084874],[14.482022,50.084978],[14.482215,50.085131],[14.482269,50.085209],[14.482305,50.085239],[14.482334,50.085305],[14.482356,50.085398],[14.482339,50.085478],[14.482301,50.085592],[14.481715,50.08722],[14.480714,50.087349],[14.480365,50.0874],[14.480256,50.087581],[14.479772,50.088664]]]}}]}
