{"type":"FeatureCollection","features":[{"type":"Feature","properties":{"cislo":16001,"kod":38554,"mestskaCast":"praha-16"},"geometry":{"type":"Polygon","coordinates":[[[14.325269,50.009088],[14.325708,50.009159],[14.32544,50.008807],[14.325259,50.008569],[14.324847,50.008026],[14.324863,50.008014],[14.324888,50.007996],[14.324898,50.007989],[14.324928,50.007968],[14.325392,50.007642],[14.32694,50.006557],[14.32701,50.006507],[14.327366,50.006258],[14.327922,50.005868],[14.328023,50.005797],[14.328187,50.005682],[14.329718,50.004608],[14.329768,50.004573],[14.330023,50.004677],[14.330098,50.004703],[14.331657,50.005237],[14.332314,50.005462],[14.333278,50.005778],[14.333657,50.005919],[14.335082,50.006389],[14.335211,50.006431],[14.335254,50.006421],[14.335302,50.006411],[14.336094,50.00624],[14.336617,50.006165],[14.336989,50.006092],[14.337094,50.006071],[14.337283,50.005934],[14.337299,50.005928],[14.337721,50.005753],[14.337828,50.005707],[14.338056,50.00564],[14.338182,50.005603],[14.338188,50.005601],[14.338292,50.005573],[14.338312,50.005568],[14.338341,50.005562],[14.338514,50.005525],[14.338523,50.005523],[14.3386,50.005506],[14.338667,50.005492],[14.338691,50.005488],[14.338793,50.005479],[14.33885,50.005473],[14.338854,50.005472],[14.338889,50.005469],[14.338892,50.005468],[14.338953,50.005462],[14.338956,50.005462],[14.33902,50.005455],[14.338802,50.005338],[14.338581,50.005137],[14.338335,50.004733],[14.338327,50.004713],[14.33828,50.00459],[14.338265,50.004517],[14.338236,50.004381],[14.338166,50.004052],[14.338147,50.003965],[14.338128,50.003876],[14.337964,50.002914],[14.337949,50.002827],[14.337944,50.002797],[14.337937,50.002757],[14.338045,50.002246],[14.338052,50.002214],[14.338061,50.002207],[14.338254,50.002059],[14.338396,50.001962],[14.338452,50.001947],[14.338531,50.001925],[14.339101,50.001768],[14.339172,50.001748],[14.339308,50.001655],[14.339369,50.001613],[14.339462,50.001597],[14.340187,50.001497],[14.341525,50.000311],[14.341397,50.000168],[14.341338,50.000102],[14.341224,49.999975],[14.341191,49.999917],[14.341089,49.999739],[14.341037,49.999649],[14.340881,49.999288],[14.340685,49.999052],[14.340599,49.99896],[14.340682,49.998928],[14.340746,49.998904],[14.340788,49.998888],[14.340833,49.998673],[14.340899,49.99858],[14.3412,49.998157],[14.341301,49.998202],[14.341392,49.998243],[14.341417,49.998254],[14.341785,49.998419],[14.341874,49.998435],[14.342653,49.998559],[14.342717,49.998571],[14.343322,49.99842],[14.343673,49.99837],[14.344135,49.998289],[14.344461,49.998262],[14.344887,49.998316],[14.344996,49.99833],[14.345301,49.998369],[14.345672,49.998416],[14.345763,49.998427],[14.346148,49.998514],[14.346404,49.998522],[14.346461,49.998534],[14.346536,49.998549],[14.346574,49.998529],[14.346698,49.998361],[14.346815,49.998358],[14.346826,49.99833],[14.346863,49.998238],[14.346982,49.998194],[14.347136,49.998202],[14.347213,49.998147],[14.347145,49.998032],[14.346981,49.997936],[14.346845,49.997818],[14.346894,49.997758],[14.347026,49.997718],[14.347223,49.997712],[14.34742,49.997782],[14.347564,49.997667],[14.347687,49.997612],[14.347958,49.997694],[14.348488,49.997962],[14.348849,49.997987],[14.349225,49.99801],[14.349512,49.998056],[14.349595,49.998069],[14.349761,49.998138],[14.349908,49.9982],[14.349906,49.998155],[14.349903,49.998088],[14.349903,49.998017],[14.349904,49.997687],[14.349674,49.997619],[14.349255,49.996608],[14.349043,49.996116],[14.348895,49.99566],[14.348619,49.995497],[14.348527,49.995442],[14.348235,49.995407],[14.347813,49.995042],[14.347709,49.994951],[14.347861,49.994902],[14.347887,49.994782],[14.347318,49.99442],[14.347518,49.994208],[14.34752,49.994206],[14.347581,49.994151],[14.347743,49.994005],[14.348105,49.99392],[14.348168,49.993934],[14.348344,49.993972],[14.348383,49.99396],[14.348292,49.993865],[14.348375,49.993754],[14.348706,49.993699],[14.348876,49.993612],[14.348956,49.993532],[14.348979,49.993445],[14.348812,49.993235],[14.348763,49.993173],[14.348723,49.99307],[14.348778,49.993004],[14.348822,49.992976],[14.349539,49.992695],[14.350658,49.992508],[14.350692,49.992503],[14.350707,49.9925],[14.35076,49.992489],[14.350987,49.992443],[14.351441,49.992383],[14.351755,49.992394],[14.351803,49.992396],[14.351953,49.992402],[14.352341,49.992418],[14.35253,49.992427],[14.353225,49.992487],[14.353336,49.99254],[14.353378,49.992758],[14.3534,49.99306],[14.353768,49.993247],[14.354373,49.993356],[14.355103,49.993552],[14.355809,49.993682],[14.356321,49.993885],[14.355753,49.99308],[14.355562,49.992791],[14.355452,49.992645],[14.355241,49.992318],[14.354974,49.991985],[14.354813,49.991753],[14.35494,49.991492],[14.355039,49.991292],[14.355216,49.990927],[14.355354,49.990676],[14.355454,49.990476],[14.355535,49.990292],[14.355705,49.989963],[14.355876,49.989624],[14.356049,49.989276],[14.356174,49.989024],[14.356242,49.988903],[14.356333,49.988739],[14.356411,49.988573],[14.356489,49.988408],[14.35666,49.988069],[14.357011,49.987747],[14.357611,49.987446],[14.357899,49.987544],[14.358157,49.987658],[14.358495,49.987788],[14.35874,49.987892],[14.358896,49.987951],[14.359482,49.987649],[14.359442,49.987637],[14.359377,49.987613],[14.359169,49.987531],[14.359092,49.987497],[14.358871,49.987413],[14.358671,49.987359],[14.358787,49.987279],[14.358936,49.98711],[14.358569,49.98705],[14.358688,49.986889],[14.35885,49.986658],[14.359243,49.986139],[14.359648,49.986284],[14.359961,49.98594],[14.357427,49.985088],[14.357063,49.98521],[14.357008,49.985205],[14.357006,49.985214],[14.356991,49.985221],[14.356947,49.985226],[14.35693,49.985307],[14.356861,49.9853],[14.356846,49.985372],[14.356724,49.985415],[14.356588,49.985458],[14.356468,49.985492],[14.356279,49.985521],[14.356176,49.985539],[14.356103,49.98555],[14.35603,49.985562],[14.355961,49.985556],[14.356033,49.985354],[14.356039,49.985327],[14.355934,49.98529],[14.355889,49.985105],[14.355857,49.984993],[14.355762,49.984975],[14.355435,49.984928],[14.355326,49.984909],[14.355147,49.98502],[14.355111,49.985253],[14.355119,49.985281],[14.354904,49.985561],[14.355033,49.985618],[14.355021,49.985672],[14.354702,49.985915],[14.354421,49.986172],[14.352757,49.985923],[14.352568,49.985362],[14.352505,49.985456],[14.352449,49.985524],[14.35224,49.985641],[14.352063,49.98568],[14.35198,49.985672],[14.351828,49.985659],[14.351174,49.985364],[14.350937,49.985289],[14.350788,49.985257],[14.350646,49.985263],[14.350221,49.985343],[14.349841,49.985409],[14.349723,49.985434],[14.349331,49.985554],[14.34904,49.985664],[14.34877,49.98574],[14.348534,49.985791],[14.348433,49.9858],[14.347943,49.985856],[14.347795,49.985888],[14.347569,49.985959],[14.347246,49.986021],[14.34707,49.986051],[14.345847,49.986041],[14.344826,49.985814],[14.344054,49.985608],[14.3436,49.985495],[14.34309,49.985377],[14.342823,49.985308],[14.341943,49.984821],[14.341731,49.984693],[14.340542,49.984196],[14.340148,49.984134],[14.339984,49.984173],[14.339784,49.984255],[14.339615,49.984385],[14.339351,49.984498],[14.339167,49.984699],[14.339103,49.984866],[14.33911,49.984967],[14.33906,49.985262],[14.338997,49.985292],[14.338926,49.985336],[14.33895,49.985498],[14.338691,49.985703],[14.338442,49.985738],[14.338231,49.98574],[14.338215,49.985589],[14.338027,49.985584],[14.337985,49.985611],[14.337814,49.985893],[14.33764,49.985909],[14.337444,49.985828],[14.33737,49.985834],[14.337371,49.985887],[14.337065,49.985995],[14.336986,49.985927],[14.33689,49.985933],[14.336594,49.986091],[14.336415,49.986169],[14.336215,49.986306],[14.33613,49.986335],[14.33593,49.986341],[14.335775,49.986448],[14.335561,49.986438],[14.335255,49.986469],[14.335093,49.986444],[14.334658,49.986936],[14.334712,49.987105],[14.334824,49.987433],[14.334872,49.987731],[14.334789,49.987986],[14.335316,49.988665],[14.335572,49.988807],[14.335793,49.988861],[14.336016,49.988868],[14.336045,49.988872],[14.336093,49.988879],[14.336239,49.988882],[14.336436,49.988889],[14.336616,49.988897],[14.33685,49.988918],[14.337092,49.988945],[14.337283,49.988971],[14.337497,49.98901],[14.337714,49.989053],[14.337822,49.989082],[14.337848,49.989089],[14.337881,49.989098],[14.338059,49.989143],[14.338236,49.989197],[14.338272,49.989208],[14.338303,49.989217],[14.338412,49.989249],[14.338596,49.989299],[14.338786,49.989344],[14.33893,49.989369],[14.339045,49.989394],[14.339104,49.989407],[14.339305,49.989463],[14.339486,49.989508],[14.339715,49.989561],[14.339912,49.989612],[14.340104,49.989666],[14.340302,49.989717],[14.340457,49.989766],[14.340518,49.989785],[14.34054,49.989792],[14.340611,49.989814],[14.340653,49.989828],[14.340744,49.989859],[14.340768,49.989867],[14.340991,49.989948],[14.341,49.989952],[14.34104,49.989968],[14.341184,49.990026],[14.341382,49.990109],[14.341524,49.990174],[14.341565,49.990194],[14.341575,49.9902],[14.34171,49.990283],[14.341737,49.990299],[14.341779,49.990323],[14.341895,49.990386],[14.342061,49.990463],[14.342245,49.990522],[14.342295,49.990538],[14.34248,49.990582],[14.342731,49.990608],[14.342757,49.99063],[14.342724,49.990646],[14.342627,49.990667],[14.340959,49.991033],[14.340505,49.991133],[14.340325,49.991172],[14.339814,49.991284],[14.33919,49.991421],[14.338592,49.991553],[14.33864,49.99161],[14.338585,49.991657],[14.338513,49.991718],[14.338207,49.991978],[14.337958,49.992339],[14.33774,49.993021],[14.337721,49.993058],[14.337682,49.993133],[14.337508,49.993288],[14.337323,49.993389],[14.337087,49.993518],[14.336641,49.993645],[14.33654,49.993692],[14.336345,49.993783],[14.336146,49.993816],[14.335805,49.993857],[14.335442,49.993871],[14.33535,49.993866],[14.334982,49.993848],[14.334622,49.993779],[14.334179,49.9936],[14.33413,49.993582],[14.333943,49.993514],[14.333141,49.993292],[14.333121,49.993357],[14.333055,49.993585],[14.333036,49.993647],[14.333033,49.993657],[14.332995,49.993788],[14.332981,49.993836],[14.332977,49.993851],[14.332933,49.994],[14.33292,49.994043],[14.332889,49.99415],[14.332879,49.994183],[14.332876,49.994194],[14.332847,49.994295],[14.332828,49.994358],[14.332821,49.994381],[14.3326,49.994337],[14.332561,49.99441],[14.332535,49.994458],[14.332416,49.99438],[14.332416,49.994379],[14.332362,49.994361],[14.331915,49.994208],[14.331637,49.994188],[14.331623,49.99421],[14.331614,49.994223],[14.331549,49.994324],[14.331443,49.994408],[14.331398,49.99442],[14.331321,49.994449],[14.331256,49.994482],[14.331125,49.994585],[14.331168,49.994748],[14.331181,49.994785],[14.331215,49.994885],[14.331168,49.994888],[14.331049,49.994895],[14.330887,49.994905],[14.330884,49.994906],[14.330783,49.994912],[14.330673,49.994919],[14.330092,49.994596],[14.329999,49.994544],[14.329619,49.994329],[14.329483,49.994253],[14.329456,49.994238],[14.329121,49.994048],[14.328979,49.994025],[14.328957,49.994021],[14.32863,49.993968],[14.328104,49.993882],[14.328034,49.993951],[14.327242,49.993669],[14.326843,49.993555],[14.326643,49.993498],[14.326623,49.993538],[14.326611,49.993561],[14.326302,49.994175],[14.326028,49.99442],[14.325763,49.99466],[14.32574,49.994681],[14.324961,49.995112],[14.324541,49.995345],[14.324203,49.995407],[14.32392,49.995365],[14.323605,49.995259],[14.323572,49.995291],[14.323527,49.995335],[14.32348,49.995392],[14.323254,49.99566],[14.322889,49.995891],[14.322676,49.995877],[14.322072,49.995842],[14.321726,49.995745],[14.321538,49.99567],[14.321321,49.995622],[14.320834,49.995514],[14.320681,49.995459],[14.32051,49.99541],[14.320486,49.995403],[14.320316,49.995353],[14.32001,49.995264],[14.31995,49.995247],[14.319673,49.995299],[14.318899,49.995424],[14.317951,49.995434],[14.317871,49.995435],[14.317837,49.995436],[14.318005,49.995769],[14.318237,49.996111],[14.318478,49.996892],[14.318411,49.997378],[14.318409,49.99767],[14.318334,49.997859],[14.318474,49.998212],[14.318698,49.998516],[14.318694,49.998635],[14.318696,49.998652],[14.318701,49.998687],[14.318703,49.998701],[14.318708,49.998746],[14.318708,49.998754],[14.318706,49.998769],[14.318703,49.998811],[14.318704,49.998858],[14.318709,49.99888],[14.31872,49.998928],[14.318724,49.998947],[14.318727,49.998964],[14.318853,49.999636],[14.318853,49.999638],[14.318858,49.999661],[14.318931,49.999973],[14.319035,50.000237],[14.319183,50.000531],[14.319288,50.000742],[14.319367,50.000996],[14.319365,50.001575],[14.319323,50.002344],[14.319336,50.00246],[14.319459,50.003573],[14.319458,50.003583],[14.319414,50.003902],[14.319011,50.004653],[14.318995,50.004682],[14.319245,50.004714],[14.320332,50.004854],[14.321672,50.005093],[14.322346,50.005605],[14.323056,50.006448],[14.323131,50.006671],[14.323112,50.007062],[14.323111,50.007085],[14.32311,50.007101],[14.32311,50.007137],[14.323109,50.007191],[14.323102,50.007608],[14.323153,50.008169],[14.323059,50.008676],[14.323051,50.00872],[14.323026,50.008855],[14.323019,50.008889],[14.323019,50.008945],[14.323361,50.008971],[14.323611,50.008999],[14.323898,50.009005],[14.324456,50.009055],[14.325269,50.009088]]]}},{"type":"Feature","properties":{"cislo":16002,"kod":38556,"mestskaCast":"praha-16"},"geometry":{"type":"Polygon","coordinates":[[[14.355326,49.984909],[14.355386,49.98476],[14.355542,49.984429],[14.355561,49.984404],[14.355676,49.984396],[14.35593,49.984391],[14.356212,49.984389],[14.356409,49.984389],[14.356608,49.984379],[14.356975,49.984376],[14.357172,49.984375],[14.357326,49.98438],[14.357471,49.983966],[14.357643,49.983691],[14.357843,49.983545],[14.358195,49.98335],[14.358541,49.983181],[14.359001,49.983068],[14.359382,49.983066],[14.359744,49.983152],[14.360273,49.983309],[14.36067,49.983426],[14.360922,49.983366],[14.359472,49.98232],[14.359018,49.982007],[14.356279,49.980211],[14.354509,49.979081],[14.354918,49.979799],[14.355407,49.980405],[14.355529,49.980752],[14.355498,49.981094],[14.355194,49.98192],[14.355103,49.981885],[14.354887,49.981775],[14.354779,49.981883],[14.35473,49.981915],[14.354667,49.981946],[14.354677,49.981965],[14.35466,49.981981],[14.354501,49.981867],[14.354279,49.98172],[14.354119,49.981615],[14.353739,49.981354],[14.353642,49.981282],[14.353318,49.981017],[14.353019,49.980773],[14.352902,49.980662],[14.352735,49.98052],[14.352596,49.980381],[14.352499,49.980245],[14.352447,49.980159],[14.352439,49.980131],[14.352233,49.979713],[14.352133,49.979523],[14.35202,49.979331],[14.352215,49.979012],[14.35212,49.978931],[14.352016,49.978822],[14.351957,49.978772],[14.351782,49.978602],[14.351655,49.978472],[14.351568,49.978356],[14.351454,49.978227],[14.351547,49.97819],[14.351469,49.978093],[14.351759,49.977991],[14.352002,49.977904],[14.352179,49.977802],[14.352376,49.977674],[14.351922,49.977361],[14.351366,49.977003],[14.350427,49.976393],[14.349926,49.976103],[14.349471,49.975863],[14.348892,49.975611],[14.347074,49.975031],[14.34618,49.974711],[14.34618,49.97471],[14.345813,49.974766],[14.345489,49.974752],[14.345323,49.974745],[14.344957,49.974741],[14.34483,49.97474],[14.344381,49.974745],[14.34427,49.974746],[14.343916,49.974772],[14.343244,49.974821],[14.34265,49.974851],[14.342301,49.974841],[14.342263,49.974824],[14.342191,49.97482],[14.341905,49.974802],[14.341373,49.974756],[14.34062,49.974614],[14.339231,49.974203],[14.338267,49.973913],[14.337392,49.973652],[14.336865,49.973498],[14.33644,49.973364],[14.335373,49.972982],[14.335171,49.972909],[14.335063,49.972857],[14.334516,49.972594],[14.333924,49.972258],[14.333712,49.972124],[14.33353,49.972009],[14.33283,49.971485],[14.332653,49.971352],[14.332462,49.971194],[14.3323,49.97103],[14.332185,49.971033],[14.3318,49.971046],[14.331244,49.971062],[14.330748,49.971018],[14.329851,49.970941],[14.329032,49.970871],[14.328496,49.970823],[14.327978,49.970777],[14.327722,49.970755],[14.327465,49.970732],[14.327441,49.970752],[14.327156,49.970991],[14.326861,49.97141],[14.326815,49.971858],[14.327123,49.972327],[14.327184,49.972404],[14.3276,49.972923],[14.327609,49.972934],[14.327859,49.973201],[14.328035,49.973291],[14.328216,49.973382],[14.328509,49.97353],[14.328921,49.973739],[14.329387,49.973888],[14.33021,49.974178],[14.330167,49.974371],[14.329944,49.974527],[14.329337,49.974491],[14.329339,49.974511],[14.32934,49.974529],[14.329352,49.974561],[14.32938,49.97463],[14.329397,49.974664],[14.329454,49.974765],[14.329475,49.974798],[14.329498,49.97483],[14.329524,49.974861],[14.329581,49.974923],[14.329609,49.974953],[14.329645,49.974982],[14.32968,49.97501],[14.329718,49.975035],[14.329758,49.975059],[14.329842,49.975105],[14.329926,49.975149],[14.329971,49.975171],[14.330014,49.975195],[14.330055,49.975221],[14.330056,49.975255],[14.330044,49.975289],[14.33002,49.975323],[14.329995,49.975353],[14.329935,49.975416],[14.330639,49.975593],[14.331237,49.975709],[14.331673,49.975786],[14.332608,49.975881],[14.332652,49.976108],[14.332644,49.976251],[14.332642,49.976289],[14.332598,49.976388],[14.332564,49.976467],[14.33249,49.976701],[14.332476,49.976746],[14.332464,49.976783],[14.332404,49.97703],[14.332346,49.977297],[14.332342,49.977305],[14.334264,49.977495],[14.334672,49.977526],[14.334698,49.977578],[14.334718,49.977617],[14.334734,49.977627],[14.335363,49.978034],[14.33549,49.978116],[14.335344,49.97832],[14.33528,49.978409],[14.335238,49.978459],[14.335195,49.978511],[14.335349,49.97858],[14.335576,49.978683],[14.335739,49.978757],[14.335991,49.978904],[14.336158,49.979001],[14.336323,49.979097],[14.336486,49.979192],[14.337052,49.979548],[14.337603,49.979805],[14.338309,49.980117],[14.338345,49.980133],[14.339096,49.980458],[14.339591,49.980751],[14.3393,49.981129],[14.339085,49.981168],[14.339041,49.981186],[14.338851,49.98122],[14.338815,49.98127],[14.338743,49.981275],[14.338715,49.981375],[14.33868,49.981565],[14.338575,49.981787],[14.338575,49.981935],[14.338451,49.981947],[14.338386,49.981973],[14.338249,49.981998],[14.338206,49.982024],[14.338169,49.982111],[14.338051,49.982188],[14.337897,49.982229],[14.337586,49.982391],[14.33761,49.982465],[14.337595,49.982565],[14.337651,49.982688],[14.337762,49.982726],[14.337968,49.982863],[14.338073,49.982885],[14.338213,49.982962],[14.338466,49.983033],[14.338553,49.983116],[14.338697,49.983234],[14.338738,49.983277],[14.338901,49.983511],[14.33908,49.983597],[14.339159,49.98366],[14.339187,49.983734],[14.339052,49.983852],[14.339106,49.98437],[14.33906,49.984486],[14.339081,49.98454],[14.339035,49.984671],[14.338901,49.984807],[14.338915,49.984881],[14.338989,49.984947],[14.338969,49.985031],[14.338852,49.985085],[14.338756,49.985213],[14.338876,49.9853],[14.338926,49.985336],[14.338997,49.985292],[14.33906,49.985262],[14.33911,49.984967],[14.339103,49.984866],[14.339167,49.984699],[14.339351,49.984498],[14.339615,49.984385],[14.339784,49.984255],[14.339984,49.984173],[14.340148,49.984134],[14.340542,49.984196],[14.341731,49.984693],[14.341943,49.984821],[14.342823,49.985308],[14.34309,49.985377],[14.3436,49.985495],[14.344054,49.985608],[14.344826,49.985814],[14.345847,49.986041],[14.34707,49.986051],[14.347246,49.986021],[14.347569,49.985959],[14.347795,49.985888],[14.347943,49.985856],[14.348433,49.9858],[14.348534,49.985791],[14.34877,49.98574],[14.34904,49.985664],[14.349331,49.985554],[14.349723,49.985434],[14.349841,49.985409],[14.350221,49.985343],[14.350646,49.985263],[14.350788,49.985257],[14.350937,49.985289],[14.351174,49.985364],[14.351828,49.985659],[14.35198,49.985672],[14.352063,49.98568],[14.35224,49.985641],[14.352449,49.985524],[14.352505,49.985456],[14.352568,49.985362],[14.352757,49.985923],[14.354421,49.986172],[14.354702,49.985915],[14.355021,49.985672],[14.355033,49.985618],[14.354904,49.985561],[14.355119,49.985281],[14.355111,49.985253],[14.355147,49.98502],[14.355326,49.984909]]]}},{"type":"Feature","properties":{"cislo":16003,"kod":38558,"mestskaCast":"praha-16"},"geometry":{"type":"Polygon","coordinates":[[[14.352376,49.977674],[14.352179,49.977802],[14.352002,49.977904],[14.351759,49.977991],[14.351469,49.978093],[14.351547,49.97819],[14.351454,49.978227],[14.351568,49.978356],[14.351655,49.978472],[14.351782,49.978602],[14.351957,49.978772],[14.352016,49.978822],[14.35212,49.978931],[14.352215,49.979012],[14.35202,49.979331],[14.352133,49.979523],[14.352233,49.979713],[14.352439,49.980131],[14.352447,49.980159],[14.352499,49.980245],[14.352596,49.980381],[14.352735,49.98052],[14.352902,49.980662],[14.353019,49.980773],[14.353318,49.981017],[14.353642,49.981282],[14.353739,49.981354],[14.354119,49.981615],[14.354279,49.98172],[14.354501,49.981867],[14.35466,49.981981],[14.354677,49.981965],[14.354667,49.981946],[14.35473,49.981915],[14.354779,49.981883],[14.354887,49.981775],[14.355103,49.981885],[14.355194,49.98192],[14.355498,49.981094],[14.355529,49.980752],[14.355407,49.980405],[14.354918,49.979799],[14.354509,49.979081],[14.352376,49.977674]]]}},{"type":"Feature","properties":{"cislo":16004,"kod":38560,"mestskaCast":"praha-16"},"geometry":{"type":"Polygon","coordinates":[[[14.360922,49.983366],[14.361159,49.983379],[14.361437,49.983331],[14.361754,49.983232],[14.362078,49.983097],[14.362613,49.982837],[14.362854,49.982631],[14.362921,49.982319],[14.363128,49.982011],[14.36329,49.981844],[14.363205,49.981782],[14.363349,49.981768],[14.364258,49.981702],[14.364258,49.981702],[14.364215,49.981684],[14.363519,49.981518],[14.363272,49.981366],[14.362724,49.981166],[14.362689,49.981153],[14.362523,49.981032],[14.36232,49.980918],[14.361748,49.980296],[14.361553,49.980023],[14.361507,49.979898],[14.361506,49.979592],[14.361389,49.979161],[14.361368,49.978896],[14.361315,49.978784],[14.361329,49.978567],[14.361241,49.978331],[14.360842,49.977379],[14.360588,49.97652],[14.360466,49.976332],[14.360198,49.976007],[14.359995,49.975794],[14.359644,49.975211],[14.359167,49.974702],[14.358906,49.974225],[14.358149,49.97363],[14.357655,49.973115],[14.357489,49.972968],[14.357471,49.972953],[14.357444,49.972938],[14.357019,49.97271],[14.356802,49.972619],[14.356607,49.972537],[14.356412,49.972456],[14.355811,49.972152],[14.355308,49.971935],[14.35507,49.971832],[14.354573,49.971769],[14.353989,49.971704],[14.353151,49.97176],[14.352677,49.97194],[14.352167,49.972159],[14.351709,49.972242],[14.351293,49.972349],[14.351076,49.97242],[14.350962,49.972453],[14.350465,49.9726],[14.350087,49.972701],[14.349661,49.972779],[14.349215,49.972841],[14.348704,49.972858],[14.348327,49.97279],[14.348065,49.972733],[14.347845,49.97268],[14.347395,49.972621],[14.34725,49.972538],[14.347131,49.972493],[14.347077,49.972475],[14.346998,49.972599],[14.34693,49.972704],[14.346894,49.972738],[14.346893,49.972746],[14.34689,49.972777],[14.346884,49.972821],[14.346823,49.973331],[14.34663,49.973338],[14.346566,49.973382],[14.346419,49.973574],[14.346257,49.973694],[14.345388,49.973466],[14.3452,49.973514],[14.345146,49.973526],[14.345,49.973616],[14.345127,49.973769],[14.345296,49.973904],[14.345475,49.974054],[14.345691,49.974226],[14.345741,49.974262],[14.34618,49.97471],[14.34618,49.974711],[14.347074,49.975031],[14.348892,49.975611],[14.349471,49.975863],[14.349926,49.976103],[14.350427,49.976393],[14.351366,49.977003],[14.351922,49.977361],[14.352376,49.977674],[14.354509,49.979081],[14.356279,49.980211],[14.359018,49.982007],[14.359472,49.98232],[14.360922,49.983366]]]}},{"type":"Feature","properties":{"cislo":16005,"kod":38562,"mestskaCast":"praha-16"},"geometry":{"type":"Polygon","coordinates":[[[14.376212,49.994894],[14.376217,49.994892],[14.376518,49.995099],[14.376802,49.995346],[14.377121,49.995618],[14.377403,49.995956],[14.377844,49.996378],[14.378058,49.996622],[14.378324,49.996982],[14.378732,49.997518],[14.379041,49.997892],[14.379271,49.998183],[14.379671,49.998735],[14.380176,49.999377],[14.38067,49.999981],[14.381087,50.000562],[14.381253,50.000501],[14.381745,50.000299],[14.382733,49.999977],[14.383388,49.999802],[14.384126,49.999572],[14.384638,49.999422],[14.385087,49.999278],[14.385464,49.999147],[14.385849,49.999005],[14.386333,49.99881],[14.386359,49.998799],[14.386386,49.998787],[14.388392,49.997617],[14.389126,49.997189],[14.390678,49.996284],[14.392229,49.995379],[14.392315,49.995391],[14.392345,49.995395],[14.394061,49.995627],[14.394066,49.995628],[14.394474,49.994872],[14.394203,49.994763],[14.394164,49.994747],[14.394142,49.994739],[14.39406,49.994707],[14.394017,49.994689],[14.393546,49.994492],[14.393393,49.994442],[14.39302,49.994347],[14.392809,49.994285],[14.392499,49.994164],[14.392501,49.994161],[14.392541,49.994067],[14.39256,49.994021],[14.392579,49.993978],[14.392595,49.99394],[14.39279,49.993998],[14.392774,49.993953],[14.392754,49.993898],[14.392697,49.993735],[14.392686,49.993627],[14.392685,49.993618],[14.392684,49.993615],[14.39268,49.993569],[14.392683,49.99353],[14.392685,49.993509],[14.392685,49.993506],[14.392712,49.993222],[14.392637,49.993023],[14.39247,49.992927],[14.392262,49.992901],[14.391987,49.992879],[14.391551,49.992843],[14.390938,49.992749],[14.390681,49.992688],[14.390113,49.992554],[14.390069,49.992544],[14.389811,49.992478],[14.389457,49.992376],[14.389038,49.992217],[14.388743,49.99207],[14.388435,49.991864],[14.388276,49.991783],[14.388044,49.991603],[14.387798,49.991388],[14.387383,49.99102],[14.387376,49.991014],[14.387303,49.990936],[14.387132,49.990755],[14.387103,49.990725],[14.387081,49.990701],[14.387045,49.990663],[14.387015,49.990632],[14.38689,49.9905],[14.385919,49.989509],[14.385916,49.989506],[14.385908,49.989498],[14.385906,49.989496],[14.385828,49.989416],[14.385812,49.989399],[14.385811,49.989398],[14.385795,49.989381],[14.385693,49.989272],[14.38569,49.989269],[14.385498,49.989066],[14.385279,49.988865],[14.384727,49.98841],[14.384586,49.988307],[14.384447,49.988206],[14.384036,49.987885],[14.383428,49.987329],[14.383381,49.987262],[14.382753,49.98672],[14.382591,49.98663],[14.382285,49.986418],[14.383412,49.986149],[14.383643,49.986094],[14.382932,49.985493],[14.382493,49.985186],[14.381773,49.984866],[14.381145,49.984641],[14.380899,49.984567],[14.380324,49.984475],[14.380034,49.98441],[14.379973,49.984414],[14.379721,49.984516],[14.379058,49.984606],[14.378828,49.984621],[14.378577,49.984655],[14.378302,49.984702],[14.377967,49.984761],[14.376901,49.984937],[14.376148,49.985029],[14.375891,49.985036],[14.375258,49.985107],[14.374663,49.985116],[14.373661,49.985162],[14.372838,49.985182],[14.372239,49.98516],[14.371699,49.985113],[14.370652,49.98498],[14.370362,49.984926],[14.369691,49.984716],[14.369361,49.984539],[14.369143,49.984233],[14.368947,49.983981],[14.36874,49.983666],[14.368441,49.98335],[14.367907,49.982894],[14.367675,49.982736],[14.367408,49.9826],[14.367138,49.982424],[14.366355,49.982232],[14.366,49.98213],[14.365857,49.982087],[14.365645,49.982108],[14.36537,49.982047],[14.364989,49.981954],[14.364543,49.981822],[14.364258,49.981702],[14.364258,49.981702],[14.363349,49.981768],[14.363205,49.981782],[14.36329,49.981844],[14.363128,49.982011],[14.362921,49.982319],[14.362854,49.982631],[14.362613,49.982837],[14.362078,49.983097],[14.361754,49.983232],[14.361437,49.983331],[14.361159,49.983379],[14.360922,49.983366],[14.361705,49.983981],[14.36237,49.984494],[14.364372,49.986116],[14.367223,49.988186],[14.368948,49.989529],[14.370125,49.990405],[14.371993,49.991806],[14.374088,49.993327],[14.376212,49.994894]]]}},{"type":"Feature","properties":{"cislo":16006,"kod":38564,"mestskaCast":"praha-16"},"geometry":{"type":"Polygon","coordinates":[[[14.369029,50.000106],[14.369893,49.999706],[14.369943,49.999676],[14.370509,49.999362],[14.370613,49.999294],[14.370703,49.999237],[14.370721,49.999219],[14.370726,49.999214],[14.370744,49.999198],[14.371088,49.998876],[14.37114,49.998827],[14.37125,49.998752],[14.371255,49.998748],[14.371367,49.998671],[14.371449,49.998603],[14.371628,49.998455],[14.371653,49.998434],[14.371833,49.998285],[14.371993,49.998153],[14.372005,49.998143],[14.372228,49.997958],[14.372368,49.997842],[14.372577,49.997669],[14.372691,49.997574],[14.372757,49.99752],[14.37278,49.997501],[14.37296,49.997355],[14.373122,49.997221],[14.373273,49.997098],[14.373277,49.997095],[14.373423,49.996974],[14.373562,49.996858],[14.373667,49.996771],[14.373807,49.996654],[14.37382,49.996643],[14.374046,49.996456],[14.374073,49.996433],[14.37424,49.996294],[14.374263,49.996275],[14.374367,49.996188],[14.374466,49.996105],[14.374561,49.996027],[14.37468,49.995928],[14.374849,49.995553],[14.375691,49.995144],[14.375696,49.995141],[14.375793,49.995094],[14.375986,49.995],[14.376212,49.994894],[14.374088,49.993327],[14.371993,49.991806],[14.370125,49.990405],[14.368948,49.989529],[14.368704,49.989616],[14.368608,49.989734],[14.368551,49.989802],[14.368514,49.989844],[14.368378,49.989886],[14.368218,49.989845],[14.36818,49.989823],[14.368004,49.989726],[14.367967,49.989704],[14.367589,49.989625],[14.367613,49.989582],[14.367439,49.989539],[14.367411,49.989537],[14.367407,49.989555],[14.367354,49.989541],[14.3673,49.989137],[14.367178,49.989117],[14.367172,49.989143],[14.366943,49.989159],[14.366725,49.989194],[14.36649,49.989237],[14.366482,49.989273],[14.366438,49.989414],[14.36636,49.989579],[14.366343,49.989659],[14.366758,49.98976],[14.366745,49.989822],[14.366646,49.990149],[14.3666,49.990236],[14.366339,49.99014],[14.366158,49.99026],[14.366107,49.990301],[14.365893,49.990445],[14.36586,49.99047],[14.365695,49.990382],[14.365477,49.990544],[14.365703,49.990673],[14.365531,49.990821],[14.365519,49.990811],[14.365246,49.991032],[14.365193,49.991082],[14.365095,49.991146],[14.365057,49.991124],[14.365,49.991128],[14.364595,49.990656],[14.364508,49.990667],[14.364153,49.990744],[14.364267,49.990936],[14.364369,49.991117],[14.363967,49.991218],[14.364017,49.991249],[14.364179,49.991345],[14.364312,49.991448],[14.36453,49.991613],[14.364637,49.991704],[14.364798,49.991873],[14.364913,49.991992],[14.365076,49.992152],[14.365203,49.992281],[14.365352,49.992439],[14.365479,49.992569],[14.365747,49.992829],[14.365935,49.993072],[14.366056,49.993228],[14.366122,49.993316],[14.366155,49.993555],[14.366181,49.993893],[14.366227,49.994269],[14.366147,49.994507],[14.366146,49.994643],[14.366138,49.994815],[14.366107,49.994958],[14.365936,49.994969],[14.365259,49.994909],[14.364984,49.994876],[14.364692,49.994795],[14.364575,49.994748],[14.364295,49.994805],[14.364005,49.994779],[14.363887,49.994741],[14.363212,49.994409],[14.362214,49.993939],[14.360887,49.995001],[14.360889,49.995003],[14.361756,49.99546],[14.362308,49.995877],[14.362916,49.996217],[14.363455,49.996519],[14.364038,49.996556],[14.36463,49.996695],[14.365053,49.996808],[14.365354,49.996888],[14.365969,49.997065],[14.366676,49.997753],[14.366931,49.998014],[14.366987,49.998072],[14.366994,49.998079],[14.367066,49.998154],[14.367081,49.998169],[14.367177,49.998268],[14.367268,49.998361],[14.367281,49.998375],[14.367297,49.99839],[14.367345,49.99844],[14.36742,49.998517],[14.367489,49.998588],[14.367545,49.998642],[14.367684,49.998774],[14.367685,49.998775],[14.367744,49.998831],[14.367795,49.99888],[14.367847,49.998929],[14.367907,49.998987],[14.367966,49.999043],[14.368025,49.999099],[14.368042,49.999114],[14.368065,49.999139],[14.368144,49.999222],[14.36821,49.999291],[14.368271,49.999354],[14.368277,49.99936],[14.368283,49.999367],[14.368341,49.999428],[14.368411,49.999501],[14.368414,49.999504],[14.368437,49.999529],[14.368477,49.999568],[14.36855,49.999639],[14.368612,49.999699],[14.368614,49.999701],[14.368654,49.99974],[14.368655,49.999741],[14.368839,49.99992],[14.368851,49.999932],[14.368858,49.999939],[14.368969,50.000047],[14.369029,50.000106]]]}},{"type":"Feature","properties":{"cislo":16007,"kod":38566,"mestskaCast":"praha-16"},"geometry":{"type":"Polygon","coordinates":[[[14.360887,49.995001],[14.362214,49.993939],[14.363212,49.994409],[14.363887,49.994741],[14.364005,49.994779],[14.364295,49.994805],[14.364575,49.994748],[14.364692,49.994795],[14.364984,49.994876],[14.365259,49.994909],[14.365936,49.994969],[14.366107,49.994958],[14.366138,49.994815],[14.366146,49.994643],[14.366147,49.994507],[14.366227,49.994269],[14.366181,49.993893],[14.366155,49.993555],[14.366122,49.993316],[14.366056,49.993228],[14.365935,49.993072],[14.365747,49.992829],[14.365479,49.992569],[14.365352,49.992439],[14.365203,49.992281],[14.365076,49.992152],[14.364913,49.991992],[14.364798,49.991873],[14.364637,49.991704],[14.36453,49.991613],[14.364312,49.991448],[14.364179,49.991345],[14.364017,49.991249],[14.363967,49.991218],[14.364369,49.991117],[14.364267,49.990936],[14.364153,49.990744],[14.364508,49.990667],[14.364595,49.990656],[14.365,49.991128],[14.365057,49.991124],[14.365095,49.991146],[14.365193,49.991082],[14.365246,49.991032],[14.365519,49.990811],[14.365531,49.990821],[14.365703,49.990673],[14.365477,49.990544],[14.365695,49.990382],[14.36586,49.99047],[14.365893,49.990445],[14.366107,49.990301],[14.366158,49.99026],[14.366339,49.99014],[14.3666,49.990236],[14.366646,49.990149],[14.366745,49.989822],[14.366758,49.98976],[14.366343,49.989659],[14.36636,49.989579],[14.366438,49.989414],[14.366482,49.989273],[14.36649,49.989237],[14.366725,49.989194],[14.366943,49.989159],[14.367172,49.989143],[14.367178,49.989117],[14.3673,49.989137],[14.367354,49.989541],[14.367407,49.989555],[14.367411,49.989537],[14.367439,49.989539],[14.367613,49.989582],[14.367589,49.989625],[14.367967,49.989704],[14.368004,49.989726],[14.36818,49.989823],[14.368218,49.989845],[14.368378,49.989886],[14.368514,49.989844],[14.368551,49.989802],[14.368608,49.989734],[14.368704,49.989616],[14.368948,49.989529],[14.367223,49.988186],[14.364372,49.986116],[14.36237,49.984494],[14.361705,49.983981],[14.36151,49.984236],[14.360946,49.984894],[14.360263,49.98565],[14.359961,49.98594],[14.359648,49.986284],[14.359243,49.986139],[14.35885,49.986658],[14.358688,49.986889],[14.358569,49.98705],[14.358936,49.98711],[14.358787,49.987279],[14.358671,49.987359],[14.358871,49.987413],[14.359092,49.987497],[14.359169,49.987531],[14.359377,49.987613],[14.359442,49.987637],[14.359482,49.987649],[14.358896,49.987951],[14.35874,49.987892],[14.358495,49.987788],[14.358157,49.987658],[14.357899,49.987544],[14.357611,49.987446],[14.357011,49.987747],[14.35666,49.988069],[14.356489,49.988408],[14.356411,49.988573],[14.356333,49.988739],[14.356242,49.988903],[14.356174,49.989024],[14.356049,49.989276],[14.355876,49.989624],[14.355705,49.989963],[14.355535,49.990292],[14.355454,49.990476],[14.355354,49.990676],[14.355216,49.990927],[14.355039,49.991292],[14.35494,49.991492],[14.354813,49.991753],[14.354974,49.991985],[14.355241,49.992318],[14.355452,49.992645],[14.355562,49.992791],[14.355753,49.99308],[14.356321,49.993885],[14.356624,49.994098],[14.357047,49.994308],[14.35745,49.994411],[14.358005,49.994521],[14.35867,49.994767],[14.359467,49.994741],[14.360459,49.994783],[14.360887,49.995001]]]}},{"type":"Feature","properties":{"cislo":16008,"kod":38568,"mestskaCast":"praha-16"},"geometry":{"type":"Polygon","coordinates":[[[14.355326,49.984909],[14.355435,49.984928],[14.355762,49.984975],[14.355857,49.984993],[14.355889,49.985105],[14.355934,49.98529],[14.356039,49.985327],[14.356033,49.985354],[14.355961,49.985556],[14.35603,49.985562],[14.356103,49.98555],[14.356176,49.985539],[14.356279,49.985521],[14.356468,49.985492],[14.356588,49.985458],[14.356724,49.985415],[14.356846,49.985372],[14.356861,49.9853],[14.35693,49.985307],[14.356947,49.985226],[14.356991,49.985221],[14.357006,49.985214],[14.357008,49.985205],[14.357063,49.98521],[14.357427,49.985088],[14.359961,49.98594],[14.360263,49.98565],[14.360946,49.984894],[14.36151,49.984236],[14.361705,49.983981],[14.360922,49.983366],[14.36067,49.983426],[14.360273,49.983309],[14.359744,49.983152],[14.359382,49.983066],[14.359001,49.983068],[14.358541,49.983181],[14.358195,49.98335],[14.357843,49.983545],[14.357643,49.983691],[14.357471,49.983966],[14.357326,49.98438],[14.357172,49.984375],[14.356975,49.984376],[14.356608,49.984379],[14.356409,49.984389],[14.356212,49.984389],[14.35593,49.984391],[14.355676,49.984396],[14.355561,49.984404],[14.355542,49.984429],[14.355386,49.98476],[14.355326,49.984909]]]}}]}
