{"type":"FeatureCollection","features":[{"type":"Feature","properties":{"cislo":39001,"kod":27119,"mestskaCast":"praha-lipence"},"geometry":{"type":"Polygon","coordinates":[[[14.36232,49.980918],[14.362508,49.980346],[14.362552,49.980308],[14.363071,49.979954],[14.363223,49.979849],[14.363338,49.979769],[14.363353,49.979759],[14.36353,49.979638],[14.363807,49.979464],[14.363936,49.979397],[14.364113,49.979305],[14.364179,49.979272],[14.364297,49.979213],[14.364431,49.979154],[14.364571,49.979097],[14.364763,49.979021],[14.364949,49.97895],[14.365335,49.978802],[14.36562,49.978682],[14.36624,49.978345],[14.366388,49.978257],[14.366541,49.978168],[14.36702,49.977802],[14.367263,49.977435],[14.367427,49.977219],[14.367495,49.977109],[14.367652,49.976911],[14.367879,49.976668],[14.368062,49.976544],[14.368083,49.97653],[14.368756,49.976075],[14.368784,49.976061],[14.368865,49.976023],[14.3689,49.975996],[14.369805,49.975599],[14.370005,49.975491],[14.370438,49.975179],[14.370488,49.975112],[14.371248,49.974531],[14.371288,49.974493],[14.371313,49.974445],[14.371332,49.974386],[14.371558,49.97356],[14.37156,49.973551],[14.37173,49.973076],[14.372008,49.97274],[14.372166,49.972401],[14.372264,49.972127],[14.372275,49.972098],[14.372276,49.972093],[14.372257,49.972085],[14.372214,49.97206],[14.372102,49.971991],[14.372026,49.971953],[14.371998,49.971918],[14.371866,49.971716],[14.371561,49.971117],[14.371523,49.971021],[14.37152,49.970998],[14.370971,49.970009],[14.37087,49.96978],[14.370816,49.969532],[14.370799,49.969431],[14.370771,49.969263],[14.37074,49.968987],[14.370744,49.968747],[14.371189,49.967514],[14.371294,49.967245],[14.37132,49.967178],[14.37132,49.967116],[14.371311,49.967068],[14.371256,49.967009],[14.371137,49.96695],[14.37053,49.96679],[14.370382,49.966766],[14.370413,49.966733],[14.370499,49.966645],[14.370523,49.966617],[14.370522,49.966578],[14.370501,49.966545],[14.370434,49.966485],[14.370409,49.966467],[14.370396,49.966457],[14.370357,49.966431],[14.370263,49.966387],[14.370133,49.966328],[14.369765,49.966159],[14.369761,49.966157],[14.369771,49.966146],[14.369792,49.966119],[14.369808,49.966102],[14.369851,49.966056],[14.369867,49.966038],[14.369669,49.965879],[14.369642,49.965856],[14.369742,49.965757],[14.369801,49.965699],[14.369932,49.965571],[14.369918,49.96521],[14.37004,49.965027],[14.370055,49.965004],[14.369975,49.964795],[14.369958,49.964753],[14.369977,49.964689],[14.369987,49.964655],[14.370143,49.964578],[14.370288,49.964507],[14.370692,49.964486],[14.370964,49.964449],[14.371258,49.96441],[14.371322,49.964402],[14.371391,49.964378],[14.371875,49.964214],[14.371927,49.964196],[14.372532,49.964025],[14.372837,49.963939],[14.373156,49.963849],[14.373356,49.963793],[14.373357,49.963792],[14.373368,49.963789],[14.374345,49.963513],[14.374414,49.963492],[14.374449,49.963482],[14.374487,49.963471],[14.374563,49.963448],[14.374601,49.963437],[14.374779,49.963384],[14.374998,49.96332],[14.375126,49.963281],[14.375215,49.963255],[14.375495,49.963173],[14.375513,49.963167],[14.376143,49.963221],[14.376473,49.963249],[14.376486,49.96325],[14.376896,49.963285],[14.376944,49.963289],[14.376965,49.963291],[14.376969,49.963292],[14.377101,49.963303],[14.377166,49.963137],[14.377167,49.963136],[14.377169,49.963132],[14.377228,49.963033],[14.377366,49.962803],[14.377673,49.962332],[14.377709,49.962276],[14.377783,49.962169],[14.377836,49.962093],[14.378028,49.961817],[14.378041,49.961798],[14.378307,49.961363],[14.378339,49.961312],[14.378573,49.960941],[14.378579,49.96093],[14.378631,49.960836],[14.378715,49.960687],[14.378877,49.960409],[14.378968,49.960174],[14.379004,49.960081],[14.37911,49.959772],[14.379195,49.959548],[14.379268,49.959336],[14.379331,49.959145],[14.37936,49.958956],[14.379381,49.958772],[14.379384,49.958573],[14.379393,49.95841],[14.379391,49.958258],[14.379363,49.958069],[14.37934,49.957901],[14.379312,49.957738],[14.379283,49.957586],[14.379243,49.957383],[14.379174,49.957134],[14.379139,49.957003],[14.379084,49.956831],[14.379035,49.956672],[14.379021,49.956609],[14.378481,49.956421],[14.378051,49.95627],[14.378372,49.955956],[14.378144,49.955838],[14.378098,49.955819],[14.377819,49.955682],[14.377696,49.955677],[14.377626,49.955646],[14.377409,49.955513],[14.377284,49.955414],[14.377218,49.955341],[14.37704,49.955244],[14.376762,49.955096],[14.376369,49.954905],[14.376128,49.954781],[14.375965,49.954709],[14.375764,49.954621],[14.375441,49.954492],[14.375076,49.954337],[14.374858,49.954251],[14.37455,49.954124],[14.374515,49.95411],[14.374692,49.9539],[14.374738,49.95388],[14.374713,49.953796],[14.374701,49.953748],[14.374687,49.953693],[14.37473,49.953618],[14.374819,49.953464],[14.37485,49.953399],[14.374864,49.953239],[14.374865,49.953223],[14.37489,49.953012],[14.374932,49.952761],[14.374944,49.952672],[14.374961,49.952554],[14.374995,49.952308],[14.374863,49.952232],[14.374769,49.952138],[14.374743,49.95211],[14.37474,49.952107],[14.37461,49.951968],[14.374479,49.951915],[14.374357,49.951865],[14.374203,49.95178],[14.373976,49.9516],[14.373926,49.95156],[14.373901,49.951559],[14.373811,49.951555],[14.373709,49.951509],[14.373736,49.951427],[14.373632,49.95137],[14.373698,49.951171],[14.373771,49.951121],[14.373806,49.951109],[14.373812,49.951107],[14.373983,49.951047],[14.374,49.951025],[14.374068,49.950938],[14.374088,49.950908],[14.374123,49.950858],[14.374119,49.950674],[14.374118,49.950646],[14.374176,49.950406],[14.37418,49.950362],[14.374199,49.950107],[14.37422,49.949832],[14.374157,49.949638],[14.374126,49.949497],[14.374108,49.94941],[14.374052,49.949166],[14.374035,49.94907],[14.374018,49.948979],[14.373942,49.948737],[14.373925,49.948698],[14.373863,49.948474],[14.37379,49.948206],[14.373765,49.948122],[14.373731,49.948008],[14.373693,49.947894],[14.373661,49.947796],[14.3736,49.947676],[14.373509,49.947543],[14.373458,49.94747],[14.373438,49.947443],[14.373399,49.947389],[14.373371,49.94735],[14.373271,49.947201],[14.373209,49.947122],[14.373105,49.947352],[14.37294,49.94752],[14.372777,49.947907],[14.372651,49.948206],[14.37263,49.948348],[14.372215,49.948999],[14.3722,49.949035],[14.372174,49.949097],[14.372143,49.949173],[14.372128,49.949264],[14.372132,49.949343],[14.372156,49.949691],[14.372112,49.949814],[14.372024,49.949962],[14.371917,49.950093],[14.371687,49.950323],[14.371514,49.950471],[14.371387,49.950556],[14.371221,49.950636],[14.369786,49.951064],[14.369445,49.951164],[14.368779,49.951295],[14.368377,49.951323],[14.368164,49.951319],[14.367294,49.951301],[14.367093,49.951297],[14.367081,49.951233],[14.367038,49.951001],[14.36698,49.950907],[14.366991,49.950263],[14.366885,49.950197],[14.366766,49.950124],[14.366673,49.950057],[14.366404,49.949864],[14.366093,49.949531],[14.365876,49.949427],[14.365608,49.949377],[14.365359,49.949442],[14.365343,49.949435],[14.365156,49.949343],[14.364491,49.948998],[14.362826,49.948414],[14.362797,49.948404],[14.362793,49.948402],[14.362769,49.948394],[14.362743,49.948384],[14.362327,49.948234],[14.361531,49.947948],[14.361511,49.947939],[14.361307,49.947849],[14.360739,49.947603],[14.360593,49.94754],[14.360394,49.947454],[14.358737,49.948683],[14.358589,49.948657],[14.358563,49.948652],[14.357159,49.948403],[14.356233,49.948238],[14.353715,49.947791],[14.35367,49.947783],[14.352967,49.94796],[14.351664,49.948209],[14.35066,49.948216],[14.350288,49.948177],[14.349461,49.948128],[14.349378,49.948131],[14.349059,49.948124],[14.348425,49.948124],[14.348141,49.948138],[14.346594,49.948245],[14.345923,49.948036],[14.345511,49.947972],[14.344821,49.947832],[14.344082,49.947597],[14.343462,49.947594],[14.343205,49.947554],[14.342878,49.947584],[14.341503,49.94805],[14.341435,49.948073],[14.341303,49.948228],[14.341224,49.948322],[14.341145,49.948507],[14.341193,49.948546],[14.341202,49.948555],[14.341023,49.948603],[14.341002,49.948609],[14.340802,49.948663],[14.34035,49.948669],[14.339764,49.948606],[14.339058,49.948547],[14.338604,49.948503],[14.338423,49.948484],[14.338382,49.948478],[14.338388,49.948509],[14.33834,49.948501],[14.337635,49.948383],[14.337434,49.949132],[14.337179,49.949787],[14.337025,49.950062],[14.336629,49.950668],[14.336094,49.951391],[14.336068,49.951418],[14.33497,49.952566],[14.334313,49.953049],[14.333768,49.953399],[14.333653,49.953464],[14.333041,49.953809],[14.332129,49.954264],[14.33172,49.954471],[14.331363,49.954698],[14.331073,49.954925],[14.330826,49.955099],[14.329795,49.955519],[14.329217,49.955684],[14.327951,49.955923],[14.327696,49.955991],[14.327477,49.956034],[14.326769,49.956173],[14.326474,49.95633],[14.32602,49.956692],[14.32544,49.957208],[14.32504,49.957935],[14.324978,49.958375],[14.32509,49.958786],[14.325393,49.959164],[14.325406,49.959179],[14.325574,49.959343],[14.326096,49.959849],[14.326187,49.960261],[14.326203,49.960295],[14.326247,49.960392],[14.326591,49.961152],[14.326853,49.961734],[14.327021,49.962705],[14.3273,49.963298],[14.328122,49.964203],[14.329233,49.96485],[14.330019,49.965177],[14.330742,49.965453],[14.332333,49.96633],[14.332387,49.966359],[14.333705,49.967063],[14.334221,49.967281],[14.334523,49.967386],[14.3347,49.96753],[14.335137,49.967522],[14.335469,49.967487],[14.335738,49.967437],[14.335828,49.96742],[14.336452,49.967284],[14.336638,49.967244],[14.337248,49.967062],[14.337761,49.966884],[14.338522,49.966524],[14.338874,49.966395],[14.339257,49.966255],[14.340166,49.966042],[14.340411,49.965953],[14.340511,49.965917],[14.340862,49.965775],[14.340995,49.96574],[14.341249,49.965708],[14.341488,49.965729],[14.34206,49.965893],[14.342483,49.966012],[14.34288,49.966147],[14.343393,49.966354],[14.343878,49.966641],[14.344473,49.967131],[14.344917,49.967628],[14.345317,49.968561],[14.345335,49.968922],[14.345348,49.969126],[14.3454,49.969953],[14.34552,49.97045],[14.345581,49.970972],[14.345704,49.971385],[14.345841,49.971672],[14.345931,49.971795],[14.346007,49.971874],[14.346237,49.972025],[14.346583,49.972252],[14.346722,49.972336],[14.346942,49.972431],[14.347077,49.972475],[14.347131,49.972493],[14.34725,49.972538],[14.347395,49.972621],[14.347845,49.97268],[14.348065,49.972733],[14.348327,49.97279],[14.348704,49.972858],[14.349215,49.972841],[14.349661,49.972779],[14.350087,49.972701],[14.350465,49.9726],[14.350962,49.972453],[14.351076,49.97242],[14.351293,49.972349],[14.351709,49.972242],[14.352167,49.972159],[14.352677,49.97194],[14.353151,49.97176],[14.353989,49.971704],[14.354573,49.971769],[14.35507,49.971832],[14.355308,49.971935],[14.355811,49.972152],[14.356412,49.972456],[14.356607,49.972537],[14.356802,49.972619],[14.357019,49.97271],[14.357444,49.972938],[14.357471,49.972953],[14.357489,49.972968],[14.357655,49.973115],[14.358149,49.97363],[14.358906,49.974225],[14.359167,49.974702],[14.359644,49.975211],[14.359995,49.975794],[14.360198,49.976007],[14.360466,49.976332],[14.360588,49.97652],[14.360842,49.977379],[14.361241,49.978331],[14.361329,49.978567],[14.361315,49.978784],[14.361368,49.978896],[14.361389,49.979161],[14.361506,49.979592],[14.361507,49.979898],[14.361553,49.980023],[14.361748,49.980296],[14.36232,49.980918]]]}}]}
