{"type":"FeatureCollection","features":[{"type":"Feature","properties":{"cislo":18001,"kod":28181,"mestskaCast":"praha-18"},"geometry":{"type":"Polygon","coordinates":[[[14.530131,50.140253],[14.530143,50.140219],[14.530245,50.139903],[14.530344,50.139598],[14.53222,50.139841],[14.533926,50.140006],[14.534034,50.140017],[14.534605,50.140088],[14.535046,50.140149],[14.535272,50.139215],[14.535321,50.138977],[14.535378,50.13876],[14.535404,50.138661],[14.535689,50.137578],[14.535696,50.137553],[14.535709,50.137507],[14.535707,50.137021],[14.535683,50.136254],[14.535605,50.135712],[14.53557,50.135304],[14.535566,50.135295],[14.535567,50.135266],[14.535567,50.135247],[14.535567,50.135241],[14.53557,50.135215],[14.535518,50.134905],[14.535469,50.134476],[14.535444,50.134346],[14.535393,50.13408],[14.53535,50.133854],[14.535276,50.133463],[14.535273,50.133449],[14.535202,50.133088],[14.535185,50.132996],[14.535183,50.132987],[14.535132,50.132524],[14.535132,50.132507],[14.53513,50.132313],[14.535126,50.132017],[14.535126,50.131781],[14.53513,50.131762],[14.535283,50.131057],[14.535289,50.131033],[14.53522,50.131009],[14.535217,50.131008],[14.534086,50.13061],[14.533279,50.130367],[14.532252,50.130075],[14.53202,50.130008],[14.531887,50.12997],[14.53097,50.12976],[14.529828,50.129569],[14.529762,50.129563],[14.529679,50.129553],[14.529363,50.129512],[14.528982,50.129463],[14.528558,50.129409],[14.528243,50.129369],[14.527729,50.129292],[14.527688,50.129286],[14.527506,50.129259],[14.527503,50.129258],[14.527403,50.129243],[14.52738,50.12924],[14.52718,50.12921],[14.526799,50.129153],[14.52608,50.129036],[14.526076,50.129035],[14.526059,50.129032],[14.526009,50.129024],[14.525922,50.12901],[14.525875,50.129002],[14.525882,50.128723],[14.525883,50.128672],[14.525883,50.128666],[14.525884,50.128606],[14.525889,50.128422],[14.525879,50.128139],[14.525876,50.128065],[14.525876,50.128063],[14.525876,50.128062],[14.525876,50.128044],[14.525875,50.128019],[14.525874,50.127982],[14.525863,50.127936],[14.525832,50.127609],[14.525833,50.127564],[14.525827,50.127543],[14.525837,50.127459],[14.525622,50.127476],[14.52548,50.127488],[14.52545,50.12749],[14.524872,50.127536],[14.524295,50.12755],[14.523959,50.12758],[14.523532,50.127638],[14.523096,50.127696],[14.522891,50.127713],[14.522545,50.12773],[14.522316,50.127741],[14.522215,50.127751],[14.522145,50.127765],[14.522066,50.127792],[14.52197,50.127832],[14.521802,50.127904],[14.521674,50.127958],[14.521567,50.127987],[14.521462,50.128007],[14.521247,50.12803],[14.521011,50.128054],[14.520754,50.12807],[14.520316,50.128075],[14.519893,50.128074],[14.519731,50.128075],[14.519602,50.128069],[14.519489,50.128053],[14.519174,50.128009],[14.518925,50.127979],[14.518677,50.127954],[14.518417,50.127933],[14.518258,50.127909],[14.518032,50.127866],[14.517776,50.127839],[14.517488,50.127814],[14.517089,50.127792],[14.516622,50.127769],[14.516198,50.127755],[14.515881,50.12774],[14.515646,50.12772],[14.515568,50.127709],[14.515486,50.127686],[14.51536,50.12763],[14.515168,50.127534],[14.514926,50.127412],[14.514857,50.127378],[14.514363,50.127684],[14.514114,50.127831],[14.513851,50.12797],[14.513638,50.128072],[14.513427,50.128167],[14.513207,50.128247],[14.512975,50.128312],[14.512746,50.128366],[14.512402,50.128422],[14.51163,50.128558],[14.510944,50.128685],[14.510981,50.128753],[14.511058,50.128891],[14.511229,50.129096],[14.511453,50.129306],[14.51154,50.129387],[14.512194,50.129989],[14.512266,50.130057],[14.512493,50.130269],[14.512746,50.130505],[14.512812,50.130566],[14.512899,50.130648],[14.51293,50.130678],[14.512933,50.130681],[14.513023,50.130766],[14.513314,50.13104],[14.513321,50.131047],[14.513389,50.131116],[14.513416,50.131142],[14.513424,50.131156],[14.513481,50.131247],[14.513527,50.131347],[14.513565,50.131477],[14.513431,50.131475],[14.513413,50.131475],[14.513075,50.131462],[14.512957,50.131458],[14.512393,50.131437],[14.512092,50.131425],[14.511912,50.131419],[14.511833,50.131415],[14.511583,50.131402],[14.511409,50.131403],[14.5114,50.13143],[14.511391,50.131457],[14.511389,50.131476],[14.51139,50.131627],[14.511399,50.13185],[14.511412,50.132271],[14.511427,50.132757],[14.511436,50.133064],[14.511445,50.133614],[14.511445,50.133645],[14.511451,50.13367],[14.511451,50.133674],[14.51146,50.133715],[14.511483,50.133839],[14.511561,50.134266],[14.511584,50.134407],[14.511626,50.134615],[14.511161,50.134652],[14.510732,50.134685],[14.51064,50.134693],[14.51062,50.134694],[14.510638,50.134943],[14.510734,50.135024],[14.510781,50.135111],[14.510833,50.135358],[14.510908,50.135941],[14.510912,50.136008],[14.510998,50.136073],[14.511001,50.13627],[14.51101,50.13637],[14.511017,50.136479],[14.511033,50.136557],[14.511042,50.136659],[14.511043,50.136709],[14.511049,50.13674],[14.511058,50.136784],[14.511008,50.137127],[14.512307,50.137024],[14.512949,50.13696],[14.51306,50.137236],[14.51309,50.137317],[14.513183,50.137299],[14.51331,50.137278],[14.51335,50.137372],[14.513386,50.137438],[14.513418,50.137432],[14.513433,50.137469],[14.513457,50.13753],[14.513431,50.137534],[14.513448,50.137564],[14.513465,50.137595],[14.513549,50.137749],[14.513567,50.137786],[14.513358,50.137827],[14.513527,50.1381],[14.513741,50.138437],[14.514956,50.138258],[14.515245,50.138213],[14.51518,50.137986],[14.515606,50.137916],[14.515833,50.137882],[14.515717,50.13753],[14.51618,50.137455],[14.516154,50.137402],[14.516118,50.137285],[14.516151,50.13721],[14.51618,50.137135],[14.516219,50.137079],[14.516358,50.137106],[14.516444,50.137126],[14.516519,50.137148],[14.516571,50.13717],[14.516601,50.137185],[14.516663,50.137229],[14.51671,50.137279],[14.516712,50.137281],[14.516761,50.137378],[14.516885,50.137687],[14.517109,50.138307],[14.51802,50.138225],[14.519066,50.138129],[14.52013,50.138033],[14.520302,50.138017],[14.520359,50.138014],[14.52039,50.138009],[14.520433,50.138007],[14.520528,50.137998],[14.520577,50.137995],[14.520654,50.137988],[14.520684,50.137985],[14.520721,50.13798],[14.520766,50.137974],[14.520796,50.137972],[14.520824,50.137971],[14.520858,50.137966],[14.520888,50.137963],[14.520928,50.137959],[14.520962,50.137958],[14.521005,50.137952],[14.521042,50.137949],[14.521067,50.137946],[14.521101,50.137941],[14.52114,50.137939],[14.521171,50.137936],[14.521189,50.137933],[14.521567,50.137897],[14.521631,50.137891],[14.521763,50.137879],[14.521904,50.137867],[14.522512,50.13781],[14.522697,50.137785],[14.523423,50.137273],[14.52367,50.137418],[14.524007,50.137628],[14.524254,50.13779],[14.52446,50.137939],[14.524641,50.138084],[14.524687,50.138142],[14.524838,50.138254],[14.525023,50.138403],[14.525304,50.138554],[14.525632,50.13871],[14.52568,50.138732],[14.526072,50.138909],[14.52644,50.139068],[14.526891,50.139264],[14.527111,50.139353],[14.527424,50.139476],[14.527795,50.139603],[14.528383,50.139802],[14.52869,50.139911],[14.528818,50.139961],[14.528968,50.140014],[14.529139,50.140052],[14.529435,50.140105],[14.529629,50.140139],[14.52985,50.140189],[14.530127,50.140264],[14.530129,50.140259],[14.530131,50.140253]]]}},{"type":"Feature","properties":{"cislo":18002,"kod":28183,"mestskaCast":"praha-18"},"geometry":{"type":"Polygon","coordinates":[[[14.522079,50.140701],[14.521644,50.140536],[14.521338,50.140434],[14.520697,50.140287],[14.520318,50.140205],[14.520136,50.140176],[14.519984,50.140161],[14.51934,50.140112],[14.518887,50.140072],[14.518398,50.140021],[14.518177,50.139993],[14.517183,50.13989],[14.517201,50.13969],[14.516729,50.139745],[14.516444,50.139783],[14.515937,50.139855],[14.515874,50.139673],[14.515829,50.139568],[14.515796,50.139532],[14.515733,50.139491],[14.515694,50.139454],[14.515632,50.1393],[14.515573,50.139127],[14.515525,50.139046],[14.515432,50.138923],[14.515387,50.138766],[14.515363,50.138592],[14.515245,50.138213],[14.514956,50.138258],[14.513741,50.138437],[14.513527,50.1381],[14.513358,50.137827],[14.513567,50.137786],[14.513549,50.137749],[14.513465,50.137595],[14.513448,50.137564],[14.513431,50.137534],[14.513457,50.13753],[14.513433,50.137469],[14.513418,50.137432],[14.513386,50.137438],[14.51335,50.137372],[14.51331,50.137278],[14.513183,50.137299],[14.51309,50.137317],[14.51306,50.137236],[14.512949,50.13696],[14.512307,50.137024],[14.511008,50.137127],[14.511058,50.136784],[14.511049,50.13674],[14.511043,50.136709],[14.511042,50.136659],[14.511033,50.136557],[14.511017,50.136479],[14.51101,50.13637],[14.511001,50.13627],[14.510998,50.136073],[14.510912,50.136008],[14.510854,50.136011],[14.510734,50.136018],[14.510362,50.136044],[14.510032,50.136069],[14.509929,50.136087],[14.50995,50.136125],[14.509921,50.136196],[14.509746,50.136694],[14.50967,50.136909],[14.50966,50.136938],[14.509608,50.137081],[14.50944,50.137544],[14.509374,50.137728],[14.509341,50.137837],[14.509217,50.138248],[14.509373,50.138266],[14.509653,50.138278],[14.509946,50.138265],[14.510169,50.138256],[14.510217,50.138261],[14.510243,50.138278],[14.510265,50.138435],[14.510282,50.138589],[14.510832,50.138485],[14.51086,50.138651],[14.510885,50.138719],[14.510917,50.13876],[14.510774,50.138884],[14.510723,50.138923],[14.510713,50.138931],[14.510541,50.13907],[14.510611,50.139106],[14.510762,50.139175],[14.510901,50.139239],[14.51104,50.139304],[14.511172,50.139376],[14.511306,50.139446],[14.511436,50.139515],[14.511572,50.139583],[14.511714,50.139653],[14.511849,50.13972],[14.511982,50.139787],[14.51212,50.139855],[14.512314,50.139924],[14.512503,50.139983],[14.512664,50.140033],[14.51281,50.140076],[14.512955,50.140121],[14.513092,50.140171],[14.513103,50.14025],[14.513181,50.140284],[14.513476,50.140262],[14.513746,50.14034],[14.513955,50.1404],[14.514673,50.140604],[14.514763,50.140629],[14.514864,50.140658],[14.515247,50.14077],[14.515378,50.140808],[14.515507,50.140845],[14.515767,50.14092],[14.516025,50.140994],[14.516155,50.141031],[14.516284,50.141068],[14.516484,50.141126],[14.516876,50.141239],[14.516993,50.14127],[14.516922,50.141528],[14.517905,50.14139],[14.518752,50.14125],[14.519924,50.141058],[14.520117,50.141025],[14.520999,50.140875],[14.522066,50.140703],[14.522079,50.140701]]]}},{"type":"Feature","properties":{"cislo":18003,"kod":28185,"mestskaCast":"praha-18"},"geometry":{"type":"Polygon","coordinates":[[[14.52817,50.143166],[14.528183,50.14315],[14.528597,50.142638],[14.52921,50.141899],[14.529333,50.141751],[14.529433,50.141611],[14.529474,50.141559],[14.529551,50.141402],[14.529574,50.141353],[14.529624,50.14117],[14.529923,50.140721],[14.529946,50.140681],[14.529965,50.14065],[14.529987,50.140612],[14.530004,50.140583],[14.530005,50.140581],[14.530024,50.140548],[14.530036,50.140529],[14.53011,50.140314],[14.530113,50.140304],[14.530117,50.140293],[14.530127,50.140264],[14.52985,50.140189],[14.529629,50.140139],[14.529435,50.140105],[14.529139,50.140052],[14.528968,50.140014],[14.528818,50.139961],[14.52869,50.139911],[14.528383,50.139802],[14.527795,50.139603],[14.527424,50.139476],[14.527111,50.139353],[14.526891,50.139264],[14.52644,50.139068],[14.526072,50.138909],[14.52568,50.138732],[14.525632,50.13871],[14.525304,50.138554],[14.525023,50.138403],[14.524838,50.138254],[14.524687,50.138142],[14.524641,50.138084],[14.52446,50.137939],[14.524254,50.13779],[14.524007,50.137628],[14.52367,50.137418],[14.523423,50.137273],[14.522697,50.137785],[14.522512,50.13781],[14.521904,50.137867],[14.521763,50.137879],[14.521631,50.137891],[14.521567,50.137897],[14.521189,50.137933],[14.521171,50.137936],[14.52114,50.137939],[14.521101,50.137941],[14.521067,50.137946],[14.521042,50.137949],[14.521005,50.137952],[14.520962,50.137958],[14.520928,50.137959],[14.520888,50.137963],[14.520858,50.137966],[14.520824,50.137971],[14.520796,50.137972],[14.520766,50.137974],[14.520721,50.13798],[14.520684,50.137985],[14.520654,50.137988],[14.520577,50.137995],[14.520528,50.137998],[14.520433,50.138007],[14.52039,50.138009],[14.520359,50.138014],[14.520302,50.138017],[14.52013,50.138033],[14.519066,50.138129],[14.51802,50.138225],[14.517109,50.138307],[14.516885,50.137687],[14.516761,50.137378],[14.516712,50.137281],[14.51671,50.137279],[14.516663,50.137229],[14.516601,50.137185],[14.516571,50.13717],[14.516519,50.137148],[14.516444,50.137126],[14.516358,50.137106],[14.516219,50.137079],[14.51618,50.137135],[14.516151,50.13721],[14.516118,50.137285],[14.516154,50.137402],[14.51618,50.137455],[14.515717,50.13753],[14.515833,50.137882],[14.515606,50.137916],[14.51518,50.137986],[14.515245,50.138213],[14.515363,50.138592],[14.515387,50.138766],[14.515432,50.138923],[14.515525,50.139046],[14.515573,50.139127],[14.515632,50.1393],[14.515694,50.139454],[14.515733,50.139491],[14.515796,50.139532],[14.515829,50.139568],[14.515874,50.139673],[14.515937,50.139855],[14.516444,50.139783],[14.516729,50.139745],[14.517201,50.13969],[14.517183,50.13989],[14.518177,50.139993],[14.518398,50.140021],[14.518887,50.140072],[14.51934,50.140112],[14.519984,50.140161],[14.520136,50.140176],[14.520318,50.140205],[14.520697,50.140287],[14.521338,50.140434],[14.521644,50.140536],[14.522079,50.140701],[14.522209,50.14068],[14.522423,50.140755],[14.522564,50.140809],[14.522734,50.140882],[14.522938,50.140967],[14.523054,50.141012],[14.523168,50.141046],[14.523271,50.141077],[14.523417,50.141132],[14.523785,50.141288],[14.524091,50.141417],[14.52451,50.14159],[14.524954,50.141778],[14.525201,50.141883],[14.525299,50.141929],[14.525373,50.141981],[14.525525,50.142098],[14.525717,50.142238],[14.525948,50.142364],[14.526111,50.142441],[14.526336,50.142545],[14.526646,50.142744],[14.526936,50.142877],[14.52732,50.143061],[14.527494,50.143139],[14.52756,50.143155],[14.527626,50.143161],[14.527689,50.143162],[14.527771,50.143155],[14.527843,50.143145],[14.527934,50.143138],[14.52802,50.143134],[14.528082,50.143136],[14.52814,50.14315],[14.52817,50.143166]]]}},{"type":"Feature","properties":{"cislo":18004,"kod":28187,"mestskaCast":"praha-18"},"geometry":{"type":"Polygon","coordinates":[[[14.513791,50.148414],[14.51388,50.148444],[14.514012,50.148488],[14.514015,50.148489],[14.514049,50.148501],[14.514088,50.148513],[14.514123,50.148523],[14.514132,50.148526],[14.5149,50.148742],[14.515427,50.14889],[14.515485,50.148908],[14.515495,50.148912],[14.5155,50.148913],[14.515505,50.148915],[14.515512,50.148917],[14.515516,50.148919],[14.515522,50.148921],[14.515618,50.148952],[14.515642,50.14896],[14.515931,50.149054],[14.515962,50.149063],[14.516231,50.149151],[14.516691,50.149285],[14.517145,50.149418],[14.517321,50.14947],[14.517331,50.149473],[14.51801,50.149096],[14.51849,50.14882],[14.518491,50.14882],[14.518541,50.148791],[14.518543,50.14879],[14.519069,50.148491],[14.519609,50.148184],[14.519987,50.147996],[14.520222,50.147884],[14.520658,50.147658],[14.520998,50.147452],[14.521435,50.147231],[14.52169,50.147102],[14.521725,50.146999],[14.521736,50.14699],[14.521791,50.146945],[14.521852,50.146914],[14.522297,50.146688],[14.52259,50.146547],[14.522945,50.146393],[14.523206,50.146302],[14.523284,50.146274],[14.523459,50.146231],[14.523466,50.146221],[14.523506,50.146169],[14.523655,50.146031],[14.523886,50.145849],[14.524138,50.145703],[14.525157,50.145161],[14.525165,50.145157],[14.525151,50.14514],[14.526159,50.144605],[14.527187,50.144059],[14.527444,50.143901],[14.527659,50.14373],[14.527853,50.14353],[14.528005,50.143343],[14.528096,50.143231],[14.528125,50.143222],[14.528148,50.143194],[14.528157,50.143182],[14.52816,50.143178],[14.528164,50.143174],[14.52817,50.143166],[14.52814,50.14315],[14.528082,50.143136],[14.52802,50.143134],[14.527934,50.143138],[14.527843,50.143145],[14.527771,50.143155],[14.527689,50.143162],[14.527626,50.143161],[14.52756,50.143155],[14.527494,50.143139],[14.52732,50.143061],[14.526936,50.142877],[14.526646,50.142744],[14.526336,50.142545],[14.526111,50.142441],[14.525948,50.142364],[14.525717,50.142238],[14.525525,50.142098],[14.525373,50.141981],[14.525299,50.141929],[14.525201,50.141883],[14.524954,50.141778],[14.52451,50.14159],[14.524091,50.141417],[14.523785,50.141288],[14.523417,50.141132],[14.523271,50.141077],[14.523168,50.141046],[14.523054,50.141012],[14.522938,50.140967],[14.522734,50.140882],[14.522564,50.140809],[14.522423,50.140755],[14.522209,50.14068],[14.522079,50.140701],[14.522066,50.140703],[14.520999,50.140875],[14.520117,50.141025],[14.519924,50.141058],[14.518752,50.14125],[14.517905,50.14139],[14.516922,50.141528],[14.516993,50.14127],[14.516876,50.141239],[14.516484,50.141126],[14.516284,50.141068],[14.516155,50.141031],[14.516025,50.140994],[14.515767,50.14092],[14.515507,50.140845],[14.515378,50.140808],[14.515247,50.14077],[14.514864,50.140658],[14.514763,50.140629],[14.514673,50.140604],[14.513955,50.1404],[14.513746,50.14034],[14.513476,50.140262],[14.513181,50.140284],[14.513103,50.14025],[14.513092,50.140171],[14.512955,50.140121],[14.51281,50.140076],[14.512664,50.140033],[14.512503,50.139983],[14.512314,50.139924],[14.51212,50.139855],[14.511982,50.139787],[14.511849,50.13972],[14.511714,50.139653],[14.511572,50.139583],[14.511436,50.139515],[14.511306,50.139446],[14.511172,50.139376],[14.51104,50.139304],[14.510901,50.139239],[14.510762,50.139175],[14.510611,50.139106],[14.510541,50.13907],[14.510713,50.138931],[14.510723,50.138923],[14.510774,50.138884],[14.510917,50.13876],[14.510885,50.138719],[14.51086,50.138651],[14.510832,50.138485],[14.510282,50.138589],[14.510263,50.138784],[14.510117,50.138963],[14.509976,50.139118],[14.509844,50.139229],[14.509754,50.139313],[14.50967,50.13937],[14.509601,50.139439],[14.509387,50.139641],[14.509179,50.139814],[14.508999,50.139978],[14.508842,50.140127],[14.509923,50.140642],[14.510632,50.141004],[14.510899,50.141122],[14.510956,50.141299],[14.511016,50.141571],[14.511082,50.141828],[14.511119,50.141949],[14.511218,50.142389],[14.509899,50.142568],[14.509494,50.142616],[14.509135,50.142659],[14.508583,50.1427],[14.508057,50.142721],[14.507581,50.142724],[14.507192,50.142697],[14.506911,50.142672],[14.506996,50.142979],[14.507236,50.143413],[14.507666,50.144205],[14.508007,50.145185],[14.508222,50.145824],[14.508526,50.146654],[14.508831,50.147483],[14.508834,50.147494],[14.50884,50.147511],[14.508947,50.1478],[14.509128,50.148295],[14.509152,50.14836],[14.509608,50.149633],[14.510796,50.149462],[14.510988,50.149434],[14.511233,50.149398],[14.511567,50.14935],[14.511744,50.149324],[14.511754,50.149323],[14.511978,50.14929],[14.51198,50.14929],[14.511981,50.14929],[14.51201,50.149286],[14.51252,50.14921],[14.513009,50.149139],[14.513139,50.14912],[14.513189,50.149113],[14.513246,50.149105],[14.513325,50.149093],[14.513352,50.149089],[14.51339,50.149084],[14.513533,50.148695],[14.513562,50.148619],[14.5136,50.14852],[14.513619,50.148473],[14.513655,50.148369],[14.513666,50.148373],[14.513682,50.148378],[14.513791,50.148414]]]}},{"type":"Feature","properties":{"cislo":18005,"kod":28189,"mestskaCast":"praha-18"},"geometry":{"type":"Polygon","coordinates":[[[14.508831,50.147483],[14.508526,50.146654],[14.508222,50.145824],[14.508007,50.145185],[14.507666,50.144205],[14.507236,50.143413],[14.506996,50.142979],[14.506911,50.142672],[14.507192,50.142697],[14.507581,50.142724],[14.508057,50.142721],[14.508583,50.1427],[14.509135,50.142659],[14.509494,50.142616],[14.509899,50.142568],[14.511218,50.142389],[14.511119,50.141949],[14.510933,50.141976],[14.510777,50.142003],[14.510718,50.142013],[14.510555,50.142039],[14.510074,50.142112],[14.509541,50.142166],[14.509217,50.142191],[14.508928,50.142212],[14.508408,50.142237],[14.508363,50.14189],[14.508458,50.141884],[14.508412,50.141563],[14.508345,50.141142],[14.508478,50.141129],[14.508437,50.140857],[14.50819,50.140725],[14.507899,50.140582],[14.507939,50.140423],[14.507624,50.140463],[14.505836,50.140682],[14.505769,50.140687],[14.505689,50.140241],[14.505567,50.139477],[14.5055,50.139455],[14.505433,50.139073],[14.505432,50.139065],[14.505325,50.138462],[14.50497,50.138367],[14.504857,50.138357],[14.504701,50.138358],[14.504636,50.138361],[14.504537,50.13838],[14.504432,50.138394],[14.504237,50.138408],[14.50404,50.13843],[14.50392,50.138449],[14.503852,50.138468],[14.503753,50.138501],[14.503661,50.138549],[14.503621,50.13857],[14.503499,50.138635],[14.503377,50.138717],[14.503326,50.138751],[14.502747,50.139158],[14.502602,50.139256],[14.502226,50.139508],[14.502204,50.139522],[14.501777,50.139844],[14.501448,50.140047],[14.501286,50.140166],[14.501097,50.140288],[14.500976,50.140352],[14.500658,50.140529],[14.500431,50.140657],[14.499736,50.140661],[14.499647,50.140657],[14.498605,50.140652],[14.497826,50.140648],[14.497083,50.140645],[14.497,50.140644],[14.496992,50.140669],[14.496988,50.140681],[14.496932,50.140865],[14.496807,50.141274],[14.496776,50.141377],[14.496654,50.141775],[14.49664,50.141822],[14.496497,50.142291],[14.49649,50.142312],[14.496484,50.142332],[14.497902,50.142403],[14.50054,50.142353],[14.501167,50.14228],[14.501174,50.142294],[14.502376,50.142329],[14.502823,50.142342],[14.502929,50.142346],[14.504269,50.142403],[14.504291,50.142404],[14.50434,50.142683],[14.504356,50.143095],[14.504358,50.143149],[14.504386,50.143836],[14.504387,50.143865],[14.504392,50.144004],[14.504356,50.144308],[14.504294,50.144396],[14.504758,50.144408],[14.505348,50.144422],[14.505355,50.144423],[14.505588,50.144428],[14.505692,50.144431],[14.50582,50.144434],[14.506036,50.14444],[14.506047,50.144542],[14.506058,50.144636],[14.506069,50.144731],[14.506076,50.144794],[14.506081,50.144833],[14.506087,50.144883],[14.506118,50.145133],[14.506125,50.145194],[14.506128,50.145221],[14.506171,50.145573],[14.506245,50.145912],[14.506276,50.146055],[14.506281,50.146077],[14.506303,50.146178],[14.506376,50.146514],[14.50645,50.146843],[14.506456,50.14687],[14.506456,50.14687],[14.506475,50.146953],[14.506518,50.147141],[14.506573,50.147142],[14.506604,50.147143],[14.506655,50.147144],[14.50709,50.147129],[14.507506,50.147215],[14.507648,50.147245],[14.507725,50.147261],[14.507794,50.147275],[14.507818,50.14728],[14.507904,50.147298],[14.507923,50.147301],[14.507949,50.147307],[14.508054,50.147328],[14.508077,50.147332],[14.508192,50.147355],[14.508216,50.14736],[14.508325,50.147382],[14.508354,50.147388],[14.508457,50.147408],[14.508488,50.147415],[14.508562,50.14743],[14.508593,50.147436],[14.508668,50.147451],[14.508698,50.147457],[14.508823,50.147482],[14.508831,50.147483]]]}},{"type":"Feature","properties":{"cislo":18006,"kod":28191,"mestskaCast":"praha-18"},"geometry":{"type":"Polygon","coordinates":[[[14.505433,50.139073],[14.5055,50.139455],[14.505567,50.139477],[14.505689,50.140241],[14.505769,50.140687],[14.505836,50.140682],[14.507624,50.140463],[14.507939,50.140423],[14.507899,50.140582],[14.50819,50.140725],[14.508437,50.140857],[14.508478,50.141129],[14.508345,50.141142],[14.508412,50.141563],[14.508458,50.141884],[14.508363,50.14189],[14.508408,50.142237],[14.508928,50.142212],[14.509217,50.142191],[14.509541,50.142166],[14.510074,50.142112],[14.510555,50.142039],[14.510718,50.142013],[14.510777,50.142003],[14.510933,50.141976],[14.511119,50.141949],[14.511082,50.141828],[14.511016,50.141571],[14.510956,50.141299],[14.510899,50.141122],[14.510632,50.141004],[14.509923,50.140642],[14.508842,50.140127],[14.508603,50.140092],[14.507934,50.140071],[14.507739,50.140088],[14.507398,50.140129],[14.507237,50.139476],[14.507121,50.139006],[14.506076,50.139102],[14.505876,50.139053],[14.505433,50.139073]]]}},{"type":"Feature","properties":{"cislo":18007,"kod":28193,"mestskaCast":"praha-18"},"geometry":{"type":"Polygon","coordinates":[[[14.507934,50.140071],[14.508603,50.140092],[14.508842,50.140127],[14.508999,50.139978],[14.509179,50.139814],[14.509387,50.139641],[14.509601,50.139439],[14.50967,50.13937],[14.509754,50.139313],[14.509844,50.139229],[14.509976,50.139118],[14.510117,50.138963],[14.510263,50.138784],[14.510282,50.138589],[14.510265,50.138435],[14.510243,50.138278],[14.510217,50.138261],[14.510169,50.138256],[14.509946,50.138265],[14.509653,50.138278],[14.509373,50.138266],[14.509217,50.138248],[14.509341,50.137837],[14.509374,50.137728],[14.50944,50.137544],[14.509608,50.137081],[14.50966,50.136938],[14.50967,50.136909],[14.509746,50.136694],[14.509921,50.136196],[14.50995,50.136125],[14.509929,50.136087],[14.509886,50.136062],[14.509791,50.13604],[14.509579,50.136012],[14.509305,50.135969],[14.50908,50.135935],[14.508804,50.135895],[14.508067,50.135795],[14.507958,50.136105],[14.507906,50.136097],[14.507697,50.136821],[14.507621,50.137112],[14.507582,50.13735],[14.50746,50.138085],[14.507379,50.138422],[14.507467,50.138434],[14.507342,50.138776],[14.507056,50.138751],[14.507121,50.139006],[14.507237,50.139476],[14.507398,50.140129],[14.507739,50.140088],[14.507934,50.140071]]]}},{"type":"Feature","properties":{"cislo":18008,"kod":28195,"mestskaCast":"praha-18"},"geometry":{"type":"Polygon","coordinates":[[[14.504701,50.138358],[14.504857,50.138357],[14.50497,50.138367],[14.505325,50.138462],[14.505432,50.139065],[14.505433,50.139073],[14.505876,50.139053],[14.506076,50.139102],[14.507121,50.139006],[14.507056,50.138751],[14.507342,50.138776],[14.507467,50.138434],[14.507379,50.138422],[14.50746,50.138085],[14.507582,50.13735],[14.507621,50.137112],[14.507697,50.136821],[14.507906,50.136097],[14.507958,50.136105],[14.508067,50.135795],[14.507728,50.135749],[14.506962,50.13563],[14.506775,50.135601],[14.506746,50.135596],[14.50554,50.135408],[14.505275,50.136017],[14.505051,50.136517],[14.504969,50.136743],[14.504918,50.136882],[14.504811,50.137321],[14.504756,50.1376],[14.504714,50.138066],[14.504701,50.138358]]]}},{"type":"Feature","properties":{"cislo":18009,"kod":28197,"mestskaCast":"praha-18"},"geometry":{"type":"Polygon","coordinates":[[[14.508067,50.135795],[14.508804,50.135895],[14.50908,50.135935],[14.509305,50.135969],[14.509579,50.136012],[14.509791,50.13604],[14.509886,50.136062],[14.509929,50.136087],[14.510032,50.136069],[14.510362,50.136044],[14.510734,50.136018],[14.510854,50.136011],[14.510912,50.136008],[14.510908,50.135941],[14.510833,50.135358],[14.510781,50.135111],[14.510734,50.135024],[14.510638,50.134943],[14.51062,50.134694],[14.51064,50.134693],[14.510732,50.134685],[14.511161,50.134652],[14.511626,50.134615],[14.511584,50.134407],[14.511561,50.134266],[14.511483,50.133839],[14.51146,50.133715],[14.511451,50.133674],[14.511451,50.13367],[14.511445,50.133645],[14.511445,50.133614],[14.511436,50.133064],[14.511427,50.132757],[14.511412,50.132271],[14.511399,50.13185],[14.51139,50.131627],[14.511389,50.131476],[14.511391,50.131457],[14.5114,50.13143],[14.511409,50.131403],[14.511231,50.131403],[14.510975,50.131424],[14.510645,50.13145],[14.51053,50.13143],[14.51004,50.132543],[14.509889,50.132877],[14.509726,50.133236],[14.509669,50.133377],[14.509645,50.133476],[14.509647,50.133607],[14.509678,50.133771],[14.50972,50.13394],[14.509096,50.133878],[14.508729,50.133847],[14.508603,50.133828],[14.508599,50.133828],[14.508456,50.1338],[14.508293,50.133765],[14.508056,50.133708],[14.507596,50.133604],[14.507411,50.133991],[14.5073,50.134243],[14.507239,50.134398],[14.507168,50.134618],[14.507118,50.134775],[14.50709,50.134837],[14.506981,50.135074],[14.506971,50.135091],[14.506856,50.135342],[14.506845,50.135368],[14.506746,50.135596],[14.506775,50.135601],[14.506962,50.13563],[14.507728,50.135749],[14.508067,50.135795]]]}},{"type":"Feature","properties":{"cislo":18010,"kod":28199,"mestskaCast":"praha-18"},"geometry":{"type":"Polygon","coordinates":[[[14.497,50.140644],[14.497083,50.140645],[14.497826,50.140648],[14.498605,50.140652],[14.499647,50.140657],[14.499736,50.140661],[14.500431,50.140657],[14.500658,50.140529],[14.500976,50.140352],[14.501097,50.140288],[14.501286,50.140166],[14.501448,50.140047],[14.501777,50.139844],[14.502204,50.139522],[14.502226,50.139508],[14.502602,50.139256],[14.502747,50.139158],[14.503326,50.138751],[14.503377,50.138717],[14.503499,50.138635],[14.503621,50.13857],[14.503661,50.138549],[14.503753,50.138501],[14.503852,50.138468],[14.50392,50.138449],[14.50404,50.13843],[14.504237,50.138408],[14.504432,50.138394],[14.504537,50.13838],[14.504636,50.138361],[14.504701,50.138358],[14.504714,50.138066],[14.504756,50.1376],[14.504811,50.137321],[14.504918,50.136882],[14.504969,50.136743],[14.505051,50.136517],[14.505275,50.136017],[14.50554,50.135408],[14.506746,50.135596],[14.506845,50.135368],[14.506856,50.135342],[14.506971,50.135091],[14.506981,50.135074],[14.50709,50.134837],[14.507118,50.134775],[14.507168,50.134618],[14.507239,50.134398],[14.5073,50.134243],[14.507411,50.133991],[14.507596,50.133604],[14.508056,50.133708],[14.508293,50.133765],[14.508456,50.1338],[14.508599,50.133828],[14.508697,50.133568],[14.508869,50.133168],[14.509108,50.132621],[14.509265,50.132259],[14.508642,50.132141],[14.50837,50.132093],[14.508319,50.132057],[14.508144,50.132028],[14.507958,50.131993],[14.507763,50.131958],[14.507509,50.131908],[14.507209,50.131837],[14.501993,50.130568],[14.501243,50.130644],[14.500401,50.130871],[14.499851,50.131128],[14.499391,50.131448],[14.49888,50.131878],[14.498436,50.132295],[14.498052,50.132741],[14.497855,50.134198],[14.497815,50.134605],[14.497806,50.135199],[14.497756,50.135827],[14.497676,50.136372],[14.497639,50.13663],[14.49749,50.137665],[14.497481,50.137731],[14.497476,50.137767],[14.497465,50.13784],[14.497449,50.137955],[14.497447,50.137971],[14.497444,50.137996],[14.497399,50.138322],[14.497378,50.138472],[14.497376,50.138483],[14.49736,50.138588],[14.497325,50.138809],[14.497124,50.140099],[14.497028,50.140551],[14.497,50.140644]]]}},{"type":"Feature","properties":{"cislo":18011,"kod":28201,"mestskaCast":"praha-18"},"geometry":{"type":"Polygon","coordinates":[[[14.511409,50.131403],[14.511583,50.131402],[14.511833,50.131415],[14.511912,50.131419],[14.512092,50.131425],[14.512393,50.131437],[14.512957,50.131458],[14.513075,50.131462],[14.513413,50.131475],[14.513431,50.131475],[14.513565,50.131477],[14.513527,50.131347],[14.513481,50.131247],[14.513424,50.131156],[14.513416,50.131142],[14.513389,50.131116],[14.513321,50.131047],[14.513314,50.13104],[14.513023,50.130766],[14.512933,50.130681],[14.51293,50.130678],[14.512899,50.130648],[14.512812,50.130566],[14.512746,50.130505],[14.512493,50.130269],[14.512266,50.130057],[14.512194,50.129989],[14.51154,50.129387],[14.511453,50.129306],[14.511229,50.129096],[14.511058,50.128891],[14.510981,50.128753],[14.510944,50.128685],[14.51163,50.128558],[14.512402,50.128422],[14.512746,50.128366],[14.512975,50.128312],[14.513207,50.128247],[14.513427,50.128167],[14.513638,50.128072],[14.513851,50.12797],[14.514114,50.127831],[14.514363,50.127684],[14.514857,50.127378],[14.514926,50.127412],[14.515168,50.127534],[14.51536,50.12763],[14.515486,50.127686],[14.515568,50.127709],[14.515646,50.12772],[14.515881,50.12774],[14.516198,50.127755],[14.516622,50.127769],[14.517089,50.127792],[14.517488,50.127814],[14.517776,50.127839],[14.518032,50.127866],[14.518258,50.127909],[14.518417,50.127933],[14.518677,50.127954],[14.518925,50.127979],[14.519174,50.128009],[14.519489,50.128053],[14.519602,50.128069],[14.519731,50.128075],[14.519893,50.128074],[14.520316,50.128075],[14.520754,50.12807],[14.521011,50.128054],[14.521247,50.12803],[14.521462,50.128007],[14.521567,50.127987],[14.521674,50.127958],[14.521802,50.127904],[14.52197,50.127832],[14.522066,50.127792],[14.522145,50.127765],[14.522215,50.127751],[14.522316,50.127741],[14.522545,50.12773],[14.522891,50.127713],[14.523096,50.127696],[14.523532,50.127638],[14.523959,50.12758],[14.524295,50.12755],[14.524872,50.127536],[14.524861,50.12751],[14.524852,50.12748],[14.524692,50.126908],[14.524682,50.126878],[14.524631,50.126702],[14.524612,50.126636],[14.524532,50.126357],[14.52419,50.126382],[14.524081,50.12639],[14.522824,50.126482],[14.522046,50.12659],[14.521771,50.126176],[14.521546,50.125743],[14.521282,50.125239],[14.521087,50.124902],[14.520845,50.124575],[14.520303,50.124746],[14.519558,50.124124],[14.519008,50.123707],[14.518379,50.123212],[14.518778,50.122956],[14.518427,50.1228],[14.518227,50.122924],[14.518049,50.123021],[14.51768,50.123209],[14.517228,50.123419],[14.516785,50.123605],[14.51668,50.123643],[14.516678,50.123644],[14.516601,50.123671],[14.516595,50.123673],[14.516424,50.123714],[14.516342,50.123734],[14.516248,50.123756],[14.515761,50.123898],[14.515473,50.123977],[14.514778,50.124156],[14.514235,50.124304],[14.513896,50.124156],[14.51341,50.124324],[14.512911,50.124524],[14.512836,50.124552],[14.512684,50.124611],[14.512573,50.124654],[14.512531,50.12467],[14.512465,50.124696],[14.512396,50.124722],[14.512314,50.124754],[14.512267,50.124772],[14.512189,50.124803],[14.511771,50.124966],[14.511511,50.125063],[14.511399,50.125104],[14.511372,50.125114],[14.511355,50.12512],[14.511344,50.125124],[14.511343,50.125125],[14.51126,50.125156],[14.511236,50.125165],[14.511156,50.125194],[14.51115,50.125196],[14.510749,50.125336],[14.510425,50.125442],[14.510177,50.125518],[14.510098,50.12554],[14.510028,50.12556],[14.509956,50.125579],[14.50995,50.125581],[14.509731,50.12544],[14.5095,50.125488],[14.509459,50.125499],[14.50944,50.125504],[14.509431,50.125507],[14.509378,50.125521],[14.509182,50.125579],[14.509137,50.125594],[14.509133,50.125595],[14.508931,50.125665],[14.508817,50.125707],[14.508813,50.125708],[14.508411,50.125856],[14.508147,50.125962],[14.507898,50.126059],[14.507474,50.126233],[14.507437,50.126248],[14.506852,50.126497],[14.506721,50.126568],[14.506694,50.126582],[14.506794,50.126638],[14.507081,50.126796],[14.50699,50.126855],[14.506999,50.126859],[14.507046,50.126883],[14.507059,50.12689],[14.507117,50.126919],[14.507121,50.126921],[14.507121,50.126921],[14.50741,50.127067],[14.501993,50.130568],[14.507209,50.131837],[14.507509,50.131908],[14.507763,50.131958],[14.507958,50.131993],[14.508144,50.132028],[14.508319,50.132057],[14.50837,50.132093],[14.508642,50.132141],[14.509265,50.132259],[14.509108,50.132621],[14.508869,50.133168],[14.508697,50.133568],[14.508599,50.133828],[14.508603,50.133828],[14.508729,50.133847],[14.509096,50.133878],[14.50972,50.13394],[14.509678,50.133771],[14.509647,50.133607],[14.509645,50.133476],[14.509669,50.133377],[14.509726,50.133236],[14.509889,50.132877],[14.51004,50.132543],[14.51053,50.13143],[14.510645,50.13145],[14.510975,50.131424],[14.511231,50.131403],[14.511409,50.131403]]]}},{"type":"Feature","properties":{"cislo":18012,"kod":28203,"mestskaCast":"praha-18"},"geometry":{"type":"Polygon","coordinates":[[[14.495247,50.136151],[14.495457,50.136173],[14.495463,50.136174],[14.495482,50.136176],[14.4955,50.136177],[14.495507,50.136178],[14.495531,50.13618],[14.49556,50.136183],[14.49583,50.136211],[14.495909,50.136219],[14.49591,50.136219],[14.496853,50.136315],[14.497154,50.136346],[14.497676,50.136372],[14.497676,50.136372],[14.497756,50.135827],[14.497806,50.135199],[14.497815,50.134605],[14.497855,50.134198],[14.498052,50.132741],[14.498436,50.132295],[14.49888,50.131878],[14.499391,50.131448],[14.499851,50.131128],[14.500401,50.130871],[14.501243,50.130644],[14.501993,50.130568],[14.50741,50.127067],[14.507394,50.12707],[14.507214,50.127107],[14.507118,50.127115],[14.506939,50.127108],[14.506858,50.127098],[14.506701,50.127079],[14.506679,50.127076],[14.506666,50.127076],[14.506581,50.127064],[14.506462,50.127047],[14.506439,50.127045],[14.506347,50.127036],[14.506243,50.127027],[14.505649,50.126976],[14.505356,50.126944],[14.504252,50.126833],[14.504159,50.126823],[14.504124,50.12682],[14.504036,50.126814],[14.50401,50.126812],[14.503638,50.126787],[14.502958,50.12672],[14.50292,50.126718],[14.502915,50.126718],[14.502884,50.126716],[14.502619,50.126701],[14.502602,50.1267],[14.502597,50.126699],[14.502541,50.126696],[14.502339,50.126684],[14.502323,50.126683],[14.502062,50.126668],[14.502059,50.126668],[14.502045,50.126667],[14.501844,50.126655],[14.50179,50.126652],[14.501781,50.126651],[14.501739,50.126649],[14.50173,50.126648],[14.501709,50.126646],[14.501705,50.126646],[14.501536,50.126635],[14.501518,50.126634],[14.501471,50.126631],[14.500795,50.126586],[14.50071,50.126581],[14.500705,50.12658],[14.500677,50.126579],[14.500673,50.126579],[14.500634,50.126576],[14.500633,50.126576],[14.500656,50.126696],[14.500696,50.126693],[14.500697,50.126698],[14.500698,50.126701],[14.500746,50.126697],[14.500739,50.126658],[14.500737,50.126646],[14.500825,50.12664],[14.50082,50.126614],[14.500857,50.126611],[14.500862,50.126639],[14.500907,50.126635],[14.500909,50.126645],[14.500967,50.126641],[14.500966,50.126632],[14.500993,50.12663],[14.500994,50.126639],[14.501004,50.126638],[14.50104,50.126636],[14.501118,50.126632],[14.50127,50.126751],[14.501264,50.126758],[14.501102,50.126929],[14.501076,50.126952],[14.500447,50.127422],[14.500311,50.127525],[14.500275,50.127534],[14.500244,50.127558],[14.49987,50.127745],[14.499826,50.127768],[14.499826,50.127768],[14.499766,50.127796],[14.499723,50.127817],[14.499556,50.127897],[14.499422,50.127958],[14.499421,50.127958],[14.499248,50.12803],[14.499103,50.128082],[14.498988,50.128125],[14.498941,50.128142],[14.498923,50.12805],[14.498921,50.128036],[14.498841,50.1276],[14.498577,50.12762],[14.498596,50.127729],[14.498515,50.127735],[14.498514,50.127732],[14.49851,50.127732],[14.498485,50.127596],[14.498498,50.127595],[14.498498,50.127594],[14.498494,50.127573],[14.498481,50.127574],[14.498479,50.127568],[14.498533,50.127565],[14.498517,50.127472],[14.49844,50.127478],[14.498427,50.127576],[14.498418,50.127646],[14.498389,50.127834],[14.498331,50.128218],[14.498313,50.128338],[14.498301,50.128414],[14.498296,50.128448],[14.498291,50.128482],[14.49828,50.128554],[14.498272,50.128605],[14.498269,50.128622],[14.498231,50.128875],[14.498188,50.129083],[14.498176,50.129141],[14.498173,50.129158],[14.498128,50.12942],[14.498026,50.130135],[14.498012,50.130244],[14.498011,50.130254],[14.497957,50.130618],[14.497923,50.131137],[14.497872,50.131309],[14.497872,50.131309],[14.49782,50.131313],[14.497091,50.131303],[14.497005,50.131301],[14.496851,50.131299],[14.49676,50.131298],[14.496754,50.131298],[14.496755,50.131318],[14.496756,50.131369],[14.496757,50.131387],[14.495557,50.131376],[14.495549,50.131496],[14.495564,50.131673],[14.495555,50.131779],[14.495548,50.131866],[14.495514,50.132138],[14.495409,50.132718],[14.495389,50.132828],[14.495384,50.13286],[14.495278,50.133512],[14.495237,50.1337],[14.495206,50.133876],[14.495162,50.134088],[14.495012,50.134761],[14.494905,50.135187],[14.494805,50.135541],[14.494799,50.13556],[14.494714,50.135811],[14.494714,50.135811],[14.494646,50.136065],[14.494639,50.136089],[14.494646,50.13609],[14.494689,50.136095],[14.49471,50.136097],[14.49476,50.136102],[14.495134,50.13614],[14.495202,50.136147],[14.495247,50.136151]]]}}]}
