{"type":"FeatureCollection","features":[{"type":"Feature","properties":{"cislo":34001,"kod":27849,"mestskaCast":"praha-kolovraty"},"geometry":{"type":"Polygon","coordinates":[[[14.630941,50.026681],[14.632953,50.018292],[14.63231,50.015801],[14.630739,50.015058],[14.628973,50.01404],[14.627872,50.012864],[14.627638,50.012971],[14.627387,50.013094],[14.627166,50.013211],[14.626897,50.013351],[14.626628,50.013491],[14.626325,50.013664],[14.626131,50.013784],[14.625811,50.013965],[14.625474,50.014162],[14.625027,50.014414],[14.62469,50.014611],[14.624385,50.014793],[14.624065,50.014974],[14.623744,50.015164],[14.623409,50.015353],[14.623072,50.01555],[14.622737,50.015739],[14.622672,50.015779],[14.622431,50.015921],[14.622131,50.016076],[14.621845,50.016233],[14.621609,50.016349],[14.621358,50.016472],[14.621266,50.016509],[14.621093,50.016594],[14.62083,50.016707],[14.620569,50.016812],[14.620325,50.016899],[14.620078,50.017005],[14.619742,50.01713],[14.619465,50.017242],[14.619113,50.017375],[14.618546,50.017597],[14.618379,50.017655],[14.618133,50.017752],[14.617809,50.017887],[14.617735,50.017908],[14.617489,50.018004],[14.617106,50.018153],[14.616644,50.018339],[14.616232,50.018494],[14.615849,50.018642],[14.615558,50.018753],[14.615234,50.018888],[14.614837,50.019035],[14.614621,50.019125],[14.614116,50.019317],[14.61378,50.019442],[14.613596,50.019517],[14.613366,50.019606],[14.613028,50.01974],[14.612708,50.019857],[14.612385,50.019983],[14.612109,50.020095],[14.611771,50.020229],[14.611466,50.020339],[14.611158,50.020466],[14.610729,50.020628],[14.610376,50.02077],[14.609686,50.021037],[14.609685,50.021037],[14.609708,50.021186],[14.609744,50.021266],[14.609862,50.021284],[14.6102,50.021218],[14.61073,50.021249],[14.611552,50.021398],[14.611782,50.021427],[14.612186,50.02146],[14.61245,50.021492],[14.612532,50.021475],[14.612665,50.021448],[14.612732,50.021434],[14.613178,50.021465],[14.61355,50.021498],[14.613562,50.021499],[14.613874,50.021519],[14.614227,50.021524],[14.614741,50.021532],[14.614952,50.021525],[14.615208,50.021516],[14.615219,50.021516],[14.615754,50.021514],[14.615768,50.021517],[14.615773,50.021517],[14.61626,50.021512],[14.616792,50.021507],[14.617296,50.021493],[14.61759,50.0215],[14.617597,50.0215],[14.618178,50.021524],[14.618446,50.021544],[14.618938,50.021601],[14.619318,50.021632],[14.619891,50.021694],[14.620619,50.021793],[14.620941,50.02184],[14.620973,50.021845],[14.621506,50.021944],[14.621477,50.022018],[14.621363,50.022159],[14.62128,50.022251],[14.621278,50.022253],[14.621108,50.022416],[14.621062,50.022458],[14.62094,50.022567],[14.620296,50.023168],[14.620079,50.023356],[14.62007,50.023359],[14.619691,50.023686],[14.619136,50.024181],[14.618556,50.024912],[14.619564,50.024873],[14.621074,50.024817],[14.621097,50.024853],[14.621119,50.024887],[14.621141,50.024921],[14.621161,50.024951],[14.621165,50.024952],[14.621324,50.024966],[14.621982,50.024895],[14.622589,50.024893],[14.62332,50.024919],[14.624315,50.024951],[14.624571,50.024937],[14.62473,50.02494],[14.62585,50.025092],[14.626347,50.025136],[14.626971,50.025142],[14.627111,50.025131],[14.627247,50.025107],[14.627496,50.025035],[14.627807,50.024945],[14.628019,50.024902],[14.62823,50.024867],[14.629265,50.024768],[14.62945,50.02475],[14.629454,50.02477],[14.62953,50.025175],[14.62968,50.025689],[14.630001,50.026514],[14.630829,50.026603],[14.630837,50.026604],[14.630863,50.026607],[14.630887,50.026629],[14.630941,50.026681]]]}},{"type":"Feature","properties":{"cislo":34002,"kod":27851,"mestskaCast":"praha-kolovraty"},"geometry":{"type":"Polygon","coordinates":[[[14.609685,50.021037],[14.609686,50.021037],[14.610376,50.02077],[14.610729,50.020628],[14.611158,50.020466],[14.611466,50.020339],[14.611771,50.020229],[14.612109,50.020095],[14.612385,50.019983],[14.612708,50.019857],[14.613028,50.01974],[14.613366,50.019606],[14.613596,50.019517],[14.61378,50.019442],[14.614116,50.019317],[14.614621,50.019125],[14.614837,50.019035],[14.615234,50.018888],[14.615558,50.018753],[14.615849,50.018642],[14.616232,50.018494],[14.616644,50.018339],[14.617106,50.018153],[14.617489,50.018004],[14.617735,50.017908],[14.617809,50.017887],[14.618133,50.017752],[14.618379,50.017655],[14.618546,50.017597],[14.619113,50.017375],[14.619465,50.017242],[14.619742,50.01713],[14.620078,50.017005],[14.620325,50.016899],[14.620569,50.016812],[14.62083,50.016707],[14.621093,50.016594],[14.621266,50.016509],[14.621358,50.016472],[14.621609,50.016349],[14.621845,50.016233],[14.622131,50.016076],[14.622431,50.015921],[14.622672,50.015779],[14.622737,50.015739],[14.623072,50.01555],[14.623409,50.015353],[14.623744,50.015164],[14.624065,50.014974],[14.624385,50.014793],[14.62469,50.014611],[14.625027,50.014414],[14.625474,50.014162],[14.625811,50.013965],[14.626131,50.013784],[14.626325,50.013664],[14.626628,50.013491],[14.626897,50.013351],[14.627166,50.013211],[14.626783,50.01305],[14.626049,50.012595],[14.625475,50.01222],[14.625082,50.011866],[14.626973,50.011257],[14.628371,50.011091],[14.628638,50.011028],[14.628958,50.010859],[14.629339,50.010562],[14.629576,50.009982],[14.630572,50.009648],[14.630387,50.009398],[14.630866,50.009196],[14.630806,50.009023],[14.632125,50.008632],[14.632697,50.007812],[14.633091,50.007593],[14.63542,50.007509],[14.636524,50.007371],[14.637235,50.006095],[14.63829,50.005782],[14.638577,50.005693],[14.63859,50.005687],[14.63873,50.005625],[14.638891,50.005532],[14.638924,50.005513],[14.639088,50.005402],[14.639133,50.005365],[14.639188,50.005319],[14.639219,50.005294],[14.639391,50.005114],[14.639429,50.005075],[14.639619,50.004876],[14.639656,50.004838],[14.639882,50.004603],[14.639974,50.004506],[14.640081,50.004405],[14.64012,50.004367],[14.640185,50.004305],[14.640293,50.0042],[14.640359,50.004136],[14.640396,50.0041],[14.640794,50.003714],[14.640895,50.003616],[14.640912,50.0036],[14.640959,50.003557],[14.640973,50.003541],[14.640989,50.003523],[14.641211,50.003278],[14.641235,50.003251],[14.641348,50.00314],[14.641986,50.002514],[14.642126,50.002365],[14.642226,50.00226],[14.642231,50.002254],[14.642681,50.001778],[14.642847,50.001611],[14.642938,50.00152],[14.643208,50.001282],[14.643398,50.001145],[14.64361,50.001004],[14.643914,50.000812],[14.644173,50.000645],[14.644543,50.000394],[14.64479,50.000232],[14.644905,50.000153],[14.644949,50.000123],[14.644963,50.000108],[14.645092,50.000053],[14.645218,49.999963],[14.646924,49.998754],[14.646889,49.998731],[14.646821,49.998692],[14.6468,49.99868],[14.646782,49.998669],[14.64672,49.998633],[14.645322,49.997797],[14.643857,49.996846],[14.643372,49.996532],[14.643313,49.996493],[14.643236,49.996443],[14.643026,49.996307],[14.642957,49.996262],[14.642752,49.996129],[14.642715,49.996104],[14.640887,49.994918],[14.640763,49.994837],[14.640604,49.994734],[14.640545,49.994695],[14.640153,49.994441],[14.640017,49.994516],[14.639809,49.994631],[14.639524,49.994789],[14.639517,49.994792],[14.638834,49.99517],[14.638707,49.995224],[14.638522,49.995256],[14.637991,49.995299],[14.637871,49.995308],[14.63763,49.99532],[14.637273,49.995337],[14.636906,49.995372],[14.636848,49.995382],[14.636623,49.995418],[14.636391,49.995473],[14.636157,49.995529],[14.636058,49.995553],[14.635764,49.99564],[14.635282,49.995812],[14.634776,49.995988],[14.634385,49.996083],[14.634332,49.996095],[14.634331,49.996095],[14.633997,49.99613],[14.633602,49.996102],[14.633437,49.996078],[14.633417,49.996076],[14.633389,49.996072],[14.631789,49.995841],[14.631709,49.99583],[14.631469,49.995795],[14.630511,49.995657],[14.630411,49.995642],[14.630178,49.995609],[14.62955,49.995582],[14.629347,49.995559],[14.629243,49.995547],[14.629204,49.995542],[14.629162,49.995537],[14.628517,49.995993],[14.628185,49.996182],[14.628167,49.996189],[14.62801,49.996249],[14.628005,49.996251],[14.627843,49.996321],[14.627705,49.99638],[14.627663,49.996398],[14.627606,49.996423],[14.627524,49.996458],[14.627251,49.996574],[14.626908,49.996716],[14.62677,49.996773],[14.626497,49.996884],[14.625635,49.997194],[14.625576,49.997222],[14.625537,49.99724],[14.625334,49.997337],[14.625333,49.997337],[14.625334,49.997338],[14.625332,49.997347],[14.625337,49.997393],[14.625341,49.997439],[14.625076,49.997833],[14.624888,49.998325],[14.624696,49.998707],[14.624682,49.998706],[14.623923,49.998631],[14.623784,49.999027],[14.624383,49.999125],[14.624909,49.999234],[14.626847,49.999729],[14.626845,49.999738],[14.626452,50.000339],[14.626265,50.000558],[14.625851,50.001058],[14.625734,50.001211],[14.625565,50.001414],[14.625377,50.001643],[14.625241,50.001821],[14.625103,50.002009],[14.624956,50.002241],[14.624952,50.002259],[14.624772,50.002515],[14.624605,50.002773],[14.62452,50.002911],[14.624417,50.003065],[14.624268,50.003306],[14.624143,50.003504],[14.624045,50.003632],[14.623958,50.003778],[14.623946,50.003768],[14.623588,50.003665],[14.62295,50.003555],[14.622774,50.003521],[14.621995,50.003408],[14.621912,50.003401],[14.621898,50.0034],[14.621857,50.003396],[14.621829,50.003394],[14.621774,50.003389],[14.621343,50.00336],[14.621219,50.003685],[14.620516,50.003615],[14.620034,50.003564],[14.620243,50.002766],[14.61933,50.002623],[14.617828,50.002402],[14.616797,50.002285],[14.616655,50.002626],[14.616586,50.00282],[14.616478,50.003201],[14.615925,50.003152],[14.614102,50.002985],[14.614069,50.003145],[14.614058,50.003398],[14.61406,50.003453],[14.614044,50.003733],[14.614019,50.003921],[14.613963,50.003916],[14.613908,50.003911],[14.61388,50.003909],[14.613867,50.003908],[14.613866,50.003908],[14.613868,50.003908],[14.613846,50.004045],[14.613835,50.004113],[14.61383,50.004129],[14.613745,50.004422],[14.613664,50.004683],[14.613612,50.004932],[14.613595,50.005012],[14.61358,50.005167],[14.613586,50.005327],[14.613596,50.005576],[14.613615,50.005761],[14.613618,50.005788],[14.613628,50.005889],[14.61364,50.006064],[14.613647,50.006181],[14.613624,50.006488],[14.613623,50.006508],[14.61355,50.006667],[14.613511,50.006751],[14.613464,50.0069],[14.6134,50.007064],[14.613314,50.007324],[14.613284,50.007437],[14.613281,50.007482],[14.61328,50.007506],[14.613274,50.007616],[14.613321,50.007613],[14.613325,50.007613],[14.613392,50.007608],[14.613402,50.007607],[14.613436,50.007605],[14.614065,50.007597],[14.614113,50.008298],[14.614113,50.00831],[14.614076,50.009007],[14.614117,50.009508],[14.614159,50.00967],[14.614571,50.009641],[14.614628,50.009638],[14.614689,50.009633],[14.614719,50.009631],[14.614781,50.009627],[14.615211,50.00988],[14.616293,50.010594],[14.615778,50.010924],[14.615552,50.011055],[14.615116,50.011307],[14.615285,50.01145],[14.615637,50.011747],[14.615801,50.011886],[14.616274,50.012244],[14.615971,50.012476],[14.615947,50.012489],[14.615923,50.012503],[14.615599,50.01269],[14.615987,50.013102],[14.615878,50.013163],[14.615849,50.013179],[14.615552,50.013331],[14.615489,50.013362],[14.61535,50.013431],[14.615299,50.013453],[14.614793,50.013675],[14.614561,50.013768],[14.613914,50.014003],[14.613898,50.014009],[14.613465,50.014198],[14.613487,50.01422],[14.613706,50.014452],[14.614208,50.015073],[14.614225,50.015103],[14.614236,50.015123],[14.614249,50.015143],[14.614264,50.015166],[14.614292,50.015223],[14.614318,50.015223],[14.614382,50.015297],[14.614382,50.015412],[14.614302,50.015471],[14.614259,50.015502],[14.614212,50.015526],[14.6141,50.015508],[14.614006,50.01555],[14.613921,50.01554],[14.613804,50.015582],[14.613727,50.015595],[14.613605,50.015615],[14.613466,50.015639],[14.613411,50.015668],[14.61314,50.015657],[14.613021,50.015644],[14.612959,50.015697],[14.612725,50.015773],[14.612533,50.015836],[14.612433,50.015821],[14.612214,50.015857],[14.61214,50.01592],[14.61204,50.015968],[14.611918,50.015982],[14.611816,50.016067],[14.611617,50.016171],[14.611645,50.016248],[14.611636,50.016377],[14.611635,50.016447],[14.611692,50.016475],[14.611719,50.016487],[14.611746,50.016502],[14.612112,50.016668],[14.612207,50.016706],[14.612212,50.016745],[14.612103,50.016791],[14.612028,50.016841],[14.611928,50.016934],[14.611883,50.01699],[14.611844,50.017141],[14.611834,50.017216],[14.611828,50.017308],[14.611668,50.017664],[14.611626,50.017796],[14.61157,50.017895],[14.611554,50.017981],[14.611603,50.018045],[14.611615,50.018098],[14.611613,50.018162],[14.611502,50.01823],[14.611469,50.018243],[14.611389,50.01834],[14.611286,50.018414],[14.611237,50.018451],[14.611183,50.018506],[14.611087,50.018605],[14.611055,50.018638],[14.611209,50.01872],[14.611684,50.018883],[14.611426,50.018878],[14.611264,50.018892],[14.610769,50.019032],[14.610381,50.019349],[14.610198,50.019184],[14.610181,50.019168],[14.609917,50.019288],[14.609726,50.019382],[14.609605,50.019395],[14.609585,50.019397],[14.609552,50.019407],[14.609491,50.019427],[14.609195,50.019498],[14.608938,50.019511],[14.608837,50.019582],[14.608719,50.019632],[14.608644,50.01972],[14.608627,50.019893],[14.608667,50.020086],[14.608682,50.020144],[14.608735,50.020292],[14.608876,50.020427],[14.609002,50.020474],[14.609234,50.020547],[14.609404,50.020647],[14.609559,50.020741],[14.609613,50.020787],[14.60965,50.020796],[14.609654,50.02083],[14.609679,50.020995],[14.609685,50.021035],[14.609685,50.021037]]]}},{"type":"Feature","properties":{"cislo":34003,"kod":27853,"mestskaCast":"praha-kolovraty"},"geometry":{"type":"Polygon","coordinates":[[[14.613866,50.003908],[14.613867,50.003908],[14.61388,50.003909],[14.613908,50.003911],[14.613963,50.003916],[14.614019,50.003921],[14.614044,50.003733],[14.61406,50.003453],[14.614058,50.003398],[14.614069,50.003145],[14.614102,50.002985],[14.615925,50.003152],[14.616478,50.003201],[14.616586,50.00282],[14.616655,50.002626],[14.616797,50.002285],[14.617828,50.002402],[14.61933,50.002623],[14.620243,50.002766],[14.620034,50.003564],[14.620516,50.003615],[14.621219,50.003685],[14.621343,50.00336],[14.621774,50.003389],[14.621829,50.003394],[14.621857,50.003396],[14.621898,50.0034],[14.621912,50.003401],[14.621995,50.003408],[14.622774,50.003521],[14.62295,50.003555],[14.623588,50.003665],[14.623946,50.003768],[14.623958,50.003778],[14.624045,50.003632],[14.624143,50.003504],[14.624268,50.003306],[14.624417,50.003065],[14.62452,50.002911],[14.624605,50.002773],[14.624772,50.002515],[14.624952,50.002259],[14.624956,50.002241],[14.625103,50.002009],[14.625241,50.001821],[14.625377,50.001643],[14.625565,50.001414],[14.625734,50.001211],[14.625851,50.001058],[14.626265,50.000558],[14.626452,50.000339],[14.626845,49.999738],[14.626847,49.999729],[14.624909,49.999234],[14.624383,49.999125],[14.623784,49.999027],[14.623923,49.998631],[14.624682,49.998706],[14.624696,49.998707],[14.624888,49.998325],[14.625076,49.997833],[14.625341,49.997439],[14.625337,49.997393],[14.625332,49.997347],[14.625334,49.997338],[14.625333,49.997337],[14.624987,49.997476],[14.624562,49.997668],[14.623943,49.997948],[14.623713,49.998054],[14.623088,49.99834],[14.622694,49.998509],[14.622624,49.998538],[14.622348,49.998615],[14.622157,49.998639],[14.622067,49.99865],[14.62141,49.9987],[14.621325,49.998392],[14.621021,49.998429],[14.620751,49.998462],[14.62048,49.998495],[14.62021,49.998527],[14.620007,49.998552],[14.619778,49.99858],[14.619705,49.998589],[14.619492,49.998615],[14.619468,49.998502],[14.619459,49.998458],[14.619421,49.998283],[14.619375,49.998064],[14.619393,49.998025],[14.619411,49.997988],[14.619352,49.997857],[14.619218,49.997559],[14.619195,49.997524],[14.619034,49.997608],[14.618906,49.99767],[14.618737,49.99774],[14.61857,49.997801],[14.618444,49.997857],[14.618333,49.997919],[14.618226,49.99799],[14.618185,49.998017],[14.618004,49.998083],[14.617873,49.998167],[14.617824,49.998205],[14.617779,49.998239],[14.617769,49.998243],[14.617631,49.998298],[14.617047,49.998497],[14.616984,49.998519],[14.61683,49.998251],[14.616726,49.998274],[14.616698,49.99828],[14.616682,49.998284],[14.616181,49.998407],[14.615828,49.998509],[14.615534,49.998625],[14.615462,49.998664],[14.615264,49.998772],[14.614791,49.99907],[14.614516,49.999276],[14.614437,49.999336],[14.614374,49.999395],[14.614057,49.999694],[14.614011,49.999738],[14.613995,49.99975],[14.613857,49.999856],[14.613739,49.999902],[14.61349,49.999998],[14.613469,49.999999],[14.613416,50.000003],[14.613019,50.000031],[14.613012,50.000064],[14.612725,50.000042],[14.612264,49.99996],[14.612279,49.999928],[14.612294,49.999895],[14.61187,49.999851],[14.611411,49.999709],[14.611379,49.999762],[14.611364,49.999757],[14.611352,49.999753],[14.611517,49.999558],[14.611815,49.999273],[14.612043,49.999089],[14.612185,49.998971],[14.612268,49.998902],[14.612234,49.998889],[14.612044,49.998815],[14.61177,49.998708],[14.611749,49.9987],[14.61169,49.998677],[14.611537,49.998747],[14.611444,49.998753],[14.611342,49.998679],[14.611224,49.998524],[14.610978,49.998504],[14.610831,49.998493],[14.610624,49.998576],[14.610342,49.998636],[14.610228,49.998702],[14.610086,49.998776],[14.610088,49.998956],[14.61001,49.999054],[14.609749,49.999193],[14.609674,49.999264],[14.609581,49.999458],[14.609481,49.999553],[14.609177,49.999708],[14.60914,49.999727],[14.608881,49.999886],[14.60878,49.999948],[14.608591,50.000106],[14.60826,50.000697],[14.608254,50.000986],[14.60853,50.001109],[14.608613,50.001146],[14.6088,50.001363],[14.609168,50.001526],[14.60933,50.001573],[14.609244,50.001832],[14.6093,50.001874],[14.609315,50.001885],[14.609679,50.002027],[14.609883,50.002154],[14.609676,50.002292],[14.609521,50.002401],[14.609421,50.002571],[14.609353,50.002662],[14.609262,50.00276],[14.609033,50.002918],[14.609672,50.002975],[14.610272,50.00302],[14.610283,50.00302],[14.611413,50.0031],[14.61144,50.003103],[14.612085,50.003182],[14.612297,50.003222],[14.612609,50.003302],[14.612674,50.003324],[14.612803,50.003369],[14.612902,50.003403],[14.613134,50.003524],[14.613173,50.00355],[14.613598,50.00383],[14.613827,50.003899],[14.613866,50.003908]]]}},{"type":"Feature","properties":{"cislo":34004,"kod":231450,"mestskaCast":"praha-kolovraty"},"geometry":{"type":"Polygon","coordinates":[[[14.636574,50.025999],[14.637003,50.025111],[14.636862,50.025091],[14.6368,50.025043],[14.637023,50.024664],[14.637092,50.024577],[14.637152,50.024438],[14.637349,50.024214],[14.637454,50.024097],[14.637558,50.024022],[14.637672,50.023908],[14.63796,50.023641],[14.638045,50.023573],[14.638188,50.023536],[14.638199,50.023473],[14.6384,50.023444],[14.638657,50.023456],[14.63874,50.023465],[14.639399,50.023565],[14.639509,50.023582],[14.639689,50.023609],[14.64048,50.023726],[14.640663,50.023747],[14.640862,50.023755],[14.640879,50.023733],[14.641076,50.023329],[14.641084,50.023312],[14.641315,50.022949],[14.641106,50.0229],[14.64072,50.022834],[14.640211,50.022759],[14.639921,50.022716],[14.639851,50.022706],[14.639526,50.022658],[14.638635,50.022522],[14.638102,50.022457],[14.637921,50.021919],[14.637897,50.021847],[14.637855,50.021628],[14.637856,50.021596],[14.637876,50.021058],[14.637938,50.020691],[14.638109,50.020719],[14.63887,50.020814],[14.638931,50.020584],[14.63907,50.020059],[14.639444,50.020086],[14.639485,50.019913],[14.639545,50.019168],[14.639519,50.018335],[14.638966,50.018313],[14.638476,50.018281],[14.638415,50.018277],[14.638255,50.018266],[14.638278,50.018115],[14.638318,50.017858],[14.638319,50.017838],[14.638342,50.017683],[14.638383,50.017383],[14.638414,50.017163],[14.638428,50.017138],[14.63844,50.017116],[14.638469,50.017064],[14.638472,50.017054],[14.638475,50.017041],[14.638622,50.016553],[14.63863,50.016524],[14.638846,50.015758],[14.638418,50.015699],[14.638662,50.015252],[14.638677,50.015224],[14.638693,50.015194],[14.638732,50.01512],[14.638805,50.014978],[14.638816,50.014958],[14.638826,50.014938],[14.638839,50.014913],[14.638966,50.014631],[14.638978,50.014607],[14.639052,50.014456],[14.639084,50.014283],[14.639175,50.014283],[14.639327,50.014286],[14.639349,50.014286],[14.639931,50.014294],[14.640035,50.014296],[14.64004,50.014296],[14.640208,50.014298],[14.640298,50.014299],[14.640337,50.0143],[14.641408,50.014245],[14.641851,50.014222],[14.642367,50.014192],[14.642433,50.014188],[14.642752,50.0142],[14.643015,50.014209],[14.643095,50.014225],[14.643114,50.013781],[14.643126,50.013455],[14.643084,50.012885],[14.64359,50.012839],[14.643683,50.012831],[14.643754,50.012824],[14.643928,50.012802],[14.644213,50.012765],[14.644174,50.01268],[14.643974,50.012245],[14.643974,50.012244],[14.643974,50.012243],[14.643952,50.012204],[14.643934,50.012172],[14.643908,50.012125],[14.64389,50.012094],[14.643887,50.012089],[14.64375,50.011865],[14.643703,50.011788],[14.643482,50.011425],[14.643221,50.010994],[14.643132,50.010789],[14.643108,50.010719],[14.643102,50.010701],[14.643321,50.010631],[14.643739,50.010484],[14.643905,50.010418],[14.644218,50.010286],[14.644353,50.010231],[14.644638,50.01012],[14.645068,50.009967],[14.645373,50.009789],[14.645697,50.009583],[14.645843,50.009491],[14.64642,50.009117],[14.646722,50.008892],[14.646754,50.008868],[14.6469,50.008779],[14.647053,50.008685],[14.647193,50.008629],[14.647593,50.008426],[14.648152,50.008159],[14.648517,50.007972],[14.648578,50.00794],[14.648776,50.007807],[14.648629,50.007665],[14.647556,50.006624],[14.647481,50.006552],[14.647404,50.006477],[14.647374,50.006448],[14.647227,50.006306],[14.647188,50.006267],[14.646811,50.005902],[14.646257,50.005669],[14.646151,50.005583],[14.64615,50.005582],[14.64611,50.00555],[14.645994,50.005456],[14.645805,50.005303],[14.64563,50.004981],[14.645497,50.004734],[14.645346,50.004743],[14.645201,50.004783],[14.645358,50.005156],[14.645106,50.005545],[14.644691,50.005832],[14.644323,50.006136],[14.644292,50.006162],[14.643869,50.006496],[14.643815,50.006539],[14.643409,50.006491],[14.643378,50.006487],[14.643367,50.006486],[14.643364,50.006485],[14.643357,50.006485],[14.643326,50.006481],[14.643285,50.006477],[14.643258,50.006474],[14.643085,50.006456],[14.643067,50.006454],[14.643047,50.006455],[14.642986,50.00646],[14.642927,50.006464],[14.642847,50.00647],[14.642697,50.006481],[14.642875,50.006223],[14.642925,50.006151],[14.642942,50.006127],[14.642417,50.006065],[14.642152,50.006056],[14.641921,50.006071],[14.641895,50.006072],[14.641225,50.006115],[14.641217,50.006115],[14.641125,50.006121],[14.640968,50.006136],[14.640925,50.006139],[14.64089,50.006143],[14.640662,50.006182],[14.640507,50.006219],[14.640316,50.006264],[14.640071,50.006317],[14.640016,50.006329],[14.639656,50.006357],[14.63867,50.005943],[14.638402,50.00583],[14.638301,50.005788],[14.63829,50.005782],[14.637235,50.006095],[14.636524,50.007371],[14.63542,50.007509],[14.633091,50.007593],[14.632697,50.007812],[14.632125,50.008632],[14.630806,50.009023],[14.630866,50.009196],[14.630387,50.009398],[14.630572,50.009648],[14.629576,50.009982],[14.629339,50.010562],[14.628958,50.010859],[14.628638,50.011028],[14.628371,50.011091],[14.626973,50.011257],[14.625082,50.011866],[14.625475,50.01222],[14.626049,50.012595],[14.626783,50.01305],[14.627166,50.013211],[14.627387,50.013094],[14.627638,50.012971],[14.627872,50.012864],[14.628973,50.01404],[14.630739,50.015058],[14.63231,50.015801],[14.632953,50.018292],[14.630941,50.026681],[14.630976,50.026716],[14.631043,50.026724],[14.631635,50.026798],[14.632708,50.02689],[14.633313,50.026933],[14.633989,50.026982],[14.634419,50.02701],[14.635709,50.027026],[14.635821,50.027026],[14.635865,50.027025],[14.63584,50.02688],[14.635823,50.026777],[14.635949,50.026593],[14.636017,50.026508],[14.636055,50.026338],[14.635988,50.026012],[14.635993,50.025983],[14.636028,50.025982],[14.636046,50.025982],[14.636069,50.025983],[14.636574,50.025999]]]}}]}
